{
"type": "FeatureCollection",
"name": "bary-hospody",
"crs": { "type": "name", "properties": { "name": "urn:ogc:def:crs:OGC:1.3:CRS84" } },
"features": [
{ "type": "Feature", "properties": { "fid": 1, "full_id": "n603659560", "osm_id": "603659560", "osm_type": "node", "amenity": "bar", "payment:qerko": null, "check_date:currency:XBT": null, "check_date": null, "wheelchair": null, "outdoor_seating": null, "brewery": null, "contact:website": null, "phone": null, "website": null, "opening_hours": null, "email": null, "name": null, "gambling": "yes", "xcoord": 18.339298, "ycoord": 49.6813673 }, "geometry": { "type": "Point", "coordinates": [ 18.339298, 49.6813673 ] } },
{ "type": "Feature", "properties": { "fid": 2, "full_id": "n603927520", "osm_id": "603927520", "osm_type": "node", "amenity": "bar", "payment:qerko": null, "check_date:currency:XBT": null, "check_date": null, "wheelchair": null, "outdoor_seating": null, "brewery": null, "contact:website": null, "phone": null, "website": null, "opening_hours": null, "email": null, "name": "Billiard Bar Koloredo", "gambling": null, "xcoord": 18.3429718, "ycoord": 49.6798601 }, "geometry": { "type": "Point", "coordinates": [ 18.3429718, 49.6798601 ] } },
{ "type": "Feature", "properties": { "fid": 3, "full_id": "n603940407", "osm_id": "603940407", "osm_type": "node", "amenity": "bar", "payment:qerko": null, "check_date:currency:XBT": null, "check_date": null, "wheelchair": null, "outdoor_seating": null, "brewery": null, "contact:website": null, "phone": null, "website": null, "opening_hours": null, "email": null, "name": "Metaxa", "gambling": null, "xcoord": 18.3427065, "ycoord": 49.6798487 }, "geometry": { "type": "Point", "coordinates": [ 18.3427065, 49.6798487 ] } },
{ "type": "Feature", "properties": { "fid": 4, "full_id": "n604583697", "osm_id": "604583697", "osm_type": "node", "amenity": "bar", "payment:qerko": null, "check_date:currency:XBT": null, "check_date": null, "wheelchair": null, "outdoor_seating": null, "brewery": null, "contact:website": null, "phone": null, "website": null, "opening_hours": null, "email": null, "name": "San Marco", "gambling": null, "xcoord": 18.3402807, "ycoord": 49.6764414 }, "geometry": { "type": "Point", "coordinates": [ 18.3402807, 49.6764414 ] } },
{ "type": "Feature", "properties": { "fid": 5, "full_id": "n604583718", "osm_id": "604583718", "osm_type": "node", "amenity": "bar", "payment:qerko": null, "check_date:currency:XBT": null, "check_date": null, "wheelchair": null, "outdoor_seating": null, "brewery": null, "contact:website": null, "phone": null, "website": "http://www.ustareherty.cz/", "opening_hours": "Mo-Th 17:00-23:00; Fr 17:00-24:00; Sa 18:00-24:00", "email": "ustareherty@email.cz", "name": "vinárna U Staré Herty", "gambling": null, "xcoord": 18.3402988, "ycoord": 49.6755625 }, "geometry": { "type": "Point", "coordinates": [ 18.3402988, 49.6755625 ] } },
{ "type": "Feature", "properties": { "fid": 6, "full_id": "n824561265", "osm_id": "824561265", "osm_type": "node", "amenity": "bar", "payment:qerko": null, "check_date:currency:XBT": null, "check_date": null, "wheelchair": null, "outdoor_seating": null, "brewery": null, "contact:website": null, "phone": null, "website": null, "opening_hours": null, "email": null, "name": "Hvězda", "gambling": null, "xcoord": 18.3640548, "ycoord": 49.6773771 }, "geometry": { "type": "Point", "coordinates": [ 18.3640548, 49.6773771 ] } },
{ "type": "Feature", "properties": { "fid": 7, "full_id": "n979559373", "osm_id": "979559373", "osm_type": "node", "amenity": "bar", "payment:qerko": null, "check_date:currency:XBT": null, "check_date": null, "wheelchair": null, "outdoor_seating": null, "brewery": null, "contact:website": null, "phone": null, "website": null, "opening_hours": null, "email": null, "name": "El Pancho", "gambling": null, "xcoord": 18.3627654, "ycoord": 49.677091 }, "geometry": { "type": "Point", "coordinates": [ 18.3627654, 49.677091 ] } },
{ "type": "Feature", "properties": { "fid": 8, "full_id": "n979559392", "osm_id": "979559392", "osm_type": "node", "amenity": "bar", "payment:qerko": null, "check_date:currency:XBT": null, "check_date": null, "wheelchair": null, "outdoor_seating": null, "brewery": null, "contact:website": null, "phone": null, "website": null, "opening_hours": null, "email": null, "name": "Motor", "gambling": null, "xcoord": 18.3653832, "ycoord": 49.676848 }, "geometry": { "type": "Point", "coordinates": [ 18.3653832, 49.676848 ] } },
{ "type": "Feature", "properties": { "fid": 9, "full_id": "n2098799314", "osm_id": "2098799314", "osm_type": "node", "amenity": "bar", "payment:qerko": null, "check_date:currency:XBT": null, "check_date": null, "wheelchair": null, "outdoor_seating": null, "brewery": null, "contact:website": null, "phone": "+420737413002", "website": "https://vagonbar.cz/", "opening_hours": null, "email": "info@vagonbar.cz", "name": "Vagón cafe bar", "gambling": null, "xcoord": 18.3562445, "ycoord": 49.6697584 }, "geometry": { "type": "Point", "coordinates": [ 18.3562445, 49.6697584 ] } },
{ "type": "Feature", "properties": { "fid": 10, "full_id": "n2138925476", "osm_id": "2138925476", "osm_type": "node", "amenity": "bar", "payment:qerko": null, "check_date:currency:XBT": null, "check_date": null, "wheelchair": null, "outdoor_seating": null, "brewery": null, "contact:website": "http://bar.ustareposty.cz/", "phone": null, "website": null, "opening_hours": null, "email": null, "name": "Music bar Stará pošta", "gambling": null, "xcoord": 18.3406239, "ycoord": 49.6765328 }, "geometry": { "type": "Point", "coordinates": [ 18.3406239, 49.6765328 ] } },
{ "type": "Feature", "properties": { "fid": 11, "full_id": "n2138925479", "osm_id": "2138925479", "osm_type": "node", "amenity": "bar", "payment:qerko": null, "check_date:currency:XBT": null, "check_date": null, "wheelchair": null, "outdoor_seating": null, "brewery": null, "contact:website": null, "phone": null, "website": null, "opening_hours": null, "email": null, "name": "Sport bar", "gambling": null, "xcoord": 18.3407165, "ycoord": 49.6765162 }, "geometry": { "type": "Point", "coordinates": [ 18.3407165, 49.6765162 ] } },
{ "type": "Feature", "properties": { "fid": 12, "full_id": "n2306947239", "osm_id": "2306947239", "osm_type": "node", "amenity": "bar", "payment:qerko": null, "check_date:currency:XBT": null, "check_date": null, "wheelchair": null, "outdoor_seating": null, "brewery": null, "contact:website": null, "phone": null, "website": null, "opening_hours": null, "email": null, "name": "No. 101", "gambling": null, "xcoord": 18.3578024, "ycoord": 49.679706 }, "geometry": { "type": "Point", "coordinates": [ 18.3578024, 49.679706 ] } },
{ "type": "Feature", "properties": { "fid": 13, "full_id": "n2337513901", "osm_id": "2337513901", "osm_type": "node", "amenity": "bar", "payment:qerko": null, "check_date:currency:XBT": null, "check_date": null, "wheelchair": null, "outdoor_seating": null, "brewery": "Radegast", "contact:website": null, "phone": null, "website": null, "opening_hours": null, "email": null, "name": "beach bar", "gambling": null, "xcoord": 18.3093414, "ycoord": 49.6633653 }, "geometry": { "type": "Point", "coordinates": [ 18.3093414, 49.6633653 ] } },
{ "type": "Feature", "properties": { "fid": 14, "full_id": "n3040046568", "osm_id": "3040046568", "osm_type": "node", "amenity": "bar", "payment:qerko": null, "check_date:currency:XBT": null, "check_date": null, "wheelchair": null, "outdoor_seating": null, "brewery": "Radegast", "contact:website": null, "phone": "+420 597 431 888", "website": "https://www.stoun.cz/", "opening_hours": null, "email": "stoun@applet.cz", "name": "Hudební klub Stoun", "gambling": null, "xcoord": 18.3632677, "ycoord": 49.6810375 }, "geometry": { "type": "Point", "coordinates": [ 18.3632677, 49.6810375 ] } },
{ "type": "Feature", "properties": { "fid": 15, "full_id": "n3040051076", "osm_id": "3040051076", "osm_type": "node", "amenity": "bar", "payment:qerko": null, "check_date:currency:XBT": null, "check_date": null, "wheelchair": null, "outdoor_seating": null, "brewery": null, "contact:website": null, "phone": null, "website": null, "opening_hours": null, "email": null, "name": null, "gambling": null, "xcoord": 18.3653333, "ycoord": 49.6771403 }, "geometry": { "type": "Point", "coordinates": [ 18.3653333, 49.6771403 ] } },
{ "type": "Feature", "properties": { "fid": 16, "full_id": "n3475715042", "osm_id": "3475715042", "osm_type": "node", "amenity": "bar", "payment:qerko": null, "check_date:currency:XBT": null, "check_date": null, "wheelchair": null, "outdoor_seating": null, "brewery": null, "contact:website": null, "phone": null, "website": "http://www.restaurace-riviera.cz/sport-bar", "opening_hours": "Mo-Th 11:00-23:00; Fr,Sa 11:00-24:00; Su 11:00-22:00", "email": null, "name": "Sport bar Riviera", "gambling": null, "xcoord": 18.3471669, "ycoord": 49.6712914 }, "geometry": { "type": "Point", "coordinates": [ 18.3471669, 49.6712914 ] } },
{ "type": "Feature", "properties": { "fid": 17, "full_id": "n3635029015", "osm_id": "3635029015", "osm_type": "node", "amenity": "bar", "payment:qerko": null, "check_date:currency:XBT": null, "check_date": null, "wheelchair": null, "outdoor_seating": null, "brewery": null, "contact:website": null, "phone": null, "website": null, "opening_hours": null, "email": null, "name": "Clubar", "gambling": null, "xcoord": 18.3504719, "ycoord": 49.6696192 }, "geometry": { "type": "Point", "coordinates": [ 18.3504719, 49.6696192 ] } },
{ "type": "Feature", "properties": { "fid": 18, "full_id": "n3749771925", "osm_id": "3749771925", "osm_type": "node", "amenity": "bar", "payment:qerko": null, "check_date:currency:XBT": null, "check_date": null, "wheelchair": null, "outdoor_seating": null, "brewery": null, "contact:website": null, "phone": null, "website": null, "opening_hours": null, "email": null, "name": null, "gambling": null, "xcoord": 18.3450575, "ycoord": 49.6771587 }, "geometry": { "type": "Point", "coordinates": [ 18.3450575, 49.6771587 ] } },
{ "type": "Feature", "properties": { "fid": 19, "full_id": "n5592782619", "osm_id": "5592782619", "osm_type": "node", "amenity": "bar", "payment:qerko": null, "check_date:currency:XBT": null, "check_date": null, "wheelchair": "yes", "outdoor_seating": "yes", "brewery": null, "contact:website": null, "phone": null, "website": null, "opening_hours": null, "email": null, "name": "Bar Domů", "gambling": null, "xcoord": 18.3447768, "ycoord": 49.6719329 }, "geometry": { "type": "Point", "coordinates": [ 18.3447768, 49.6719329 ] } },
{ "type": "Feature", "properties": { "fid": 20, "full_id": "n5592782620", "osm_id": "5592782620", "osm_type": "node", "amenity": "bar", "payment:qerko": null, "check_date:currency:XBT": null, "check_date": null, "wheelchair": null, "outdoor_seating": "yes", "brewery": null, "contact:website": null, "phone": null, "website": null, "opening_hours": null, "email": null, "name": "Bar Cross", "gambling": null, "xcoord": 18.3450813, "ycoord": 49.6719461 }, "geometry": { "type": "Point", "coordinates": [ 18.3450813, 49.6719461 ] } },
{ "type": "Feature", "properties": { "fid": 21, "full_id": "n6178246884", "osm_id": "6178246884", "osm_type": "node", "amenity": "bar", "payment:qerko": null, "check_date:currency:XBT": null, "check_date": null, "wheelchair": "no", "outdoor_seating": "yes", "brewery": "Radegast", "contact:website": null, "phone": null, "website": "https://simonfm.cz/Sport-bar/", "opening_hours": "Mo-Fr 09:00-24:00; Sa,Su 00:00-02:00,09:00-24:00", "email": null, "name": "SportBar Simon", "gambling": null, "xcoord": 18.3575401, "ycoord": 49.6783472 }, "geometry": { "type": "Point", "coordinates": [ 18.3575401, 49.6783472 ] } },
{ "type": "Feature", "properties": { "fid": 22, "full_id": "n11037819048", "osm_id": "11037819048", "osm_type": "node", "amenity": "bar", "payment:qerko": "yes", "check_date:currency:XBT": "2025-05-14", "check_date": "2023-10-17", "wheelchair": null, "outdoor_seating": null, "brewery": null, "contact:website": null, "phone": null, "website": null, "opening_hours": null, "email": null, "name": "Rybízák", "gambling": null, "xcoord": 18.3469302, "ycoord": 49.6714828 }, "geometry": { "type": "Point", "coordinates": [ 18.3469302, 49.6714828 ] } }
]
}
