{"type":"FeatureCollection","features":[{"type":"Feature","properties":{"zone_km":5,"label":"do 5 km","delivery_fee":39,"free_from":1000,"min_order":500,"color":"#00e676","description":"Jádro FM — nejrychlejší doručení ~25 min"},"geometry":{"type":"Polygon","coordinates":[[[18.31481103308398,49.67000497578462],[18.316027256963643,49.677161870581635],[18.314810887000128,49.68351847053344],[18.316027273133212,49.69067525709243],[18.314962518597536,49.69505866513308],[18.314838383162183,49.69759475742466],[18.315878083142593,49.701355502399444],[18.318032646744754,49.70422605903894],[18.320578888297746,49.70595112075049],[18.323936699847817,49.70689056837437],[18.332585201816507,49.7057257986077],[18.336764003312993,49.70563455687382],[18.34088653272558,49.70608716133627],[18.34791480021663,49.70777462310335],[18.353995734179556,49.71091607406131],[18.35625221209719,49.712982538195014],[18.359975573307192,49.717894435629034],[18.364220060379633,49.720131339718094],[18.367691257819722,49.7204040770822],[18.37643992908581,49.71912620776697],[18.380612496891636,49.71930737357591],[18.386979711771524,49.72043238576277],[18.39101841872347,49.719843281320486],[18.394481351381263,49.717739565907664],[18.398033848094233,49.71298252126526],[18.401632715110445,49.709994883871055],[18.40637122844482,49.7077746266877],[18.411904421249996,49.70632978973315],[18.41457590747602,49.70489957893656],[18.416731956867224,49.70268421212465],[18.41823430730874,49.69953689058682],[18.418576731293555,49.69604022289123],[18.41738802403116,49.68944570444912],[18.418604512499424,49.683089373212404],[18.417388326549155,49.67593197965816],[18.418452892295548,49.67154911116952],[18.418577023697086,49.66901323369415],[18.417737535732794,49.665687454966886],[18.41588314275169,49.66288475523807],[18.412829124113234,49.660652890681874],[18.409770592662127,49.659750291083945],[18.39663206828255,49.660972010085914],[18.392513201792415,49.66051731714705],[18.38548256785909,49.65882725258745],[18.379409947460463,49.655688494576395],[18.37715628492852,49.653623556071516],[18.373432582725766,49.648709474969294],[18.369187874947478,49.64647237072114],[18.365417474834462,49.646236553108785],[18.361488024325663,49.64760351550836],[18.359305016181565,49.64937095943188],[18.356259749356667,49.653623451220845],[18.35400603815907,49.655688374514924],[18.349615592985295,49.658185136456545],[18.34616567779324,49.65936371713223],[18.34020581626264,49.66063348699767],[18.336065141834204,49.66099525544708],[18.3318966942247,49.660811780258484],[18.324935755741404,49.65966463836343],[18.32058675553725,49.66065247909781],[18.317532688861505,49.662884317173265],[18.31549013670181,49.66614041023775],[18.31481103308398,49.67000497578462]]]}},{"type":"Feature","properties":{"zone_km":10,"label":"5–10 km","delivery_fee":69,"free_from":1000,"min_order":500,"color":"#ffd740","description":"Okolí FM — doručení ~35 min"},"geometry":{"type":"Polygon","coordinates":[[[18.252180510930863,49.657053626865306],[18.25336894678343,49.66364820626473],[18.252304494542262,49.66803139413268],[18.25218037091308,49.670567243823015],[18.25370404217488,49.67517678701435],[18.257057125396578,49.67846310143829],[18.267085601864363,49.682513174023285],[18.269737632298785,49.684493059284726],[18.271749001242082,49.68676854761174],[18.27340557762339,49.69054553947879],[18.27306618835785,49.697594570938215],[18.274355219101782,49.70182097243213],[18.27575299169044,49.703719461735055],[18.277930804664773,49.70548374727113],[18.287962949468614,49.70953604155326],[18.290615635962325,49.71151563858606],[18.292627542851363,49.71379068869879],[18.294284725543985,49.71756685632756],[18.293917325512712,49.72405514671634],[18.294287393031205,49.72655983918786],[18.295789627260213,49.72970697702512],[18.29794573187555,49.73192244009899],[18.300609512846396,49.73335677276574],[18.30613921057086,49.734800930119356],[18.31087989097629,49.73702171446203],[18.314480053687817,49.74000978176887],[18.316906235896127,49.743531388901594],[18.31883177942779,49.74543596605861],[18.32149551533985,49.74687026438896],[18.323638535693593,49.74739439746069],[18.328360383011944,49.746870264392975],[18.335839410855154,49.743096959309256],[18.341680822145513,49.74171598839117],[18.34789093058192,49.7415147113594],[18.355788556697924,49.74309696200442],[18.362350882576575,49.74649160539068],[18.368795566456754,49.74831408809253],[18.373537300760987,49.75053512159456],[18.377138089340992,49.753523384968396],[18.379564349379745,49.757044930853795],[18.38148988779138,49.75894949142321],[18.384153579446412,49.760383756075726],[18.38659480161072,49.76094460316069],[18.390066081081574,49.7606718110451],[18.392806690562303,49.75954045901712],[18.395201829283184,49.7575386258622],[18.398034000045442,49.75352337168867],[18.40163477925362,49.75053511675566],[18.40637649892925,49.74831409067783],[18.412821200540115,49.746491605472926],[18.41587493325568,49.74426004097911],[18.417521870822423,49.7418961859604],[18.418444869602403,49.73911287157358],[18.418062162214902,49.732387438603205],[18.418591304830457,49.72978770678056],[18.419886484825206,49.72730348155189],[18.423150769654168,49.72399704399649],[18.427745127944664,49.721439943530484],[18.43279048027691,49.719843281398006],[18.435352566743454,49.71848436946941],[18.437379856472006,49.71650430787917],[18.439805913572016,49.71298251252065],[18.443404772937683,49.70999488146209],[18.44645870460228,49.7084172031514],[18.453684204342142,49.706334161200196],[18.456246302019466,49.70497526389206],[18.45827367895505,49.70299514861177],[18.460699712611326,49.69947327209914],[18.464297974134418,49.69648585709764],[18.467351259847913,49.694908355915636],[18.474570416401342,49.69282072087123],[18.477132502694726,49.69146183102238],[18.479938804350112,49.68831193286477],[18.48119263247249,49.68451293669388],[18.48119265321706,49.68209590182531],[18.480583755297623,49.6796546480421],[18.478033477670227,49.675891764009364],[18.475487294560114,49.674166744514835],[18.469515284334836,49.67218867291675],[18.466324258930015,49.67057936056886],[18.463673732236153,49.66859957586821],[18.46092406425165,49.665102276545966],[18.45984313795149,49.66123911838955],[18.460349364218335,49.655499925213626],[18.459161067188592,49.650135731300864],[18.46030693838234,49.643972357820175],[18.46022543468612,49.641005328533325],[18.458825944623406,49.637376934646674],[18.456246951852467,49.634606200511676],[18.453684814558446,49.633247236320955],[18.45124388985884,49.632686532254034],[18.442573422122297,49.63385739038151],[18.43839928446788,49.6339462573135],[18.434282247013066,49.63349066675835],[18.42725153235653,49.63179961000434],[18.42118158341755,49.62866152200061],[18.418928671114987,49.626596850039874],[18.415205047854624,49.62168253584542],[18.410960297267984,49.619445400001815],[18.40748930726173,49.6191727760908],[18.400623384640568,49.62077233086445],[18.396496594112847,49.621134297368236],[18.39234163977488,49.620953737508046],[18.386421063587985,49.619687485487724],[18.382913650865685,49.618229274032295],[18.378663714817314,49.61526715961449],[18.37471478239031,49.609543511760066],[18.37279619849867,49.60765062693968],[18.370132097028932,49.60621605943958],[18.367691234549127,49.60565540175619],[18.364220279508725,49.60592799135564],[18.36070571734932,49.607574994412],[18.355208743631096,49.61414977804885],[18.35120102291236,49.61690231765119],[18.34793902159646,49.61828534594117],[18.342201275923397,49.61971484571342],[18.333966385047937,49.62043281525679],[18.324545548606785,49.61913353487566],[18.31725362344065,49.62034421101075],[18.31308029210183,49.62043272091802],[18.304050087557425,49.61912386140665],[18.299701154187588,49.620111662233604],[18.297154873070273,49.62183670812111],[18.293601846270462,49.626596259810455],[18.290008761418047,49.62958122481348],[18.285278816773435,49.63179898255511],[18.277943864310384,49.634089534560886],[18.27554825629086,49.63609149884139],[18.27271555862774,49.64010961255784],[18.26912183360314,49.64309478770003],[18.264390817622758,49.645312804288466],[18.257928628405594,49.64713862504083],[18.255553061675094,49.648708949937976],[18.253476999123098,49.65126860659073],[18.25239146395564,49.65408199437423],[18.252180510930863,49.657053626865306]]]}},{"type":"Feature","properties":{"zone_km":15,"label":"10–15 km","delivery_fee":99,"free_from":1200,"min_order":700,"color":"#ff9800","description":"Frýdlant, Šenov, Havířov sever — doručení ~45 min"},"geometry":{"type":"Polygon","coordinates":[[[18.210380837512336,49.64297752104614],[18.21159673441244,49.650134634166996],[18.210380691552135,49.65649101618823],[18.211596750524503,49.66364802119852],[18.21038054559411,49.67000451127865],[18.210885124586422,49.67295184289243],[18.21248325400303,49.675966884154704],[18.21615603428896,49.67892735799629],[18.222609344450444,49.680751568338536],[18.227345759817037,49.68297136296308],[18.230943366168827,49.68595864180919],[18.23377533266714,49.68997450854951],[18.236170796166054,49.69197651123294],[18.24517773963571,49.69490736134062],[18.24956600146044,49.69740259753626],[18.252716153871365,49.70059593035216],[18.256925492800555,49.70710049791594],[18.257505237650545,49.70967500321945],[18.25731188252978,49.712273789795965],[18.256352503792844,49.71480013129412],[18.253219986362385,49.719298586943985],[18.252172923027622,49.7230629463609],[18.252297050504268,49.72559929692202],[18.2533621627676,49.72998258948432],[18.252215398629154,49.73614577616798],[18.252215393741658,49.73856232524705],[18.25301226770637,49.74145684947767],[18.2548669942674,49.744260039189676],[18.257920728463414,49.7464916051974],[18.261278614471745,49.74743109444016],[18.272712873874646,49.74614670429409],[18.281638523673575,49.74734919944286],[18.288522451031504,49.7496994652882],[18.292540181540698,49.75245557222884],[18.297371080543208,49.75870516949159],[18.29908683222437,49.76243454435879],[18.299280804143745,49.76503086521143],[18.298702179159616,49.767603060374306],[18.294784303974247,49.77379187874555],[18.29391731347884,49.77810895598952],[18.29428745052488,49.780614122889155],[18.295468876109116,49.78328182517668],[18.297317443641624,49.78546196957345],[18.299692722517293,49.78703208971772],[18.304041918394702,49.78802006649314],[18.310661008836945,49.786917949851826],[18.316405067875575,49.78674621630217],[18.324927949195743,49.78802006649971],[18.335370966377962,49.78668880763716],[18.344288644360518,49.787888106138645],[18.34959123056745,49.78949666561337],[18.352649200688436,49.79107535398679],[18.35625190663791,49.79406423697002],[18.358678379981246,49.79758555427363],[18.36060390821869,49.7994900700425],[18.363267463276795,49.800924230616936],[18.365708777873905,49.80148512918813],[18.377143028015464,49.80020284178713],[18.38659480867234,49.801485129194546],[18.390066170637155,49.801212282126365],[18.394310522230242,49.79897547774534],[18.398034154382668,49.794064218220406],[18.400292865292144,49.79199697985331],[18.406381774648022,49.788853553288256],[18.416994968237766,49.78674621008514],[18.422738993249666,49.78691794316127],[18.429358103200375,49.78802006653298],[18.4318382022889,49.78769879187319],[18.434578927442555,49.786567381028554],[18.436760929727033,49.78480061946905],[18.439806168487163,49.78055059363592],[18.44206450067312,49.77848348996321],[18.446465494207754,49.77598342383138],[18.45546486962279,49.77305392060214],[18.457646971659646,49.771287093643295],[18.459044933406634,49.769388321652],[18.460216913369912,49.76614001886145],[18.460130278066,49.7621872600322],[18.45904486747492,49.759373756286365],[18.455584766070835,49.754090261071795],[18.455006234672513,49.750216011004404],[18.455585653674714,49.74764331457581],[18.456916085646053,49.74519045771258],[18.461099489366454,49.73900695626074],[18.463456958894405,49.73676984010987],[18.46816014612834,49.73409565222285],[18.47592006281255,49.732156007834156],[18.482175311605804,49.73209104223808],[18.491623798616402,49.73395640913125],[18.496365301180113,49.73297811078249],[18.49941906672309,49.73074651609697],[18.50127376206275,49.72794338369179],[18.502113128288443,49.72461818262346],[18.50160655896137,49.71887512708185],[18.502135548976245,49.71627512357071],[18.50435099950705,49.71262135477074],[18.506702221329032,49.71048855614372],[18.511296039697516,49.7079313841156],[18.518135248536275,49.70548840073576],[18.520313080069172,49.70372412497467],[18.523358009303383,49.69947353863555],[18.525614120840878,49.697407229559424],[18.53169371335003,49.694266160545325],[18.541457260636932,49.69221602237055],[18.547713745649922,49.69228438330377],[18.554682466273036,49.69343029125384],[18.559031528742377,49.69244242476204],[18.561406934754334,49.690872228534076],[18.56293475517093,49.689171341296664],[18.564128033774466,49.68695468003578],[18.564737020365772,49.68451330884606],[18.564568684958783,49.6811106183202],[18.56325592919092,49.67791794988375],[18.560778825472354,49.67522284822563],[18.5581149538617,49.673788434647506],[18.554291188037844,49.67318882612055],[18.547013633178985,49.67439568829614],[18.540759488566103,49.67432588389233],[18.533910139679424,49.67282700318035],[18.52757043491371,49.669622345821786],[18.52523430543525,49.66748564444322],[18.523027163972284,49.6638343629875],[18.522501280351552,49.66123667978846],[18.52288357365919,49.65451910380602],[18.520932673918452,49.65010043507894],[18.517259730566398,49.647139783038156],[18.511285649119085,49.64516112554862],[18.508095414718237,49.64355173987106],[18.50544553803253,49.64157169085706],[18.503436258966804,49.63929593142351],[18.501782254100434,49.63551851925427],[18.5021218509808,49.62847312242933],[18.500933865172783,49.62310914434376],[18.502121979854696,49.616513895756945],[18.501997933179517,49.61397852327082],[18.500928922756447,49.609581128256764],[18.50207052739928,49.60342782846766],[18.502070522523223,49.601010078054664],[18.500816576087605,49.5972111131332],[18.49801036320997,49.59406145017634],[18.4954482538889,49.592702523979824],[18.49262438689315,49.592113712754546],[18.482244459846285,49.59342790946146],[18.469838829847887,49.59217880993782],[18.467698022176975,49.59270252401094],[18.46503387352901,49.59413712766772],[18.459630677799527,49.6006327065564],[18.45404322471762,49.6041262896271],[18.450596675456136,49.60530415202423],[18.442558116032885,49.60682819498981],[18.43427037898229,49.606459892201315],[18.429443071427286,49.60524591079555],[18.426039907333905,49.60384335525166],[18.42311820637232,49.602039718343256],[18.420788143525794,49.599903048566965],[18.41913753811259,49.59751395000964],[18.41822854840388,49.59496253750545],[18.41856899386693,49.58792845748274],[18.41752212358959,49.58416396084112],[18.414466201669164,49.5805479082163],[18.41190410283799,49.57918898882972],[18.40946330080645,49.57862836508176],[18.39869743316091,49.579915163483584],[18.394534262317013,49.5797293073996],[18.387585999399562,49.578579911576874],[18.37781140723451,49.57991516222599],[18.37364823490007,49.57972930678302],[18.36708996058692,49.57858947766595],[18.35692538129065,49.57991516097285],[18.344522477539336,49.57866531200404],[18.342381865053113,49.57918898891525],[18.33981976541439,49.58054790884416],[18.336763844167614,49.584163961246354],[18.335716974077567,49.587928457775405],[18.336055830169105,49.59497029871094],[18.334402629543984,49.59874893350982],[18.332394091366268,49.601025331864655],[18.329745138268933,49.60300578826346],[18.3247959854157,49.60526126179679],[18.319296870181788,49.60658011777358],[18.315159203485145,49.60694063847512],[18.310994228839128,49.606755567548],[18.304041876130157,49.60560694921037],[18.29427317777859,49.606940637179],[18.290108201637594,49.606755566925166],[18.283155845315434,49.605606949211065],[18.273387152053235,49.60694063588757],[18.26922217442225,49.606755566304436],[18.262877837113525,49.60562721584454],[18.258837685911146,49.60621605958587],[18.255374658391194,49.60831981653591],[18.25302061205362,49.61163229463718],[18.25215332966007,49.61552054434045],[18.25252014951427,49.62200266974634],[18.250866330740383,49.625780514085534],[18.248857239279427,49.62805649424638],[18.243017691655705,49.631646096440605],[18.23576808997419,49.63360809404543],[18.22953835701237,49.63394531418547],[18.220505554158635,49.63263704968521],[18.21615659842605,49.63362486396014],[18.21310246414143,49.63585676457869],[18.211059896627514,49.6391129396625],[18.210380837512336,49.64297752104614]]]}},{"type":"Feature","properties":{"zone_km":20,"label":"15–20 km","delivery_fee":149,"free_from":1500,"min_order":700,"color":"#e74c3c","description":"Havířov, Příbor, Petřvald — doručení ~55 min"},"geometry":{"type":"Polygon","coordinates":[[[18.12690661070764,49.6439708722273],[18.12805234133741,49.650134263947926],[18.12690648936444,49.65506708651798],[18.12698801186279,49.65803419328272],[18.12838757505419,49.66166263226109],[18.13086453800496,49.66435761159575],[18.13352853695413,49.665792131928775],[18.136353645901135,49.66638112304222],[18.146713587464458,49.66507189742519],[18.152925472762348,49.66554926441686],[18.157724584813977,49.666751142466346],[18.162669754797534,49.66900803121743],[18.16640524707572,49.67209311016828],[18.16861479631626,49.67574538395869],[18.169141715487772,49.67834393570846],[18.168608209270353,49.68308825700471],[18.168846697802618,49.68549717922079],[18.169932099846164,49.68831055421432],[18.17183742843351,49.69071562022089],[18.17351250209792,49.69197623151968],[18.176245842161077,49.69310435842428],[18.184600383595857,49.69414731698314],[18.190001967819523,49.69596352572328],[18.194362225458505,49.69871611170947],[18.197307777074855,49.70216948695917],[18.198586162212116,49.706028031778544],[18.198087531610806,49.709961372970575],[18.195854179583034,49.71363265714872],[18.19103856069538,49.71845360530939],[18.18951483059116,49.72306294704748],[18.1907041130604,49.731211584140425],[18.18963896020418,49.73559530981245],[18.189514834544223,49.7381317543646],[18.190704272497833,49.74472492815428],[18.18948716554942,49.751082052578624],[18.190704431998064,49.75823827209988],[18.189638977949418,49.762622217252336],[18.18951484054136,49.765158903554216],[18.190562009759162,49.768923305719525],[18.19288729519309,49.771948461091014],[18.195262590955306,49.77351859471669],[18.199006274605786,49.774486481227875],[18.21005478151649,49.77317477828702],[18.220890848204775,49.774496917576776],[18.23094081232168,49.77317477718715],[18.236633037189588,49.77368826190225],[18.242992482868654,49.77549273170374],[18.24884190037132,49.77908079545848],[18.25159650062482,49.7825759660002],[18.252680877815,49.786436629182326],[18.25229709489235,49.79316716389106],[18.254017439662004,49.79727437485388],[18.257045164463023,49.80007857617316],[18.260981128778603,49.80144851566658],[18.264749985982448,49.80121228187053],[18.267494548994534,49.80007857623556],[18.269672674054775,49.798314143265685],[18.27271795683396,49.79406424696918],[18.274976683532817,49.79199699418511],[18.27779232921276,49.79023945222389],[18.282838384319053,49.78831577602315],[18.289774973613852,49.78691795124662],[18.295519039287758,49.78674621749768],[18.302516559320612,49.78788810141763],[18.307819157755198,49.78949666459478],[18.312221124460237,49.79199699498359],[18.314479849264778,49.79406424651378],[18.319016736678087,49.80045414431976],[18.31997545678056,49.802976456812196],[18.32016932099541,49.80557094279546],[18.31959101735736,49.80814135345678],[18.315878236373873,49.813892848464064],[18.314831036472956,49.81765711268263],[18.315482670505183,49.82208554288443],[18.31803258549152,49.82584762538904],[18.32057868552685,49.82757257408719],[18.323936721002525,49.82851214650905],[18.331540985414364,49.827460406092285],[18.337294151445633,49.82728841298449],[18.347898969177166,49.829393010349236],[18.35264713050161,49.83161558306666],[18.355196999203997,49.833536885027044],[18.360705194779296,49.84010572994495],[18.363267377580993,49.841464705023775],[18.365708784967275,49.84202565518342],[18.377143028103017,49.84074495387304],[18.38698159740934,49.842054100251865],[18.391018674732038,49.841464705074394],[18.394481413130652,49.839361131794355],[18.398034311113523,49.834605060845384],[18.400294142614097,49.83253743359595],[18.40469888464435,49.83003639636815],[18.413696656796198,49.8271056678989],[18.416087959500178,49.825106083864426],[18.41997487703104,49.82002331342534],[18.425583548671202,49.81652315375611],[18.429044928015188,49.815341911564744],[18.435973183780554,49.81394624571365],[18.44172327468187,49.81377434030041],[18.450244133999927,49.81504708290298],[18.45272429291067,49.81472577257246],[18.455465133919812,49.813594302805804],[18.45786000170704,49.81159259171528],[18.460692305294618,49.807577818126596],[18.464295621965004,49.80458875334154],[18.469041603477685,49.80236671104024],[18.47635107611924,49.800080842367926],[18.478746012881516,49.79807909982597],[18.481578286167156,49.79406419886114],[18.485180961119873,49.79107534225059],[18.489925867241034,49.7888535583504],[18.4963653912299,49.78703209009392],[18.498740667433715,49.78546197216008],[18.50026858940789,49.783760892682764],[18.501636326351953,49.78105632330181],[18.50214080058932,49.778108954082576],[18.50092335760922,49.77175160431965],[18.50214079757936,49.764595501828026],[18.50092351735127,49.75823826063463],[18.502113122285422,49.75164533186608],[18.501772923995183,49.74459160516835],[18.503430659658566,49.7408162883388],[18.506695343963337,49.737510154397306],[18.51305286237997,49.73430693557058],[18.521429192724025,49.732689947799024],[18.527161073919952,49.73286133461067],[18.533788257206623,49.7339660337768],[18.54423127430977,49.73263265579076],[18.55467428800726,49.73396603378283],[18.56511730511162,49.7326326547083],[18.57495419397727,49.733945909333166],[18.578992723998514,49.7333567732843],[18.582455637890828,49.731253070974795],[18.58500573039184,49.727490576567995],[18.585684911803902,49.72405514398781],[18.585317467782197,49.71756673959798],[18.58698268790979,49.71379562360418],[18.58899459226024,49.711520613685416],[18.591647263839736,49.70954105614239],[18.6025507829902,49.70490041509689],[18.60525526906402,49.70182600277657],[18.606509079563384,49.69802698979792],[18.606509100332243,49.695610078181566],[18.60590017374458,49.693168708180174],[18.603349923994354,49.68940588639283],[18.600803754945833,49.68768087786721],[18.59483269514611,49.68570308011371],[18.591641296862978,49.68409381601517],[18.58899046389363,49.68211417774138],[18.586240443160325,49.67861723541129],[18.585159278209826,49.674754517400004],[18.585665799716555,49.66901397839342],[18.584477343174143,49.66364967393781],[18.585623386180263,49.657486412089824],[18.585623406953175,49.65506913849683],[18.584619014874995,49.65173603971907],[18.58246423757274,49.648865109587504],[18.57991802138045,49.6471400632029],[18.576859685170213,49.646237498679795],[18.563718304877224,49.64745979440146],[18.556173832209407,49.64627711377593],[18.550887858503437,49.64467220843644],[18.54529703950958,49.64117768397128],[18.541412533890266,49.63609268988166],[18.537567614670714,49.63256579441868],[18.53589193669628,49.63016342674168],[18.534968237806442,49.627595155721245],[18.535061456118452,49.62364737967508],[18.536105800204606,49.621098704410414],[18.539045835591804,49.617643260321074],[18.541812147913866,49.61571308261175],[18.54690743515314,49.61356181547027],[18.55716305243055,49.6120279574009],[18.559903033673283,49.610896944292755],[18.563247590342954,49.607605682970835],[18.564771205554184,49.60299605008609],[18.564119860794765,49.59856951489585],[18.561569399078245,49.59480630046442],[18.559023110291314,49.59308122073534],[18.553044943244686,49.591101437820214],[18.549856267553103,49.58949191750619],[18.547207664859958,49.58751134937006],[18.54519940769303,49.5852347664036],[18.543546509041168,49.581455772304714],[18.543912774704253,49.57497667231496],[18.543542914772683,49.57247335305097],[18.54204014683034,49.56932503391912],[18.53978234502757,49.56703436392433],[18.537220259781463,49.56567545341784],[18.53417799028363,49.56507595354336],[18.524010690722005,49.5664024288016],[18.5198484431039,49.566216184151315],[18.5132919598091,49.565075953552395],[18.50312466475173,49.566402427546834],[18.498962415626636,49.566216183530265],[18.493491145803944,49.565188174853546],[18.489892408993327,49.56422627237214],[18.48516786157465,49.56200979898317],[18.481578022871798,49.55902588404285],[18.479152181015813,49.55550157211359],[18.477226424612216,49.55359662625726],[18.474562139601293,49.55216191827584],[18.472121397866335,49.551601328424965],[18.467698105702315,49.552161918277726],[18.461916577143793,49.55528445649591],[18.45829268109532,49.55656777019897],[18.452307177742235,49.557558897562515],[18.44613843220005,49.5573586882853],[18.442195510477543,49.556567772389364],[18.438571610867076,49.55528445844926],[18.432790078007354,49.55216191832874],[18.42935806103949,49.55155287396577],[18.42592604403635,49.55216191833104],[18.42014453486398,49.555284442993205],[18.41457950667473,49.55702720284834],[18.406408951929066,49.55755888855586],[18.40042343546015,49.55656776100126],[18.396799529859386,49.5552844449337],[18.39193479742821,49.5525406247471],[18.38399197768654,49.549647573141385],[18.379954725929935,49.54681757215298],[18.378024088508315,49.544565112515116],[18.37644520511018,49.5408430656778],[18.376796944216647,49.533874646734255],[18.3755002619695,49.52964332976704],[18.374103086518137,49.52774571092077],[18.371925666191988,49.5259815471085],[18.367691248380215,49.52457429178383],[18.364220454046624,49.52484677322811],[18.361474270935634,49.525981547146465],[18.35929685076399,49.52774571081791],[18.35625217523473,49.53199904685218],[18.3540018436987,49.534062792467175],[18.347941138636703,49.53719853784474],[18.338111482415076,49.53926529868788],[18.33187033050248,49.53918993336708],[18.324927906971137,49.53803935516814],[18.322448363410498,49.538360309577094],[18.31970226624981,49.53949502653028],[18.316905827606046,49.54198808683376],[18.31530813936981,49.545002184764094],[18.314803353415808,49.5479495217198],[18.315169113934353,49.55442687455182],[18.31351644221643,49.55820696156968],[18.311508341642107,49.560484094368576],[18.308859939717276,49.56246498725174],[18.303911950357502,49.56472040264391],[18.298399704636434,49.56604283058821],[18.2942644041453,49.566402415230456],[18.290102140232566,49.566216177432686],[18.283155845331347,49.56506639277036],[18.273378377988266,49.566402414023514],[18.26921611262675,49.56621617683494],[18.26226981451665,49.56506639277054],[18.252492351814173,49.566402412821255],[18.24833008500919,49.56621617623969],[18.24138378370204,49.56506639277065],[18.237034963394912,49.56605415698677],[18.23398069675975,49.56828621727934],[18.23212652476869,49.57108846185872],[18.23128681697808,49.574415005916045],[18.231791268939226,49.58014631434511],[18.231264478837293,49.5827483208564],[18.229053788327054,49.586404864694906],[18.226714230203463,49.58854362368377],[18.222126879590835,49.59110147737829],[18.21486301939197,49.5930676829661],[18.20863688366254,49.59340342052113],[18.199611722062183,49.59209343039428],[18.197132062053345,49.592414455165695],[18.194392033664258,49.593545512932735],[18.191996251697923,49.59554757321879],[18.190354416199437,49.59811558813338],[18.189514761291502,49.60144191177998],[18.19002089184534,49.60718029174508],[18.18949379237595,49.60978175574117],[18.187282415955423,49.613437579434745],[18.184942245863915,49.615576000052755],[18.18035371652397,49.6181336696192],[18.173106201500733,49.62009534591903],[18.16687763982295,49.620432061106726],[18.157847403869976,49.619123208443966],[18.1553676740809,49.61944425833673],[18.152627507135794,49.620575367356146],[18.150231833680703,49.62257736055327],[18.147399174083798,49.62659558119132],[18.143806066849297,49.62958056493434],[18.13907609259763,49.63179833666575],[18.132612207316544,49.633624491361545],[18.129558072226736,49.635856392838],[18.127911069897294,49.63822049580586],[18.12698817640135,49.64100384353713],[18.12690661070764,49.6439708722273]]]}}]}