{
"type": "FeatureCollection",
"name": "google_zone_20km",
"crs": { "type": "name", "properties": { "name": "urn:ogc:def:crs:OGC:1.3:CRS84" } },
"features": [
{ "type": "Feature", "properties": { "source": "Google Distance Matrix", "origin": "Frýdek-Místek, Česká republika", "max_km": 20 }, "geometry": { "type": "Polygon", "coordinates": [ [ [ 18.127535088807164, 49.646466761716525 ], [ 18.127879408005793, 49.64767732467223 ], [ 18.128052309918068, 49.64890322966955 ], [ 18.128052341337408, 49.650134263947926 ], [ 18.127879489090738, 49.651360171266347 ], [ 18.127535180577592, 49.652570737351262 ], [ 18.127340991885969, 49.653113441994584 ], [ 18.127206296081546, 49.653556807382586 ], [ 18.127074878128205, 49.654081434448571 ], [ 18.126988042385413, 49.654517340312488 ], [ 18.12690648936444, 49.655067086517981 ], [ 18.126863940245833, 49.655498440044113 ], [ 18.126836305558946, 49.656060835839533 ], [ 18.126836300678008, 49.656490644637564 ], [ 18.126863924766436, 49.657053067017365 ], [ 18.12690645892847, 49.657484368489214 ], [ 18.126988011862789, 49.658034193282717 ], [ 18.127074817324853, 49.65846999736894 ], [ 18.127206255677187, 49.658994751464114 ], [ 18.127340896589796, 49.659437970144467 ], [ 18.127515335787503, 49.659925510294336 ], [ 18.127703393804911, 49.660378844620652 ], [ 18.127910902065995, 49.660817594797386 ], [ 18.128160242120767, 49.661283342370453 ], [ 18.128387575054191, 49.661662632261091 ], [ 18.128708660590629, 49.662142365211587 ], [ 18.128938985146316, 49.662452927483749 ], [ 18.129345170203074, 49.662946975206793 ], [ 18.129557885713648, 49.663181674390145 ], [ 18.130065532225633, 49.663688333903053 ], [ 18.130236400852827, 49.663843202523061 ], [ 18.13086453800496, 49.664357611595747 ], [ 18.130966496497731, 49.664433230259526 ], [ 18.131735556847989, 49.664945914754512 ], [ 18.131740768235769, 49.664949038385252 ], [ 18.132611808737437, 49.665413448133947 ], [ 18.133528536954131, 49.665792131928775 ], [ 18.134480969139769, 49.66608020011364 ], [ 18.135670369872102, 49.666316049854764 ], [ 18.135969547180029, 49.666352872509265 ], [ 18.136353645901135, 49.666381123042221 ], [ 18.136569481435441, 49.666391727333227 ], [ 18.136960806170613, 49.666401327447986 ], [ 18.137352131101764, 49.666391730818852 ], [ 18.13756796685951, 49.666381128450567 ], [ 18.137952066185353, 49.666352881338369 ], [ 18.138251244246465, 49.666316061351431 ], [ 18.139634388344675, 49.666041805783586 ], [ 18.139902894554396, 49.665974548818163 ], [ 18.139910895736875, 49.665988005920241 ], [ 18.140564198059007, 49.665815835349761 ], [ 18.14257199286082, 49.665434062970448 ], [ 18.144628734649093, 49.665185243458161 ], [ 18.146713587464458, 49.665071897425193 ], [ 18.148805431279214, 49.665095173065097 ], [ 18.150883075430954, 49.665254834550282 ], [ 18.152925472762348, 49.66554926441686 ], [ 18.154911932324694, 49.665975479912404 ], [ 18.155877397109485, 49.666218249308443 ], [ 18.157724584813977, 49.666751142466346 ], [ 18.159483299301034, 49.667397985520452 ], [ 18.161136904108709, 49.668152660973384 ], [ 18.162669754797534, 49.66900803121743 ], [ 18.164067346808466, 49.669956005909441 ], [ 18.165316452643673, 49.670987618352179 ], [ 18.166405247075719, 49.672093110168277 ], [ 18.167323419198905, 49.673262023470578 ], [ 18.168062270257618, 49.674483299665511 ], [ 18.168614796316259, 49.675745383958692 ], [ 18.168975754975605, 49.677036334581558 ], [ 18.169141715487772, 49.678343935708462 ], [ 18.169111091776816, 49.679655813000508 ], [ 18.168884158031606, 49.68095955068469 ], [ 18.168846758624127, 49.68110884984285 ], [ 18.168759969885734, 49.681544519221987 ], [ 18.168678381188148, 49.682094505907308 ], [ 18.168635855985269, 49.682525616466343 ], [ 18.168608209270353, 49.683088257004712 ], [ 18.168608204390466, 49.683517820742608 ], [ 18.168635840498549, 49.68408048787547 ], [ 18.168678350744841, 49.684511546359069 ], [ 18.168759939351808, 49.685061611664096 ], [ 18.168846697802618, 49.685497179220789 ], [ 18.168978194155322, 49.686022164880022 ], [ 18.169112766884293, 49.686465158556622 ], [ 18.16928728371785, 49.686952915692117 ], [ 18.1694752560119, 49.687406042759946 ], [ 18.169682856671773, 49.687844988302302 ], [ 18.169932099846164, 49.688310554214318 ], [ 18.170159531573418, 49.688690008935154 ], [ 18.170480519817957, 49.689169595713942 ], [ 18.170710935733059, 49.689480281171207 ], [ 18.171117040526717, 49.68997423031432 ], [ 18.171329817951786, 49.690208997809769 ], [ 18.171837428433509, 49.690715620220892 ], [ 18.172008296012621, 49.690870487890081 ], [ 18.172636481758023, 49.691384935390055 ], [ 18.172738328077546, 49.691460470858701 ], [ 18.173507577671824, 49.69197327988968 ], [ 18.173512502097921, 49.691976231519682 ], [ 18.174383673696067, 49.692440709420076 ], [ 18.175293412666946, 49.692816297681013 ], [ 18.176245842161077, 49.693104358424279 ], [ 18.177435640322777, 49.693340279828568 ], [ 18.177734481922023, 49.693377059636994 ], [ 18.178118990671294, 49.693405338433301 ], [ 18.178333979197895, 49.693415900147059 ], [ 18.178619801050374, 49.693422910872847 ], [ 18.180646618727934, 49.693537225346113 ], [ 18.182646525035601, 49.693779466692213 ], [ 18.184600383595857, 49.694147316983141 ], [ 18.186489497596853, 49.694637256337167 ], [ 18.188295788319696, 49.69524459652321 ], [ 18.190001967819523, 49.695963525723279 ], [ 18.191591704123677, 49.696787164029892 ], [ 18.193049777378441, 49.697707629152276 ], [ 18.194362225458505, 49.698716111709473 ], [ 18.195516477650269, 49.699802959396429 ], [ 18.196501475129327, 49.700957769224416 ], [ 18.197307777074855, 49.702169486959171 ], [ 18.197927651396498, 49.703426512812861 ], [ 18.198355149192754, 49.704716812382394 ], [ 18.198586162212116, 49.706028031778544 ], [ 18.198618462747628, 49.707347615846601 ], [ 18.198451725562069, 49.708662928350471 ], [ 18.198087531610806, 49.709961372970575 ], [ 18.197529353503736, 49.711230513957084 ], [ 18.196782522822318, 49.712458195282366 ], [ 18.195854179583034, 49.713632657148722 ], [ 18.194753204311191, 49.714742648732297 ], [ 18.193828687778865, 49.715500149779039 ], [ 18.193830266254498, 49.715500960129702 ], [ 18.192887229714081, 49.716273244881755 ], [ 18.192716556816411, 49.716427933695108 ], [ 18.192208798146009, 49.716934695236134 ], [ 18.191996118633664, 49.717169350809371 ], [ 18.191589946709566, 49.717663372158846 ], [ 18.191359559437174, 49.717974013317054 ], [ 18.191038560695379, 49.718453605309392 ], [ 18.1908111104607, 49.718833082983451 ], [ 18.190561893611587, 49.719298587691547 ], [ 18.190354245486507, 49.719737622658769 ], [ 18.190166319751981, 49.720190622990614 ], [ 18.189991742027381, 49.720678534956619 ], [ 18.189857221631559, 49.721121337602462 ], [ 18.189725664766783, 49.721646541980753 ], [ 18.189638951337027, 49.722081856055674 ], [ 18.189557315268981, 49.722632201682245 ], [ 18.189514830591161, 49.723062947047481 ], [ 18.189487171899774, 49.723625952630648 ], [ 18.189487171562238, 49.724055147857406 ], [ 18.18951483154736, 49.724618179804317 ], [ 18.189557310382391, 49.725048872684859 ], [ 18.189638957999641, 49.725599296252526 ], [ 18.189725650341472, 49.726034507667187 ], [ 18.189857238734454, 49.726559838046676 ], [ 18.189991713555937, 49.727002492606871 ], [ 18.190187640919763, 49.727550072314642 ], [ 18.190531429068574, 49.728758695931589 ], [ 18.190704068565374, 49.729982587550566 ], [ 18.190704113060399, 49.731211584140425 ], [ 18.190531549294661, 49.732435479534054 ], [ 18.1901877976373, 49.73364410918461 ], [ 18.189991722349284, 49.734192103490962 ], [ 18.189857235985645, 49.734634793834438 ], [ 18.189725650167947, 49.735160113799232 ], [ 18.189638960204181, 49.735595309812453 ], [ 18.189557306327096, 49.736145775497924 ], [ 18.189514833587854, 49.736576399570893 ], [ 18.18948716889399, 49.737139527337426 ], [ 18.189487168556365, 49.737568600229245 ], [ 18.189514834544223, 49.738131754364602 ], [ 18.189557301439518, 49.738562325942816 ], [ 18.189638966868184, 49.739112869585277 ], [ 18.189725635739453, 49.739547962916156 ], [ 18.189857253092484, 49.740073408910796 ], [ 18.189991693870827, 49.740515951133176 ], [ 18.190187936581278, 49.741064412165471 ], [ 18.190531634289226, 49.742272713520116 ], [ 18.190704227992033, 49.743496270436893 ], [ 18.190704272497833, 49.744724928154277 ], [ 18.190531754550989, 49.745948488833172 ], [ 18.190188093368917, 49.747156796197906 ], [ 18.189991702661342, 49.747705672052696 ], [ 18.189857250346492, 49.748148250039343 ], [ 18.189725635562823, 49.748673685642778 ], [ 18.189638969075006, 49.749108763544598 ], [ 18.189557297381764, 49.749659349336625 ], [ 18.189514836585683, 49.750089852071319 ], [ 18.18948716588709, 49.750653102066792 ], [ 18.189487165549419, 49.751082052578624 ], [ 18.189514837542244, 49.751645328947966 ], [ 18.189557292493177, 49.752075779177233 ], [ 18.189638975740351, 49.752626442942415 ], [ 18.189725621131242, 49.753061418140419 ], [ 18.189857267457381, 49.753586979802165 ], [ 18.189991674175779, 49.754029409631642 ], [ 18.190188232366459, 49.754578752361873 ], [ 18.190531839592868, 49.755786731313805 ], [ 18.190704387481464, 49.757009953391133 ], [ 18.190704431998064, 49.758238272099881 ], [ 18.190531959890343, 49.759461497926772 ], [ 18.19018838922425, 49.760669482865289 ], [ 18.189991682963452, 49.76121924064222 ], [ 18.18985726471416, 49.761661706216991 ], [ 18.189725620951471, 49.762187257511144 ], [ 18.189638977949418, 49.762622217252336 ], [ 18.189557288432955, 49.763172923198773 ], [ 18.189514839584625, 49.763603304548788 ], [ 18.189487162879072, 49.764166676818547 ], [ 18.189487162541333, 49.764595504905373 ], [ 18.18951484054136, 49.765158903554216 ], [ 18.189557283543412, 49.765589232388599 ], [ 18.189638984616167, 49.766140016324165 ], [ 18.189725606516735, 49.766574873339486 ], [ 18.189857281828996, 49.767100550720443 ], [ 18.189991654470894, 49.76754286810263 ], [ 18.190166408598202, 49.768031273259638 ], [ 18.190354128150535, 49.768483776879066 ], [ 18.190562009759162, 49.768923305719525 ], [ 18.190810966653714, 49.769388324527064 ], [ 18.191038697837687, 49.769768271171749 ], [ 18.191359398464769, 49.770247416827992 ], [ 18.191590090815399, 49.770558469574446 ], [ 18.191995958955697, 49.771052119881951 ], [ 18.192208923692576, 49.771287090369093 ], [ 18.192716430144614, 49.771793597952914 ], [ 18.192887295193088, 49.771948461091014 ], [ 18.193515630899025, 49.772463020071228 ], [ 18.193617139995663, 49.772538304396171 ], [ 18.19438696208638, 49.773051483190329 ], [ 18.194391022905219, 49.773053917153248 ], [ 18.195262590955306, 49.773518594716691 ], [ 18.196179273602286, 49.773897247252378 ], [ 18.197131694838852, 49.774185301056669 ], [ 18.19832269513795, 49.774421456730714 ], [ 18.198620526773222, 49.774458111788661 ], [ 18.199006274605786, 49.774486481227875 ], [ 18.199218710935078, 49.774496917560207 ], [ 18.199611764389729, 49.774506558273274 ], [ 18.200004817836181, 49.774496917559794 ], [ 18.200217254164784, 49.774486481227498 ], [ 18.200603002005987, 49.774458111787311 ], [ 18.200900833611705, 49.774421456732128 ], [ 18.202287952245374, 49.774146412654559 ], [ 18.202540659541651, 49.774083111811279 ], [ 18.204362548426829, 49.773688263281961 ], [ 18.206232849273071, 49.773403805237869 ], [ 18.208135654689485, 49.77323215696709 ], [ 18.21005478151649, 49.773174778287022 ], [ 18.211973908134574, 49.773232157159704 ], [ 18.213876712935676, 49.773403805552476 ], [ 18.215747012794441, 49.773688263580219 ], [ 18.21756890037544, 49.774083111892658 ], [ 18.217821608084705, 49.774146412841851 ], [ 18.219208725545162, 49.774421456688501 ], [ 18.219506557572036, 49.774458111794672 ], [ 18.219892304980352, 49.774486481202644 ], [ 18.220104742168857, 49.774496917577153 ], [ 18.220497795190909, 49.774506558279654 ], [ 18.220890848204775, 49.774496917576776 ], [ 18.221103285392719, 49.774486481202217 ], [ 18.22148903280959, 49.774458111793258 ], [ 18.221786864806361, 49.774421456689957 ], [ 18.223173982277793, 49.774146412842796 ], [ 18.223426698802722, 49.774083109687865 ], [ 18.225248585637424, 49.773688261603347 ], [ 18.227118884379074, 49.773403803879695 ], [ 18.229021687654381, 49.773232155802333 ], [ 18.230940812321681, 49.773174777187151 ], [ 18.232859936779509, 49.773232155995402 ], [ 18.234762739437951, 49.77340380419507 ], [ 18.236633037189588, 49.773688261902251 ], [ 18.238454922716787, 49.7740831097693 ], [ 18.239377239088324, 49.774314138076065 ], [ 18.241229159670496, 49.774846432517514 ], [ 18.242992482868654, 49.775492731703743 ], [ 18.244650524215828, 49.776246921651151 ], [ 18.246187593151621, 49.777101867443719 ], [ 18.247589141354357, 49.778049480600281 ], [ 18.248841900371321, 49.779080795458484 ], [ 18.249934007248171, 49.780186053861449 ], [ 18.250855116967198, 49.781354797350666 ], [ 18.251596500624821, 49.782575966000202 ], [ 18.252151128409931, 49.783838002963293 ], [ 18.252513736584355, 49.78512896374643 ], [ 18.252680877814999, 49.786436629182326 ], [ 18.252650954362629, 49.787748621035867 ], [ 18.252424233791672, 49.789052519150665 ], [ 18.25238368392888, 49.789214402046348 ], [ 18.252297088222765, 49.789649123838281 ], [ 18.252215362820056, 49.790200071710181 ], [ 18.25217293802535, 49.790630208688384 ], [ 18.252145249227318, 49.791193827106348 ], [ 18.252145248889466, 49.791622408749191 ], [ 18.25217293898249, 49.79218605355635 ], [ 18.252215357928652, 49.792616137998415 ], [ 18.252297094892349, 49.793167163891063 ], [ 18.252383669488008, 49.793601782913548 ], [ 18.252515403185949, 49.794127693383281 ], [ 18.252649707167421, 49.794569784201066 ], [ 18.252824539519651, 49.795058407982317 ], [ 18.253012172645214, 49.795510702655257 ], [ 18.253220147496283, 49.79595042864041 ], [ 18.253469006522835, 49.796415263948731 ], [ 18.2536968376596, 49.796795377354833 ], [ 18.254017439662004, 49.797274374853878 ], [ 18.254248224903737, 49.797585552849739 ], [ 18.254654011054132, 49.798079102481275 ], [ 18.254867039639258, 49.798314143414267 ], [ 18.255374507940537, 49.798820611781956 ], [ 18.255545374226926, 49.798975476042159 ], [ 18.256173756127176, 49.799490071483682 ], [ 18.256275155477351, 49.79956527441513 ], [ 18.257045164463023, 49.800078576173163 ], [ 18.257048940407444, 49.800080839388784 ], [ 18.257920638289107, 49.800545584423247 ], [ 18.258837309139945, 49.800924230402046 ], [ 18.259789727552921, 49.801212281867002 ], [ 18.260981128778603, 49.801448515666578 ], [ 18.261278623881214, 49.80148512915622 ], [ 18.261664785034711, 49.801513528829872 ], [ 18.26187636991617, 49.801523923333207 ], [ 18.262269856791821, 49.801533574662479 ], [ 18.262663343658957, 49.801523923332788 ], [ 18.262874928539709, 49.801513528829432 ], [ 18.263261089702176, 49.801485129154734 ], [ 18.263558584773453, 49.801448515668156 ], [ 18.264749985982448, 49.801212281870527 ], [ 18.26570240439548, 49.800924230407141 ], [ 18.266619075252098, 49.800545584427674 ], [ 18.267490773229078, 49.80008083934392 ], [ 18.267494548994534, 49.800078576235563 ], [ 18.268264558185162, 49.799565274339415 ], [ 18.268365957306976, 49.799490071577615 ], [ 18.268994339455261, 49.798975475931158 ], [ 18.269165205477215, 49.798820611911133 ], [ 18.269672674054775, 49.798314143265685 ], [ 18.269885702355463, 49.798079102647357 ], [ 18.270291488793927, 49.797585552663321 ], [ 18.270522273748103, 49.797274375056276 ], [ 18.270842876033505, 49.796795377132277 ], [ 18.271070706896278, 49.796415264184652 ], [ 18.27109581539078, 49.796368365305902 ], [ 18.271823181233337, 49.795191609520266 ], [ 18.272717956833961, 49.794064246969178 ], [ 18.273772230384683, 49.792996231967379 ], [ 18.274976683532817, 49.791996994185112 ], [ 18.276320673900834, 49.791075355499416 ], [ 18.277792329212762, 49.790239452223886 ], [ 18.279378652191866, 49.789496663398936 ], [ 18.281065635301623, 49.788853545770124 ], [ 18.282838384319053, 49.788315776023147 ], [ 18.284681249654188, 49.787888100781039 ], [ 18.285832400915059, 49.787659844650712 ], [ 18.286080918980897, 49.787597593176237 ], [ 18.287903715375478, 49.787202550447148 ], [ 18.289774973613852, 49.786917951246622 ], [ 18.291678770030842, 49.786746217299779 ], [ 18.293598904766696, 49.786688809898543 ], [ 18.295519039287758, 49.786746217497679 ], [ 18.297422835072183, 49.786917951569698 ], [ 18.299294092295387, 49.787202550753143 ], [ 18.301116887349313, 49.787597593259051 ], [ 18.301365405843999, 49.787659844843461 ], [ 18.302516559320612, 49.787888101417629 ], [ 18.304359425398925, 49.788315776860934 ], [ 18.306132174727264, 49.788853546815929 ], [ 18.307819157755198, 49.789496664594779 ], [ 18.309405480317587, 49.790239453456095 ], [ 18.310877134950456, 49.791075356609845 ], [ 18.312221124460237, 49.791996994983592 ], [ 18.313425576660464, 49.792996232245414 ], [ 18.314479849264778, 49.794064246513777 ], [ 18.315374624008982, 49.795191608127489 ], [ 18.316101989166473, 49.796368362793537 ], [ 18.316127098454455, 49.79641526314883 ], [ 18.316354930563385, 49.79679537817691 ], [ 18.31667553146649, 49.797274374033506 ], [ 18.316906317948941, 49.797585553702277 ], [ 18.317312102706889, 49.798079101640127 ], [ 18.317328834646041, 49.798097562595302 ], [ 18.318260625504095, 49.799249491024433 ], [ 18.319016736678087, 49.800454144319758 ], [ 18.319590128176106, 49.801700327005825 ], [ 18.319975456780561, 49.802976456812196 ], [ 18.320169126193878, 49.804270672246794 ], [ 18.320169320995412, 49.805570942795462 ], [ 18.319976024074553, 49.806865180725666 ], [ 18.319591017357361, 49.808141353456783 ], [ 18.319017865798823, 49.809387595452016 ], [ 18.318261884768916, 49.810592318590601 ], [ 18.317330091116169, 49.811744319992194 ], [ 18.317312163944777, 49.8117640994667 ], [ 18.316906276099658, 49.812257771957547 ], [ 18.316675566228614, 49.812568848089001 ], [ 18.316354910484478, 49.813047924797509 ], [ 18.316127112300936, 49.813427982988578 ], [ 18.315878236373873, 49.813892848464064 ], [ 18.315670263271777, 49.814332570536983 ], [ 18.315482638875768, 49.81478484233665 ], [ 18.315307788325008, 49.81527351680031 ], [ 18.315173507452528, 49.815715529060363 ], [ 18.315041746867621, 49.816241546734815 ], [ 18.314955198518422, 49.816676030272014 ], [ 18.314873437185298, 49.817227220367073 ], [ 18.314831036472956, 49.817657112682632 ], [ 18.314803335568275, 49.818220977536797 ], [ 18.314803335230309, 49.818649312449736 ], [ 18.314831037430459, 49.819213203703271 ], [ 18.314873432292007, 49.819643043462229 ], [ 18.314955205190792, 49.82019431160974 ], [ 18.315041732420646, 49.820628692334296 ], [ 18.315173524583567, 49.821154836209431 ], [ 18.315307759804714, 49.821596700134478 ], [ 18.315482670505183, 49.82208554288443 ], [ 18.315670217054226, 49.82253762825048 ], [ 18.315878285326743, 49.822977551758974 ], [ 18.316127046273625, 49.823442203173279 ], [ 18.316354977611621, 49.823822483755237 ], [ 18.316675480700585, 49.824301332665911 ], [ 18.31690635916501, 49.824612636358282 ], [ 18.317312062949121, 49.825106084856188 ], [ 18.317525155802393, 49.825341196698353 ], [ 18.318032585491519, 49.825847625389038 ], [ 18.31820345350879, 49.826002491218233 ], [ 18.318831881088997, 49.826517122698661 ], [ 18.318933171203799, 49.826592244615696 ], [ 18.319703366599871, 49.827105669012106 ], [ 18.319706858078039, 49.827107761725124 ], [ 18.320578685526851, 49.827572574087192 ], [ 18.321495344528014, 49.827951213484631 ], [ 18.322447760080216, 49.828239262596426 ], [ 18.323639562830834, 49.828475574636741 ], [ 18.323936721002525, 49.828512146509048 ], [ 18.324323296123968, 49.828540576464107 ], [ 18.324534028186136, 49.828550929071099 ], [ 18.324927949193672, 49.828560591033906 ], [ 18.325321870192276, 49.828550929070737 ], [ 18.325532602253741, 49.828540576463666 ], [ 18.325919177384574, 49.828512146507585 ], [ 18.326216335522876, 49.828475574638496 ], [ 18.327605447980961, 49.828200138410821 ], [ 18.32784128550302, 49.828141063309559 ], [ 18.329666829231311, 49.827745432631112 ], [ 18.331540985414364, 49.827460406092285 ], [ 18.333447781251547, 49.8272884127759 ], [ 18.335370966462175, 49.827230918425471 ], [ 18.337294151445633, 49.827288412984487 ], [ 18.339200946613865, 49.827460406432621 ], [ 18.34107510172343, 49.827745432952653 ], [ 18.342900644034284, 49.828141063394362 ], [ 18.343136482021826, 49.828200138614612 ], [ 18.344280631407756, 49.828427004456444 ], [ 18.346124909558455, 49.828854963538944 ], [ 18.347898969177166, 49.829393010349236 ], [ 18.349587148271102, 49.830036395487092 ], [ 18.351174541280372, 49.830779439530438 ], [ 18.352647130501609, 49.831615583066657 ], [ 18.353991909754441, 49.832537444485382 ], [ 18.355196999203997, 49.833536885027044 ], [ 18.356251750327633, 49.834605080518621 ], [ 18.357146840097677, 49.835732599168217 ], [ 18.357874353544005, 49.836909484736154 ], [ 18.357899081422001, 49.836955672570717 ], [ 18.358127063124851, 49.837336037181458 ], [ 18.358447516455673, 49.837814811347791 ], [ 18.35867844187381, 49.838126178349938 ], [ 18.359084104088879, 49.838619575811606 ], [ 18.359297229508709, 49.838854723585541 ], [ 18.359804639411273, 49.839361131958071 ], [ 18.359975508821663, 49.839515999049979 ], [ 18.360603958668591, 49.840030648080059 ], [ 18.360705194779296, 49.840105729944952 ], [ 18.361475482733315, 49.840619215228294 ], [ 18.361478832645933, 49.84062122309011 ], [ 18.362350724522219, 49.841086068925122 ], [ 18.363267377580993, 49.841464705023775 ], [ 18.36421979168545, 49.84175275295285 ], [ 18.365411795195985, 49.841989104111747 ], [ 18.365708784967275, 49.84202565518342 ], [ 18.366095567081143, 49.842054100279491 ], [ 18.366305872693928, 49.842064431936365 ], [ 18.366700010794951, 49.842074099216546 ], [ 18.367094148886878, 49.842064431935981 ], [ 18.367304454498932, 49.842054100279036 ], [ 18.367691236622385, 49.842025655181921 ], [ 18.367988226360531, 49.841989104113445 ], [ 18.369377837392253, 49.841713569828258 ], [ 18.369609454857876, 49.841655551816707 ], [ 18.371435912766458, 49.841259725511733 ], [ 18.373311033394163, 49.84097455677896 ], [ 18.375218827542444, 49.840802477156359 ], [ 18.377143028103017, 49.840744953873042 ], [ 18.37906722843168, 49.840802477369394 ], [ 18.380975021897044, 49.840974557126536 ], [ 18.382850141428861, 49.841259725840239 ], [ 18.3846765978905, 49.841655551903592 ], [ 18.384908215828322, 49.841713570035893 ], [ 18.386297825561137, 49.841989104065362 ], [ 18.386594815765612, 49.842025655190355 ], [ 18.386981597409338, 49.842054100251865 ], [ 18.387191903973978, 49.842064431955478 ], [ 18.387586041595934, 49.842074099223979 ], [ 18.387980179208778, 49.842064431955102 ], [ 18.388190485772775, 49.842054100251403 ], [ 18.388577267426001, 49.842025655188834 ], [ 18.38887425759664, 49.841989104067117 ], [ 18.390066260627307, 49.841752753001863 ], [ 18.391018674732038, 49.841464705074394 ], [ 18.391935327796972, 49.841086068975123 ], [ 18.392807219264814, 49.840621223359513 ], [ 18.392810570016476, 49.840619214994796 ], [ 18.393580857253745, 49.840105730187609 ], [ 18.393682093967719, 49.840030647875608 ], [ 18.394310543316568, 49.839515999251553 ], [ 18.394481413130652, 49.839361131794355 ], [ 18.394988822714296, 49.838854723737981 ], [ 18.395201948381395, 49.8386195756921 ], [ 18.395607610412021, 49.83812617845247 ], [ 18.39583853596169, 49.837814811274072 ], [ 18.396158989205944, 49.837336037234856 ], [ 18.396386970959799, 49.836955672540462 ], [ 18.396411714237374, 49.836909455936002 ], [ 18.397139224832927, 49.835732574960772 ], [ 18.398034311113523, 49.834605060845384 ], [ 18.399089058064906, 49.833536869804853 ], [ 18.400294142614097, 49.832537433595952 ], [ 18.401638916196141, 49.831615576345406 ], [ 18.403111498940952, 49.830779436755329 ], [ 18.40469888464435, 49.830036396368151 ], [ 18.406387055594692, 49.82939301451912 ], [ 18.408161106243032, 49.82885497054545 ], [ 18.410005374629986, 49.828427013756979 ], [ 18.410952261356588, 49.828239262777494 ], [ 18.411904676903724, 49.827951213668939 ], [ 18.412821335922178, 49.827572574266178 ], [ 18.413693161453278, 49.827107762928307 ], [ 18.413696656796198, 49.827105667898898 ], [ 18.414466848734246, 49.826592245805998 ], [ 18.414568141935156, 49.826517121600403 ], [ 18.415196566780573, 49.826002492357574 ], [ 18.415367437217512, 49.825847624335957 ], [ 18.41587486477961, 49.825341197765979 ], [ 18.416087959500178, 49.825106083864426 ], [ 18.416493661655473, 49.82461263734546 ], [ 18.416724541538972, 49.824301331740919 ], [ 18.417045043400069, 49.823822484662493 ], [ 18.417272975798785, 49.823442202312229 ], [ 18.417297852231027, 49.823395736960535 ], [ 18.418025312039784, 49.82221890178625 ], [ 18.418920291611787, 49.821091442091657 ], [ 18.419974877031041, 49.820023313425338 ], [ 18.421179746832113, 49.819023946817552 ], [ 18.422524254550996, 49.818102165616324 ], [ 18.423996522891464, 49.817266107700981 ], [ 18.425583548671202, 49.816523153756108 ], [ 18.427271317619606, 49.8158798622324 ], [ 18.429044928015188, 49.815341911564744 ], [ 18.430888722076283, 49.814914050151735 ], [ 18.432035268604313, 49.814686708358302 ], [ 18.432275392294777, 49.814626559607184 ], [ 18.434100007111311, 49.814231127755427 ], [ 18.435973183780554, 49.813946245713652 ], [ 18.437878966010171, 49.813774340092799 ], [ 18.439801120458817, 49.813716875140692 ], [ 18.44172327468187, 49.813774340300412 ], [ 18.44362905624719, 49.813946246052552 ], [ 18.445502231850373, 49.814231128076187 ], [ 18.447326845259219, 49.814626559693309 ], [ 18.447566969402459, 49.814686708560338 ], [ 18.448955573598848, 49.814962044809938 ], [ 18.449252903428157, 49.814998637883868 ], [ 18.449639268074097, 49.815027052441437 ], [ 18.449850433623368, 49.81503742634429 ], [ 18.450244133999927, 49.815047082902979 ], [ 18.450637834367587, 49.815037426343892 ], [ 18.450848999916236, 49.815027052440996 ], [ 18.451235364571399, 49.81499863788239 ], [ 18.451532694368183, 49.814962044811573 ], [ 18.45272429291067, 49.814725772572459 ], [ 18.453676709887954, 49.814437722287146 ], [ 18.454593374850717, 49.814059079585363 ], [ 18.455465133919812, 49.813594302805804 ], [ 18.455468774876742, 49.813592120498633 ], [ 18.456238870559783, 49.813078761757801 ], [ 18.456340221130887, 49.813003595003586 ], [ 18.456968620664092, 49.812488985804748 ], [ 18.457139492459287, 49.81233411655208 ], [ 18.457646937336278, 49.811827672130875 ], [ 18.45786000170704, 49.811592591715282 ], [ 18.458265743454035, 49.811099096565165 ], [ 18.458496578145382, 49.81078785189527 ], [ 18.458817128204522, 49.810308932403331 ], [ 18.459045011616485, 49.809928731782612 ], [ 18.459070025368568, 49.809882009903333 ], [ 18.459797433497474, 49.808705221999631 ], [ 18.460692305294618, 49.807577818126596 ], [ 18.461746727952789, 49.806509753153634 ], [ 18.46295138162618, 49.805510457372549 ], [ 18.464295621965004, 49.804588753341541 ], [ 18.465767574261257, 49.803752778107309 ], [ 18.467354238369925, 49.803009911487422 ], [ 18.469041603477685, 49.802366711040243 ], [ 18.470814771707502, 49.801828854291649 ], [ 18.472658089472979, 49.801401088723729 ], [ 18.473610293739149, 49.801212282298515 ], [ 18.474562712140315, 49.800924230838845 ], [ 18.475479383027135, 49.800545584847072 ], [ 18.47635107611924, 49.800080842367926 ], [ 18.476354861689444, 49.800078573382812 ], [ 18.477124861995122, 49.799565277409492 ], [ 18.477226269161797, 49.79949006868118 ], [ 18.477854644065161, 49.798975478967691 ], [ 18.478025516610469, 49.798820609035253 ], [ 18.478532979343338, 49.798314146222971 ], [ 18.478746012881516, 49.798079099825969 ], [ 18.479151794649855, 49.797585555522154 ], [ 18.479382583765229, 49.7972743723044 ], [ 18.47970318236381, 49.796795379888799 ], [ 18.479931016485768, 49.796415261503597 ], [ 18.479956163738361, 49.796368290230284 ], [ 18.48068352105134, 49.795191548227734 ], [ 18.481578286167156, 49.794064198861143 ], [ 18.482632547377563, 49.79299619633138 ], [ 18.48383698644475, 49.79199697020195 ], [ 18.485180961119873, 49.791075342250593 ], [ 18.486652599268464, 49.790239448700127 ], [ 18.488238903766639, 49.789496668509031 ], [ 18.489925867241034, 49.788853558350397 ], [ 18.491698595640596, 49.788315794847406 ], [ 18.49354143955475, 49.787888124570905 ], [ 18.494496294616969, 49.787698792000135 ], [ 18.495448714432108, 49.787410739369861 ], [ 18.496365391229901, 49.787032090093923 ], [ 18.497237018319709, 49.786567381929288 ], [ 18.497240948523078, 49.786565026254337 ], [ 18.498010853404111, 49.786051793080681 ], [ 18.49811231722547, 49.785976542334431 ], [ 18.498740667433715, 49.785461972160078 ], [ 18.498911540797273, 49.78530710148609 ], [ 18.499419021318424, 49.78480062035031 ], [ 18.499632024085312, 49.784565607904291 ], [ 18.500037845820639, 49.784072014512823 ], [ 18.500268589407892, 49.783760892682764 ], [ 18.500589236504425, 49.783281827405339 ], [ 18.500817021371297, 49.782901791197361 ], [ 18.501065926099358, 49.782436870175289 ], [ 18.5012738571351, 49.781997236831451 ], [ 18.501461531065299, 49.781544843489868 ], [ 18.501636326351953, 49.781056323301812 ], [ 18.501770662956737, 49.780614124818818 ], [ 18.501902368853873, 49.780088325338042 ], [ 18.501988966009982, 49.77965359279986 ], [ 18.50207068583622, 49.779102682440737 ], [ 18.502113116277833, 49.77867248120095 ], [ 18.50214080058932, 49.778108954082576 ], [ 18.502140800251698, 49.777680254590088 ], [ 18.502113117235005, 49.777116753854315 ], [ 18.50207068094663, 49.776686500091834 ], [ 18.501988972678451, 49.776135667733037 ], [ 18.501902354417936, 49.775700832453445 ], [ 18.501770680075925, 49.775175159081279 ], [ 18.501636297855296, 49.774732812377444 ], [ 18.501439254014805, 49.774182111106832 ], [ 18.501095780543949, 49.772974471829386 ], [ 18.500923357609221, 49.771751604319647 ], [ 18.500923402122677, 49.770523648139907 ], [ 18.501095900848341, 49.769300784304264 ], [ 18.501439410937753, 49.768093150867273 ], [ 18.501636306620384, 49.767542864910155 ], [ 18.501770677349917, 49.767100553821251 ], [ 18.501902354222192, 49.766574870214285 ], [ 18.501988974898637, 49.76614001934302 ], [ 18.50207067687731, 49.7655892293024 ], [ 18.502113119282214, 49.765158906522018 ], [ 18.502140797579361, 49.764595501828026 ], [ 18.5021407972418, 49.764166679766326 ], [ 18.502113120239152, 49.763603301449621 ], [ 18.50207067198869, 49.763172926157218 ], [ 18.501988981565713, 49.762622214100752 ], [ 18.50190233978935, 49.762187260509712 ], [ 18.501770694465151, 49.761661702983048 ], [ 18.501636278130675, 49.761219243708666 ], [ 18.50143955033694, 49.760669425739913 ], [ 18.501095986200085, 49.759461463516736 ], [ 18.500923517351271, 49.758238260634627 ], [ 18.500923561853934, 49.757009964925494 ], [ 18.501096106468754, 49.755786765730114 ], [ 18.501439707189558, 49.754578809371161 ], [ 18.501636286898762, 49.754029406490545 ], [ 18.501770691736251, 49.753586982850905 ], [ 18.501902339596743, 49.753061415065609 ], [ 18.501988983783619, 49.752626445910707 ], [ 18.502070667921842, 49.752075776140586 ], [ 18.502113122285422, 49.751645331866079 ], [ 18.502140794570511, 49.751082049550561 ], [ 18.502140794233025, 49.750653104965217 ], [ 18.502113123242221, 49.750089849022068 ], [ 18.502070663034186, 49.749659352245516 ], [ 18.501988990449298, 49.749108760443747 ], [ 18.501902325167059, 49.748673688591197 ], [ 18.501862914226148, 49.748516352534395 ], [ 18.501636076920011, 49.747212071441744 ], [ 18.501605990406709, 49.745899678464689 ], [ 18.501772923995183, 49.744591605168353 ], [ 18.502135280957102, 49.743300241234898 ], [ 18.502689614236864, 49.742037817134374 ], [ 18.503430659658566, 49.740816288338799 ], [ 18.504351386294843, 49.739647222174206 ], [ 18.505443063500984, 49.738541688378618 ], [ 18.506695343963337, 49.737510154397306 ], [ 18.508096361961911, 49.736562386402262 ], [ 18.509632845907134, 49.735707356966671 ], [ 18.511290244079483, 49.734953160261306 ], [ 18.513052862379968, 49.734306935570579 ], [ 18.514904012789852, 49.733774799844049 ], [ 18.51584291880237, 49.733539616010461 ], [ 18.517662034893632, 49.733145361013818 ], [ 18.519529412279322, 49.732861334301084 ], [ 18.521429192724025, 49.732689947799024 ], [ 18.523345243503957, 49.732632656871033 ], [ 18.525261294078909, 49.732689947988476 ], [ 18.527161073919952, 49.732861334610668 ], [ 18.529028450336742, 49.73314536130777 ], [ 18.530847565148299, 49.733539616092017 ], [ 18.531113065558394, 49.733606121510107 ], [ 18.532498669122635, 49.733880867556323 ], [ 18.532797012509594, 49.73391758582293 ], [ 18.533182133218144, 49.733945909383507 ], [ 18.533395861067195, 49.733956409164094 ], [ 18.533788257206623, 49.733966033776802 ], [ 18.53418065333803, 49.733956409163646 ], [ 18.534394381187187, 49.733945909382989 ], [ 18.534779501903436, 49.73391758582143 ], [ 18.535077845260069, 49.733880867557744 ], [ 18.536463448836614, 49.733606121510761 ], [ 18.536728957913336, 49.733539613924435 ], [ 18.53854807199049, 49.733145359364833 ], [ 18.540415447309037, 49.73286133296692 ], [ 18.542315225650864, 49.732689946654965 ], [ 18.544231274309769, 49.732632655790759 ], [ 18.546147322763261, 49.732689946844985 ], [ 18.548047100500156, 49.732861333277505 ], [ 18.549914474847796, 49.733145359659972 ], [ 18.551733587642548, 49.733539614006951 ], [ 18.55199909711563, 49.733606121695175 ], [ 18.553384699536249, 49.733880867514578 ], [ 18.553683043307835, 49.733917585828522 ], [ 18.554068163598373, 49.733945909358383 ], [ 18.554281892293716, 49.733956409180557 ], [ 18.554674288007259, 49.733966033782828 ], [ 18.555066683712713, 49.73395640918018 ], [ 18.555280412407711, 49.733945909357928 ], [ 18.55566553270641, 49.733917585827086 ], [ 18.555963876448089, 49.733880867516028 ], [ 18.557349478880514, 49.733606121695807 ], [ 18.557614997035696, 49.733539611835468 ], [ 18.559434109094937, 49.733145357713433 ], [ 18.561301482342493, 49.732861331630652 ], [ 18.563201258577593, 49.732689945508881 ], [ 18.56511730511162, 49.732632654708297 ], [ 18.567033351439829, 49.732689945699072 ], [ 18.568933127068853, 49.732861331941422 ], [ 18.570800499343669, 49.73314535800845 ], [ 18.572619610118121, 49.733539611917202 ], [ 18.572885128674848, 49.73360612188074 ], [ 18.574270729948658, 49.733880867472685 ], [ 18.57456907410613, 49.733917585834163 ], [ 18.57495419397727, 49.733945909333166 ], [ 18.57516792352029, 49.733956409197035 ], [ 18.575560318807867, 49.733966033788917 ], [ 18.5759527140874, 49.733956409196651 ], [ 18.576166443629781, 49.733945909332768 ], [ 18.576551563509383, 49.733917585832735 ], [ 18.576849907637119, 49.733880867474127 ], [ 18.578040298613395, 49.733644830565154 ], [ 18.578992723998514, 49.733356773284299 ], [ 18.579909424295963, 49.732978110937495 ], [ 18.580780787137254, 49.732513540164952 ], [ 18.580785296056558, 49.732510837620815 ], [ 18.581554818784131, 49.731997855954667 ], [ 18.58165650982459, 49.731922436691313 ], [ 18.582284760569721, 49.731407945235411 ], [ 18.582455637890828, 49.731253070974795 ], [ 18.582963188906394, 49.730746517203478 ], [ 18.583176069197517, 49.730511639889002 ], [ 18.583582050250005, 49.730017850816751 ], [ 18.583812612205872, 49.729706973888703 ], [ 18.584133452880689, 49.729227617781035 ], [ 18.584361041077038, 49.728847909698331 ], [ 18.58461013871219, 49.728382626961363 ], [ 18.584817885721417, 49.727943382709199 ], [ 18.585005730391838, 49.727490576567995 ], [ 18.585180371025896, 49.727002488605173 ], [ 18.585314843450842, 49.726559841932335 ], [ 18.585446433800442, 49.726034503743413 ], [ 18.585533124605636, 49.725599300041829 ], [ 18.585614773360717, 49.725048868805445 ], [ 18.585657251445326, 49.724618183533472 ], [ 18.585684911803902, 49.724055143987812 ], [ 18.585684911466576, 49.723625956335546 ], [ 18.585657252401763, 49.723062943151845 ], [ 18.585614768475139, 49.72263220539871 ], [ 18.58553313126864, 49.722081852098583 ], [ 18.585446419377195, 49.721646545743184 ], [ 18.58540778334152, 49.721492303264966 ], [ 18.585180866989234, 49.720187759647978 ], [ 18.585150671646765, 49.718875092021818 ], [ 18.585317467782197, 49.717566739597977 ], [ 18.585679659340265, 49.716275099730801 ], [ 18.586241848405084, 49.715017399875286 ], [ 18.586982687909789, 49.713795623604177 ], [ 18.587903179844837, 49.712626336098083 ], [ 18.588994592260239, 49.711520613685416 ], [ 18.590246576163896, 49.710488929847862 ], [ 18.591647263839736, 49.709541056142392 ], [ 18.593183381448707, 49.708685969787005 ], [ 18.594840374840675, 49.707931768779261 ], [ 18.596602547383544, 49.707285595344246 ], [ 18.598453208507355, 49.706753568431388 ], [ 18.598738931940698, 49.706682000916288 ], [ 18.599886882423043, 49.706334813705965 ], [ 18.600803601293734, 49.705956147793337 ], [ 18.6016748399935, 49.705491648022097 ], [ 18.601679637535497, 49.705488772523964 ], [ 18.602448977590733, 49.704975918119445 ], [ 18.6025507829902, 49.704900415096887 ], [ 18.603178991701526, 49.704385964018172 ], [ 18.603349873000717, 49.704231088418183 ], [ 18.603857466377359, 49.703724498905473 ], [ 18.604070288483481, 49.70348968950838 ], [ 18.604476355814477, 49.702995802774808 ], [ 18.604706830889857, 49.702685048494509 ], [ 18.605027774543334, 49.702205546801409 ], [ 18.60525526906402, 49.701826002776571 ], [ 18.605504468965254, 49.701360538704584 ], [ 18.605712129193133, 49.7009214887537 ], [ 18.605900064714554, 49.700468475468071 ], [ 18.606074633677085, 49.699980603107178 ], [ 18.606209179204676, 49.699537731357431 ], [ 18.606340717710392, 49.699012623023307 ], [ 18.606427460284085, 49.698577182545584 ], [ 18.606509079563384, 49.698026989797917 ], [ 18.606551586202869, 49.697596061116975 ], [ 18.606579240632769, 49.697033264014898 ], [ 18.606579244853503, 49.696603830700376 ], [ 18.60655160366338, 49.696041059703056 ], [ 18.606509100332243, 49.695610078181566 ], [ 18.606427504275256, 49.695059962609456 ], [ 18.606340749868647, 49.694624418746116 ], [ 18.606209254020751, 49.694099435174657 ], [ 18.606074672345798, 49.693656414214836 ], [ 18.60590017374458, 49.693168708180174 ], [ 18.605712170194753, 49.692715507259031 ], [ 18.60550461418881, 49.692276656324509 ], [ 18.605255309542446, 49.691810976617631 ], [ 18.605027955782248, 49.691431652202127 ], [ 18.604706870222017, 49.690951920687247 ], [ 18.604476569639143, 49.690641390970754 ], [ 18.604070329577514, 49.690147277639781 ], [ 18.603857704609375, 49.689912678570188 ], [ 18.603349923994354, 49.689405886392827 ], [ 18.603179239593633, 49.68925118491655 ], [ 18.602550859149133, 49.688736577710891 ], [ 18.602449212155133, 49.688661190168958 ], [ 18.60167976263185, 49.68814824732025 ], [ 18.601675029667664, 49.688145410453743 ], [ 18.600803754945833, 49.687680877867209 ], [ 18.599887032219915, 49.687302198213679 ], [ 18.598739391869753, 49.686955088778937 ], [ 18.598443956182471, 49.686881083421703 ], [ 18.596594066709166, 49.686349180550003 ], [ 18.59483269514611, 49.685703080113711 ], [ 18.593176539195802, 49.684948908371226 ], [ 18.591641296862978, 49.684093816015171 ], [ 18.590241517507682, 49.683145910240754 ], [ 18.58899046389363, 49.682114177741383 ], [ 18.587899986542613, 49.681008399369013 ], [ 18.586980411584523, 49.679839057273853 ], [ 18.586240443160325, 49.678617235411288 ], [ 18.585687081293532, 49.677354514364481 ], [ 18.585325555995109, 49.676062861485363 ], [ 18.585159278209826, 49.674754517400004 ], [ 18.585189808049879, 49.673441879956954 ], [ 18.585416840595748, 49.672137386721616 ], [ 18.585454878514273, 49.671985536274363 ], [ 18.585541668104824, 49.671549859256373 ], [ 18.585623251702145, 49.670999907032815 ], [ 18.585665782261174, 49.67056873535887 ], [ 18.585693424663269, 49.670006183017669 ], [ 18.585693428886131, 49.669576504640233 ], [ 18.585665799716555, 49.669013978393423 ], [ 18.585623272472212, 49.66858275389913 ], [ 18.58554171208586, 49.66803287881875 ], [ 18.585454910675203, 49.66759709845752 ], [ 18.585323472819525, 49.667072346414187 ], [ 18.585188822976328, 49.66662910049839 ], [ 18.584994304224971, 49.666085439510539 ], [ 18.584650119704921, 49.664875220205722 ], [ 18.584477343174143, 49.663649673937812 ], [ 18.584477400657718, 49.662419006483738 ], [ 18.584650278787649, 49.661193465520341 ], [ 18.584994525342587, 49.65998325529209 ], [ 18.585188908052984, 49.659440009569117 ], [ 18.58532355577605, 49.658996800596405 ], [ 18.585455007340109, 49.658472039333951 ], [ 18.585541820379227, 49.658036244348594 ], [ 18.585623386180263, 49.657486412089824 ], [ 18.585665928670309, 49.657055119215038 ], [ 18.585693565073424, 49.656492688961691 ], [ 18.585693569297757, 49.656062888346092 ], [ 18.585665946124607, 49.655500484182049 ], [ 18.585623406953175, 49.655069138496827 ], [ 18.585541864358465, 49.654519383364985 ], [ 18.58545503950652, 49.654083485057768 ], [ 18.585323630570343, 49.653558848471157 ], [ 18.585188946739056, 49.653115490392281 ], [ 18.58501456444915, 49.652628109433913 ], [ 18.584826432495255, 49.652174598057265 ], [ 18.584619014874995, 49.651736039719069 ], [ 18.584369565169123, 49.651270088005035 ], [ 18.584142359295594, 49.650891010325537 ], [ 18.583821128163827, 49.650411060097994 ], [ 18.583590964197292, 49.650100714587552 ], [ 18.583184604240429, 49.649606453992234 ], [ 18.582972071574694, 49.649371956761669 ], [ 18.58246423757274, 49.648865109587504 ], [ 18.582293550865842, 49.648710406018992 ], [ 18.58166524413453, 49.648195857127845 ], [ 18.58156342799537, 49.648120344136487 ], [ 18.580794263286627, 49.647607588724689 ], [ 18.580789098910923, 49.647604493276667 ], [ 18.57991802138045, 49.647140063202897 ], [ 18.579001281346954, 49.646761373878235 ], [ 18.578048845886507, 49.646473304037592 ], [ 18.576859685170213, 49.646237498679795 ], [ 18.576560326482397, 49.64620065301574 ], [ 18.576176473665882, 49.646172420778498 ], [ 18.575960126570905, 49.646161791359255 ], [ 18.575569064803581, 49.646152197319374 ], [ 18.575178002825467, 49.646161787859576 ], [ 18.574961655504364, 49.646172415342818 ], [ 18.574577802096112, 49.646200644144308 ], [ 18.574278442600615, 49.646237487132034 ], [ 18.57289584002265, 49.646511636280579 ], [ 18.572626976525086, 49.646578980655875 ], [ 18.572619178691422, 49.646565854476435 ], [ 18.571956159830766, 49.646740576143095 ], [ 18.569949164228614, 49.647122078959789 ], [ 18.567893237154379, 49.647370567788499 ], [ 18.5658092362989, 49.647483521602467 ], [ 18.563718304877224, 49.647459794401463 ], [ 18.561641656603129, 49.647299626867444 ], [ 18.559600359939409, 49.647004643918727 ], [ 18.557615123839074, 49.646577838187021 ], [ 18.557336889539979, 49.646507740734876 ], [ 18.556173832209407, 49.64627711377593 ], [ 18.554336877570218, 49.645850625153884 ], [ 18.552569686436723, 49.64531407771431 ], [ 18.550887858503437, 49.64467220843644 ], [ 18.549306238198998, 49.643930683958068 ], [ 18.547838783482334, 49.643096050446111 ], [ 18.546498442544525, 49.642175675695256 ], [ 18.545297039509581, 49.641177683971279 ], [ 18.544245170144933, 49.640110884179137 ], [ 18.543352108500816, 49.63898469199561 ], [ 18.542625725297786, 49.637809046657708 ], [ 18.542597488579549, 49.637756302255688 ], [ 18.542370332361997, 49.637377307423954 ], [ 18.54204905229798, 49.63689728368292 ], [ 18.541818934323469, 49.636587000186204 ], [ 18.541412533890266, 49.636092689881657 ], [ 18.541200032561232, 49.635858227225803 ], [ 18.540692180120324, 49.635351361078094 ], [ 18.540521493368022, 49.63519665746788 ], [ 18.539578700295749, 49.634424555070431 ], [ 18.539581005881182, 49.634423367490434 ], [ 18.53866851083054, 49.633675698914566 ], [ 18.537567614670714, 49.632565794418682 ], [ 18.536639126932801, 49.631391283619472 ], [ 18.535891936696281, 49.630163426741682 ], [ 18.53533319320751, 49.62889399461249 ], [ 18.534968237806442, 49.627595155721245 ], [ 18.534800553252339, 49.626279359497303 ], [ 18.534831730914117, 49.624959216929781 ], [ 18.535061456118452, 49.623647379675077 ], [ 18.535487511772612, 49.622356418812629 ], [ 18.536105800204606, 49.621098704410414 ], [ 18.536910382988182, 49.619886287052715 ], [ 18.537893538350357, 49.61873078246267 ], [ 18.539045835591804, 49.617643260321074 ], [ 18.540356225791566, 49.616634138341794 ], [ 18.541812147913866, 49.615713082611748 ], [ 18.543399649292319, 49.614888915145585 ], [ 18.545103519332603, 49.614169529531331 ], [ 18.546907435153141, 49.61356181547027 ], [ 18.548794117772722, 49.613071592925458 ], [ 18.550745497357997, 49.612703556503838 ], [ 18.55274288596021, 49.612461230599095 ], [ 18.554767156102578, 49.612346935719671 ], [ 18.555073783699953, 49.612339416034999 ], [ 18.555291324618459, 49.612328729911226 ], [ 18.555674595836575, 49.612300543390845 ], [ 18.555974450439894, 49.612263639850944 ], [ 18.55716305243055, 49.612027957400898 ], [ 18.558115495922724, 49.611739893219443 ], [ 18.559032255160432, 49.611361204787357 ], [ 18.559903033673283, 49.610896944292755 ], [ 18.559908837940085, 49.61089346539503 ], [ 18.560677513181446, 49.610381048523053 ], [ 18.560748682100158, 49.610328266794916 ], [ 18.561431099114785, 49.609764183998529 ], [ 18.561600008746737, 49.609608125661993 ], [ 18.562053343738441, 49.609151161858897 ], [ 18.562289819615746, 49.608890250980217 ], [ 18.562696160952193, 49.608396019412154 ], [ 18.56292631256532, 49.608085695768693 ], [ 18.563247590342954, 49.607605682970835 ], [ 18.563474734564103, 49.607226715617699 ], [ 18.563724267617541, 49.606760616442905 ], [ 18.56393159927725, 49.606322250375165 ], [ 18.564119829300409, 49.605868512565578 ], [ 18.564294120889119, 49.605381400120784 ], [ 18.564428899859706, 49.604937741884648 ], [ 18.564560229413882, 49.604413444851055 ], [ 18.564647131593006, 49.60397717769272 ], [ 18.564728619931557, 49.603427827898948 ], [ 18.564771205554184, 49.602996050086091 ], [ 18.564798811846831, 49.602434111081848 ], [ 18.564798811510247, 49.602003821559613 ], [ 18.564771206509498, 49.601441908871244 ], [ 18.564728615055561, 49.601010078670122 ], [ 18.564647138244769, 49.600460806668998 ], [ 18.564560215020293, 49.600024437053236 ], [ 18.564428916928939, 49.599500265756944 ], [ 18.56429409248604, 49.599056459762835 ], [ 18.564119860794765, 49.59856951489585 ], [ 18.563931553279854, 49.59811559149847 ], [ 18.563724316318574, 49.597677425864475 ], [ 18.563474668911176, 49.597211113788717 ], [ 18.563247657046741, 49.596832367491544 ], [ 18.562926227626896, 49.596352128400945 ], [ 18.562696243365899, 49.596042030640724 ], [ 18.56228971948034, 49.595547576912097 ], [ 18.562077308203023, 49.595313217290503 ], [ 18.561569399078245, 49.59480630046442 ], [ 18.561398708463276, 49.594651595592914 ], [ 18.560770496139074, 49.59413712853295 ], [ 18.560668454658963, 49.594061449461158 ], [ 18.559899665690004, 49.593548948332732 ], [ 18.559893927639866, 49.593545509080265 ], [ 18.559023110291314, 49.593081220735343 ], [ 18.558106346273519, 49.592702523891695 ], [ 18.556960813193857, 49.592356051822406 ], [ 18.556652922009292, 49.59227892797545 ], [ 18.554804748001441, 49.591747381857395 ], [ 18.553044943244686, 49.591101437820214 ], [ 18.551390214200818, 49.590347229313785 ], [ 18.549856267553103, 49.589491917506187 ], [ 18.548457660966125, 49.588543623156006 ], [ 18.547207664859958, 49.587511349370061 ], [ 18.546118136513861, 49.586404895986725 ], [ 18.54519940769303, 49.585234766403602 ], [ 18.544460186859695, 49.584012067742037 ], [ 18.543907476886602, 49.582748405300279 ], [ 18.543546509041168, 49.581455772304714 ], [ 18.543380693849659, 49.580146436008661 ], [ 18.543411589289128, 49.578832821224282 ], [ 18.543638886587377, 49.57752739239416 ], [ 18.543674169460118, 49.577386534148026 ], [ 18.543761118498079, 49.576950031231846 ], [ 18.5438425712696, 49.576400921211615 ], [ 18.54388518073706, 49.575968901141884 ], [ 18.54391277504071, 49.575407206179577 ], [ 18.543912774704253, 49.574976672314961 ], [ 18.543885181692016, 49.574415003658444 ], [ 18.543842566395554, 49.573982931221174 ], [ 18.543761125147075, 49.573433898961511 ], [ 18.543674155072779, 49.572997293631694 ], [ 18.543542914772683, 49.572473353050967 ], [ 18.543408022421048, 49.572029322961463 ], [ 18.543233868026558, 49.571542594124303 ], [ 18.543045475213766, 49.571088464496718 ], [ 18.542838330139595, 49.570650493141535 ], [ 18.542588586475176, 49.570184000571373 ], [ 18.542361672670058, 49.569805417876026 ], [ 18.542040146830342, 49.569325033919121 ], [ 18.541810252923778, 49.569015057987542 ], [ 18.541403649935326, 49.568520507093289 ], [ 18.541191299276715, 49.568286214353869 ], [ 18.540683355561512, 49.56777926186772 ], [ 18.54051266236673, 49.567624554657847 ], [ 18.539884500238454, 49.567110127344691 ], [ 18.539782345027572, 49.567034363924328 ], [ 18.539013746743716, 49.566521988303563 ], [ 18.539007720610833, 49.566518376381119 ], [ 18.538137035151038, 49.56605415661884 ], [ 18.537220259781463, 49.565675453417839 ], [ 18.536267816530284, 49.565387381972187 ], [ 18.53507984729001, 49.565151814626105 ], [ 18.53477948801314, 49.565114846749914 ], [ 18.534396862567444, 49.565086706044504 ], [ 18.534177990283631, 49.565075953543356 ], [ 18.533788215108196, 49.565066392765452 ], [ 18.533398439926501, 49.56507595354288 ], [ 18.53317956764252, 49.565086706043907 ], [ 18.53279694220306, 49.565114846748415 ], [ 18.532496582903931, 49.56515181462656 ], [ 18.531116950768702, 49.565425386259157 ], [ 18.530846140668409, 49.565493219614517 ], [ 18.530838808410202, 49.565480836040898 ], [ 18.530150926377601, 49.565662075486237 ], [ 18.528145976723959, 49.566042850012593 ], [ 18.526092280698848, 49.566290472560695 ], [ 18.524010690722005, 49.566402428801602 ], [ 18.521922343142304, 49.566377581913002 ], [ 18.5198484431039, 49.566216184151315 ], [ 18.517810048704835, 49.56591987428574 ], [ 18.515827856666291, 49.56549166092055 ], [ 18.515538972112665, 49.565418550063711 ], [ 18.514193816164411, 49.565151814588432 ], [ 18.51389345719641, 49.565114846750227 ], [ 18.513510831415719, 49.565086706020224 ], [ 18.513291959809099, 49.565075953552395 ], [ 18.51290218429337, 49.565066392766134 ], [ 18.512512408771308, 49.56507595355194 ], [ 18.512293537164656, 49.565086706019621 ], [ 18.511910911390093, 49.565114846748742 ], [ 18.511610552400313, 49.565151814588845 ], [ 18.510230919346089, 49.565425386403724 ], [ 18.509960109853594, 49.565493219606786 ], [ 18.509952777474457, 49.565480835828879 ], [ 18.509264902389663, 49.565662073457396 ], [ 18.507259952093513, 49.566042848216483 ], [ 18.505206255412347, 49.566290471022661 ], [ 18.503124664751731, 49.566402427546834 ], [ 18.501036316446388, 49.566377580964968 ], [ 18.498962415626636, 49.566216183530265 ], [ 18.496924020377314, 49.565919874007172 ], [ 18.49494182740743, 49.565491660993594 ], [ 18.494652945961242, 49.565418551012272 ], [ 18.493491145803944, 49.565188174853546 ], [ 18.491656997004107, 49.564762259136373 ], [ 18.489892408993327, 49.564226272372139 ], [ 18.488212956639089, 49.563584946034375 ], [ 18.486633461647255, 49.562843941301864 ], [ 18.485167861574649, 49.562009798983169 ], [ 18.483829086725759, 49.561089881669702 ], [ 18.482628946024711, 49.560092308632434 ], [ 18.481578022871798, 49.559025884042853 ], [ 18.480685581902243, 49.557900019156243 ], [ 18.479959487465475, 49.556724649149281 ], [ 18.479930467958802, 49.556670443507194 ], [ 18.479703603720008, 49.556291943508157 ], [ 18.479382029066556, 49.555811486215873 ], [ 18.479152181015813, 49.555501572113592 ], [ 18.478745537716762, 49.555006971713183 ], [ 18.478533218218754, 49.554772713354133 ], [ 18.47802525625676, 49.554265742088234 ], [ 18.47785456284139, 49.554111034678385 ], [ 18.477226424612216, 49.55359662625726 ], [ 18.477124213886892, 49.55352082166457 ], [ 18.476355709426922, 49.553008507786174 ], [ 18.476349540973381, 49.553004810560026 ], [ 18.475478920621821, 49.552540624644251 ], [ 18.474562139601293, 49.552161918275843 ], [ 18.473609695087877, 49.551873845715228 ], [ 18.47242192296893, 49.551638316785095 ], [ 18.472121397866335, 49.551601328424965 ], [ 18.471738975529803, 49.551573202579121 ], [ 18.47151968496895, 49.551562429529348 ], [ 18.471130122669003, 49.551552873965115 ], [ 18.470740560362806, 49.551562429528879 ], [ 18.470521269802095, 49.551573202578531 ], [ 18.470138847471446, 49.551601328423473 ], [ 18.46983832234659, 49.55163831678562 ], [ 18.468650550215887, 49.551873845716479 ], [ 18.467698105702315, 49.552161918277726 ], [ 18.466781324683843, 49.552540624645978 ], [ 18.465910704399651, 49.553004810526367 ], [ 18.465904535821398, 49.553008507827244 ], [ 18.465077845162639, 49.553559610164307 ], [ 18.463563359579059, 49.554473333870277 ], [ 18.461916577143793, 49.555284456495912 ], [ 18.460153849192046, 49.555984921256467 ], [ 18.458292681095319, 49.556567770198967 ], [ 18.456351558193663, 49.557027213459492 ], [ 18.454349761889073, 49.557358686902212 ], [ 18.452307177742235, 49.557558897562515 ], [ 18.450244097497265, 49.557625856437141 ], [ 18.448181017022762, 49.557558898291362 ], [ 18.446138432200051, 49.557358688285298 ], [ 18.444136634811059, 49.557027215351184 ], [ 18.442195510477543, 49.556567772389364 ], [ 18.44033434068329, 49.555984923481326 ], [ 18.438571610867076, 49.555284458449258 ], [ 18.436924826511802, 49.554473335218837 ], [ 18.435410339071812, 49.553559610563667 ], [ 18.434583647108205, 49.553008507357596 ], [ 18.434577480093992, 49.553004810994175 ], [ 18.433706859026145, 49.55254062469642 ], [ 18.432790078007354, 49.552161918328743 ], [ 18.431837633494851, 49.551873845768483 ], [ 18.430649860736509, 49.551638316711454 ], [ 18.430349336233146, 49.551601328425058 ], [ 18.42996691324862, 49.551573202531578 ], [ 18.429747623999745, 49.551562429546237 ], [ 18.42935806103949, 49.551552873965768 ], [ 18.428968498072994, 49.551562429545825 ], [ 18.428749208824129, 49.551573202530975 ], [ 18.428366785845551, 49.551601328423558 ], [ 18.428066261320446, 49.551638316711895 ], [ 18.42687848855012, 49.551873845769748 ], [ 18.425926044036348, 49.552161918331038 ], [ 18.425009263021884, 49.552540624697542 ], [ 18.4241386420189, 49.553004810961049 ], [ 18.424132474881613, 49.55300850739831 ], [ 18.423305808120279, 49.553559593804671 ], [ 18.421791320028877, 49.554473319023259 ], [ 18.420144534863979, 49.555284442993205 ], [ 18.418381803987774, 49.555984908915661 ], [ 18.416520632800975, 49.556567758825423 ], [ 18.41457950667473, 49.557027202848339 ], [ 18.412577707043742, 49.5573586768406 ], [ 18.410535119502534, 49.557558887831917 ], [ 18.408472035829799, 49.557625846815505 ], [ 18.406408951929066, 49.55755888855586 ], [ 18.404366363716569, 49.557358678214449 ], [ 18.402364563008518, 49.557027204727376 ], [ 18.400423435460151, 49.556567761001261 ], [ 18.398562262587351, 49.555984911125755 ], [ 18.396799529859386, 49.555284444933697 ], [ 18.395152742787616, 49.554473320363087 ], [ 18.393638252852522, 49.553559594201857 ], [ 18.392811584794096, 49.553008506931597 ], [ 18.392805419210703, 49.553004811425765 ], [ 18.39193479742821, 49.552540624747103 ], [ 18.391018016416186, 49.552161918382247 ], [ 18.389873380256127, 49.551815714950727 ], [ 18.389563266192518, 49.551738034291688 ], [ 18.389569638570901, 49.551727266237634 ], [ 18.389096601285051, 49.551617109368451 ], [ 18.387300848207037, 49.5510678003834 ], [ 18.385594091803995, 49.550409275643943 ], [ 18.383991977686541, 49.549647573141385 ], [ 18.3825091900591, 49.548789676613495 ], [ 18.381159317007281, 49.54784345138988 ], [ 18.379954725929935, 49.546817572152982 ], [ 18.378906450259667, 49.545721443281757 ], [ 18.378024088508315, 49.544565112515116 ], [ 18.377315716557174, 49.543359178731862 ], [ 18.376787813986923, 49.542114694698022 ], [ 18.37644520511018, 49.540843065677798 ], [ 18.376291015232383, 49.539555944840828 ], [ 18.376326642524543, 49.53826512642835 ], [ 18.376551745747072, 49.536982437658494 ], [ 18.37658587899957, 49.536846168978414 ], [ 18.376672898700857, 49.536409310541245 ], [ 18.376754297841753, 49.535860562069324 ], [ 18.376796943262317, 49.53542817672858 ], [ 18.376824519489627, 49.53486684971837 ], [ 18.37682451915332, 49.534435947454021 ], [ 18.376796944216647, 49.533874646734255 ], [ 18.37675429297046, 49.533442209056894 ], [ 18.376672905345522, 49.532893538297664 ], [ 18.376585864621344, 49.532456577512633 ], [ 18.376454711480797, 49.531932984892002 ], [ 18.376319716694333, 49.531488616776407 ], [ 18.37614567891978, 49.531002213869883 ], [ 18.375957157379762, 49.530547773014781 ], [ 18.375750151028964, 49.530110094965238 ], [ 18.375500261969499, 49.52964332976704 ], [ 18.375273496389397, 49.529264994369868 ], [ 18.374951824649997, 49.528784391215645 ], [ 18.374722067697157, 49.528474599944417 ], [ 18.374315344466833, 49.527979901370784 ], [ 18.374103086518137, 49.527745710920769 ], [ 18.373595088918378, 49.527238702950022 ], [ 18.373424394124267, 49.527083994290393 ], [ 18.37279630470854, 49.526569624485624 ], [ 18.372693981874935, 49.526493736747803 ], [ 18.371925666191988, 49.525981547108501 ], [ 18.371919211946782, 49.525977678585534 ], [ 18.371048722428903, 49.525513560693668 ], [ 18.370131930145046, 49.525134848007944 ], [ 18.369179483132491, 49.524846773226955 ], [ 18.367992105195292, 49.524611321119345 ], [ 18.367691248380215, 49.524574291783829 ], [ 18.367309232174375, 49.524546195651091 ], [ 18.367089105283167, 49.524535381515079 ], [ 18.366699968605779, 49.524525836374998 ], [ 18.366310831922469, 49.524535381514639 ], [ 18.366090705031432, 49.524546195650494 ], [ 18.365708688831045, 49.524574291782386 ], [ 18.365407831995398, 49.524611321119728 ], [ 18.364220454046624, 49.524846773228113 ], [ 18.36326800703409, 49.525134848009579 ], [ 18.362351214752685, 49.525513560694797 ], [ 18.361480725297003, 49.525977678553858 ], [ 18.361474270935634, 49.525981547146465 ], [ 18.360705955385594, 49.526493736695492 ], [ 18.360603632401336, 49.526569624545232 ], [ 18.359975543150217, 49.52708399421325 ], [ 18.359804848179706, 49.527238703032964 ], [ 18.35929685076399, 49.527745710817911 ], [ 18.359084592624097, 49.527979901479142 ], [ 18.358677869587591, 49.528474599814857 ], [ 18.358448112440026, 49.528784391348893 ], [ 18.35812644089204, 49.529264994214834 ], [ 18.357899675125225, 49.529643329923744 ], [ 18.357870406591456, 49.529698000800927 ], [ 18.357144409429413, 49.530873284953778 ], [ 18.356252175234729, 49.531999046852178 ], [ 18.355201566176081, 49.53306535263345 ], [ 18.3540018436987, 49.534062792467175 ], [ 18.352663587037252, 49.534982563700886 ], [ 18.351198600017604, 49.535816548660108 ], [ 18.349619806965116, 49.536557386410614 ], [ 18.347941138636703, 49.537198537844738 ], [ 18.346177409185071, 49.537734343511929 ], [ 18.344344185245678, 49.538160073678121 ], [ 18.343143316895574, 49.538398197949292 ], [ 18.342871863346033, 49.538466192477941 ], [ 18.342864685259215, 49.538454055787405 ], [ 18.342168629878095, 49.538637436576899 ], [ 18.340164397819834, 49.539017963714997 ], [ 18.338111482415076, 49.53926529868788 ], [ 18.336030732924499, 49.539376929512699 ], [ 18.333943281992656, 49.539351722414075 ], [ 18.331870330502479, 49.539189933367084 ], [ 18.329832931728024, 49.53889320549311 ], [ 18.327851777003985, 49.538464552333657 ], [ 18.32755920783524, 49.538390401304866 ], [ 18.326219874150564, 49.538124818794508 ], [ 18.325919184450708, 49.538087810101572 ], [ 18.325536963841774, 49.538059699013843 ], [ 18.325317257816696, 49.53804890555363 ], [ 18.324927906971137, 49.538039355168138 ], [ 18.324538556119808, 49.538048905553183 ], [ 18.324318850094411, 49.538059699013253 ], [ 18.323936629491396, 49.538087810100095 ], [ 18.323635939771268, 49.538124818794799 ], [ 18.322448363410498, 49.538360309577094 ], [ 18.321495917640572, 49.538648383250774 ], [ 18.320579130992201, 49.539027092777076 ], [ 18.31970857452022, 49.539491245501168 ], [ 18.319702266249809, 49.539495026530282 ], [ 18.318933853396373, 49.540007280142341 ], [ 18.318831589118595, 49.540083124452352 ], [ 18.318203473061839, 49.540597515393245 ], [ 18.31803278094764, 49.540752221624025 ], [ 18.317524799403998, 49.541259212999577 ], [ 18.31731251223664, 49.541493435687627 ], [ 18.316905827606046, 49.541988086833761 ], [ 18.316676026300048, 49.542297937908437 ], [ 18.316354402062569, 49.542778469684727 ], [ 18.316127588055821, 49.543156885877039 ], [ 18.315877746615044, 49.54362356177743 ], [ 18.315670694747929, 49.544061336063223 ], [ 18.31548221550182, 49.544515674655841 ], [ 18.315308139369812, 49.545002184764094 ], [ 18.315173178302285, 49.545446441603538 ], [ 18.315041996451665, 49.545970148840468 ], [ 18.314954979010032, 49.546406992479056 ], [ 18.314873573706254, 49.546955782417669 ], [ 18.314830934314429, 49.547388099649353 ], [ 18.314803353415808, 49.547949521719801 ], [ 18.314803353079057, 49.548380302471557 ], [ 18.314830935267757, 49.548941750838914 ], [ 18.314873568831775, 49.549374015720943 ], [ 18.314954985653586, 49.549922883392355 ], [ 18.315041982066017, 49.550359624656011 ], [ 18.315076473581616, 49.550497323631824 ], [ 18.315303862581462, 49.551803133782194 ], [ 18.315334845957445, 49.553117142464345 ], [ 18.315169113934353, 49.554426874551822 ], [ 18.314808224561816, 49.555719894550862 ], [ 18.314255589506445, 49.556983924693597 ], [ 18.313516442216429, 49.558206961569681 ], [ 18.312597788739438, 49.559377390186079 ], [ 18.311508341642107, 49.560484094368576 ], [ 18.310258437641444, 49.561516562452383 ], [ 18.308859939717276, 49.562464987251737 ], [ 18.307326124625316, 49.56332035935413 ], [ 18.305671556873591, 49.564074552845135 ], [ 18.303911950357502, 49.564720402643907 ], [ 18.302064018970608, 49.565251772707221 ], [ 18.301097734069668, 49.565493737350295 ], [ 18.301090416328677, 49.565481374355336 ], [ 18.300404661239011, 49.565662053544884 ], [ 18.298399704636434, 49.566042830588209 ], [ 18.296346001516348, 49.56629045592684 ], [ 18.294264404145299, 49.566402415230456 ], [ 18.292176048719149, 49.566377571658585 ], [ 18.290102140232566, 49.566216177432686 ], [ 18.288063736641128, 49.565919871270452 ], [ 18.286081534534095, 49.565491661709039 ], [ 18.285792683582752, 49.565418560319785 ], [ 18.284447473848864, 49.565151814179316 ], [ 18.284147118213994, 49.565114846751186 ], [ 18.283764488822854, 49.565086705755753 ], [ 18.283545624525001, 49.565075953646947 ], [ 18.283155845331347, 49.565066392770362 ], [ 18.282766066131448, 49.56507595364652 ], [ 18.282547201833257, 49.565086705755192 ], [ 18.282164572448409, 49.565114846749715 ], [ 18.281864216792325, 49.565151814179714 ], [ 18.280484573832869, 49.56542538795852 ], [ 18.280213770891535, 49.565493219519901 ], [ 18.280206437210015, 49.565480833542239 ], [ 18.279518636988527, 49.565662051593684 ], [ 18.277513679767917, 49.566042828860795 ], [ 18.275459976016823, 49.566290454447582 ], [ 18.273378377988266, 49.566402414023514 ], [ 18.271290021864441, 49.566377570746475 ], [ 18.269216112626751, 49.566216176834942 ], [ 18.267177708218142, 49.565919871002095 ], [ 18.265195505216127, 49.565491661778971 ], [ 18.264906657252677, 49.565418561231532 ], [ 18.263561442735107, 49.565151814142624 ], [ 18.26326108739752, 49.565114846751072 ], [ 18.262878457686011, 49.565086705732064 ], [ 18.262659594037626, 49.56507595365516 ], [ 18.26226981451665, 49.565066392770539 ], [ 18.26188003498962, 49.56507595365467 ], [ 18.261661171342169, 49.565086705731368 ], [ 18.261278541635598, 49.565114846749516 ], [ 18.260978186276049, 49.565151814143057 ], [ 18.259598542435178, 49.565425388096713 ], [ 18.259327740076888, 49.565493219511971 ], [ 18.259320406279599, 49.565480833338697 ], [ 18.258632612714045, 49.565662049649674 ], [ 18.256627654877665, 49.566042827139896 ], [ 18.254573950497896, 49.566290452973945 ], [ 18.252492351814173, 49.566402412821255 ], [ 18.250403994995221, 49.566377569838032 ], [ 18.24833008500919, 49.566216176239692 ], [ 18.246291679786427, 49.565919870734859 ], [ 18.244309475892752, 49.565491661848696 ], [ 18.244020630904711, 49.565418562139577 ], [ 18.242675411624163, 49.565151814106201 ], [ 18.242375056581089, 49.565114846750852 ], [ 18.241992426548624, 49.565086705708275 ], [ 18.241773563548396, 49.565075953663261 ], [ 18.241383783702041, 49.565066392770653 ], [ 18.240994003849593, 49.56507595366282 ], [ 18.240775140849095, 49.565086705707721 ], [ 18.240392510822794, 49.565114846749395 ], [ 18.240092155759459, 49.565151814106422 ], [ 18.238904181994549, 49.56538738234908 ], [ 18.237951738733805, 49.565675453798079 ], [ 18.237034963394912, 49.566054156986773 ], [ 18.236164272924054, 49.566518379421076 ], [ 18.23615825685172, 49.566521985313507 ], [ 18.235389649464619, 49.567034367001128 ], [ 18.23528750247943, 49.567110124320983 ], [ 18.234659332960572, 49.56762455768461 ], [ 18.234488646400127, 49.567779258881636 ], [ 18.233980696759751, 49.568286217279343 ], [ 18.233768351390601, 49.568520504182878 ], [ 18.233361743703739, 49.569015060789496 ], [ 18.233131853965141, 49.569325031101499 ], [ 18.232810324448291, 49.569805420549841 ], [ 18.232583413878469, 49.570183997847707 ], [ 18.232333667387326, 49.570650495695112 ], [ 18.232126524768692, 49.571088461858722 ], [ 18.2319381298447, 49.571542596572577 ], [ 18.2317639772447, 49.572029320394456 ], [ 18.231629083394584, 49.572473355413258 ], [ 18.231497844316152, 49.572997291116309 ], [ 18.231410873282115, 49.573433901259968 ], [ 18.231329432742861, 49.573982928736889 ], [ 18.231286816978081, 49.574415005916045 ], [ 18.231259224198013, 49.574976669838847 ], [ 18.231259223861088, 49.57540720842033 ], [ 18.231286817931739, 49.575968898650267 ], [ 18.231329427866289, 49.57640092345887 ], [ 18.231410879928362, 49.576950028700914 ], [ 18.231497829923974, 49.577386536425379 ], [ 18.231533072413558, 49.577527233475109 ], [ 18.231760372954913, 49.57883268086497 ], [ 18.231791268939226, 49.580146314345107 ], [ 18.231625451576491, 49.581455669328484 ], [ 18.231264478837293, 49.582748320856403 ], [ 18.23071176125401, 49.584012001525778 ], [ 18.229972530114221, 49.585234717957043 ], [ 18.229053788327054, 49.586404864694906 ], [ 18.227964244409659, 49.587511334457581 ], [ 18.226714230203463, 49.588543623683769 ], [ 18.225315603088003, 49.58949193236964 ], [ 18.223781633610276, 49.590347257242186 ], [ 18.222126879590835, 49.591101477378288 ], [ 18.220367047900037, 49.591747431449363 ], [ 18.21851884521918, 49.592278985851813 ], [ 18.217555678437058, 49.59252024656174 ], [ 18.21754818899451, 49.592507611599174 ], [ 18.21686868044171, 49.592686657274591 ], [ 18.21486301939197, 49.593067682966101 ], [ 18.212808549116239, 49.593315600376371 ], [ 18.210726124190916, 49.593427892869769 ], [ 18.208636883662539, 49.593403420521128 ], [ 18.20656203594449, 49.59324243171644 ], [ 18.204522643000502, 49.592946560626785 ], [ 18.202539406032322, 49.592518810581986 ], [ 18.202254203203768, 49.59244674034538 ], [ 18.200903010754725, 49.592178809441094 ], [ 18.200602990330299, 49.59214188341867 ], [ 18.200219950709332, 49.592113712409727 ], [ 18.200001931129428, 49.592103001799245 ], [ 18.199611722062183, 49.592093430394279 ], [ 18.19922151298876, 49.592103001798826 ], [ 18.199003493408728, 49.592113712409144 ], [ 18.198620453793872, 49.592141883417206 ], [ 18.198320433347018, 49.59217880944157 ], [ 18.197132062053345, 49.592414455165695 ], [ 18.196179621333705, 49.59270252437797 ], [ 18.195262857356951, 49.593081221205111 ], [ 18.194392033664258, 49.593545512932735 ], [ 18.194386308347756, 49.593548944552943 ], [ 18.193617507851744, 49.594061453364077 ], [ 18.193515476792435, 49.594137124707316 ], [ 18.192887255100484, 49.594651599436929 ], [ 18.192716572902167, 49.59480629668014 ], [ 18.192208656253591, 49.595313221013114 ], [ 18.191996251697923, 49.595547573218788 ], [ 18.191589721837214, 49.596042034212608 ], [ 18.191359742882181, 49.596352124818857 ], [ 18.191038308776609, 49.596832370907698 ], [ 18.190811301038806, 49.597211110320281 ], [ 18.190561650022733, 49.597677429133867 ], [ 18.190354416199437, 49.598115588133382 ], [ 18.190166105984222, 49.598569518036925 ], [ 18.18999187659033, 49.599056456483247 ], [ 18.189857050227609, 49.599500268793385 ], [ 18.189725753702593, 49.600024433836026 ], [ 18.189638829247048, 49.600460809627592 ], [ 18.189557353346636, 49.60101007548986 ], [ 18.189514761291502, 49.601441911779979 ], [ 18.189487156589028, 49.602003818388738 ], [ 18.18948715625196, 49.602434113969508 ], [ 18.189514762245523, 49.602996046895981 ], [ 18.189557348468025, 49.603427830794544 ], [ 18.189638835896012, 49.603977174454194 ], [ 18.189725739304038, 49.604413447782711 ], [ 18.189762882942201, 49.604561734683337 ], [ 18.189990105406565, 49.605866926233162 ], [ 18.190020891845339, 49.607180291745081 ], [ 18.189854934612427, 49.608489374076356 ], [ 18.189493792375949, 49.609781755741167 ], [ 18.188940875918806, 49.611045176721028 ], [ 18.18820141634259, 49.612267650816428 ], [ 18.187282415955423, 49.613437579434745 ], [ 18.186192582290403, 49.614543861731157 ], [ 18.184942245863915, 49.615576000052755 ], [ 18.183543262440701, 49.616524199680285 ], [ 18.182008900723012, 49.617379461914716 ], [ 18.180353716523971, 49.618133669619198 ], [ 18.178593414617218, 49.618779664397316 ], [ 18.176744699576791, 49.619311314669119 ], [ 18.175791413282802, 49.61955009549591 ], [ 18.175783768605442, 49.619537212755922 ], [ 18.175112552016547, 49.619714082395092 ], [ 18.173106201500733, 49.620095345919033 ], [ 18.171050980878132, 49.620343546772474 ], [ 18.16896774652815, 49.620456166143633 ], [ 18.16687763982295, 49.620432061106726 ], [ 18.164801872060089, 49.620271476249613 ], [ 18.162761508676329, 49.619976041187407 ], [ 18.160777254959374, 49.619548753987097 ], [ 18.160495604627588, 49.619477687907498 ], [ 18.159138357142595, 49.619208551303821 ], [ 18.158838670187585, 49.619171665088601 ], [ 18.158455220461036, 49.619143462343573 ], [ 18.158238042935853, 49.619132792126116 ], [ 18.157847403869976, 49.619123208443966 ], [ 18.157456764595036, 49.619132788638481 ], [ 18.157239586843797, 49.619143456917129 ], [ 18.156856136527342, 49.619171656238244 ], [ 18.156556448769308, 49.619208539780267 ], [ 18.1553676740809, 49.619444258336728 ], [ 18.154415229841387, 49.619732321959965 ], [ 18.153498470327055, 49.620111009513465 ], [ 18.152627507135794, 49.620575367356146 ], [ 18.152622069777554, 49.620578626335863 ], [ 18.15185307089266, 49.621091258723432 ], [ 18.151751152193651, 49.621166845684229 ], [ 18.151122873128212, 49.621681358759083 ], [ 18.150952191042926, 49.621836053649801 ], [ 18.150444302271325, 49.622342941387814 ], [ 18.150231833680703, 49.622577360553272 ], [ 18.149825376623276, 49.62307172385362 ], [ 18.149595303090358, 49.623381936522335 ], [ 18.149273959475757, 49.623862037567051 ], [ 18.149046848790679, 49.624240941024873 ], [ 18.149018541268408, 49.624293815375722 ], [ 18.148292170226966, 49.6254694302581 ], [ 18.147399174083798, 49.626595581191317 ], [ 18.146347422762062, 49.627662329503572 ], [ 18.145146189018977, 49.628660260153708 ], [ 18.143806066849297, 49.629580564934336 ], [ 18.142338878145335, 49.630415120332231 ], [ 18.1407575684322, 49.631156559352064 ], [ 18.13907609259763, 49.631798336665753 ], [ 18.137309291626103, 49.632334786506057 ], [ 18.135472761430613, 49.632761172789479 ], [ 18.134481404040049, 49.632957744509845 ], [ 18.133528961100492, 49.633245807007349 ], [ 18.132612207316544, 49.633624491361545 ], [ 18.131741177594627, 49.634088883809298 ], [ 18.131735885554619, 49.634092055689976 ], [ 18.130966790271728, 49.63460475153596 ], [ 18.130864929330247, 49.634680295661944 ], [ 18.130236624412323, 49.635194829230322 ], [ 18.130065944270978, 49.635349522360144 ], [ 18.129558072226736, 49.635856392838001 ], [ 18.129345573830015, 49.636090844890298 ], [ 18.128939155878765, 49.636585160153345 ], [ 18.12870903756939, 49.636895433196969 ], [ 18.128387741806808, 49.63737546234789 ], [ 18.128160582414647, 49.637754447069391 ], [ 18.127911069897294, 49.638220495805861 ], [ 18.127703693092222, 49.638658946374164 ], [ 18.12751550528645, 49.639112567866377 ], [ 18.127341154361869, 49.639599830776753 ], [ 18.127206424631318, 49.640043308114521 ], [ 18.127075035547588, 49.640567819931292 ], [ 18.126988176401351, 49.641003843537128 ], [ 18.126906641144505, 49.641553469994669 ], [ 18.126864080115574, 49.641984944513347 ], [ 18.126836451417713, 49.642547218423019 ], [ 18.126836446535467, 49.642977149263352 ], [ 18.126864064636909, 49.643539449752247 ], [ 18.126906610707639, 49.6439708722273 ], [ 18.126988145877725, 49.644520577257083 ], [ 18.127074974745096, 49.644956499107884 ], [ 18.127206384222859, 49.6454811379256 ], [ 18.127341059070037, 49.645924468592376 ], [ 18.127535088807164, 49.646466761716525 ] ] ] } }
]
}
