{
"type": "FeatureCollection",
"name": "google_zone_25km",
"crs": { "type": "name", "properties": { "name": "urn:ogc:def:crs:OGC:1.3:CRS84" } },
"features": [
{ "type": "Feature", "properties": { "source": "Google Distance Matrix", "origin": "Frýdek-Místek, Česká republika", "max_km": 25 }, "geometry": { "type": "Polygon", "coordinates": [ [ [ 18.064876488487123, 49.619437714181252 ], [ 18.065220988825423, 49.620648922615246 ], [ 18.065393982461007, 49.621875498062757 ], [ 18.065394013861102, 49.623107211166463 ], [ 18.06522106984346, 49.624333788971022 ], [ 18.06487658011654, 49.62554500060223 ], [ 18.064683023233197, 49.626085939506858 ], [ 18.064548259234407, 49.626529529931844 ], [ 18.064416899304462, 49.627053925380103 ], [ 18.064330016534164, 49.627490067850538 ], [ 18.064248499209366, 49.628039573452554 ], [ 18.064205926162938, 49.628471170077752 ], [ 18.064178303511607, 49.62903332099993 ], [ 18.064178298630438, 49.629463374993243 ], [ 18.064205910693797, 49.630025552489585 ], [ 18.064248468785266, 49.630457097081845 ], [ 18.064329986029485, 49.631006681239953 ], [ 18.064416838527588, 49.631442721977358 ], [ 18.064548218852547, 49.631967244397615 ], [ 18.064682927981472, 49.63241068818791 ], [ 18.064857289510886, 49.632898011259741 ], [ 18.065045433287164, 49.633351552929383 ], [ 18.065252849116707, 49.633790107670215 ], [ 18.065502286085554, 49.634256036966953 ], [ 18.065729520196527, 49.634635161978927 ], [ 18.066050703052721, 49.635115041142321 ], [ 18.066280936225699, 49.635425480197647 ], [ 18.066687201570915, 49.635919626530992 ], [ 18.066899855139358, 49.636154257371444 ], [ 18.067407537722477, 49.636660954026198 ], [ 18.067578407333265, 49.636815823538491 ], [ 18.068206495999544, 49.63733019427054 ], [ 18.068308566486625, 49.637405895996601 ], [ 18.069077437875869, 49.637918456141705 ], [ 18.069082935791524, 49.637921751513161 ], [ 18.069953845354629, 49.638386093191613 ], [ 18.070870585095371, 49.638764783424051 ], [ 18.072017034133687, 49.639111533447959 ], [ 18.07231131021793, 49.639185246222077 ], [ 18.074160775189085, 49.639717053342089 ], [ 18.075921852022955, 49.640363152022061 ], [ 18.077577843684704, 49.641117417779661 ], [ 18.079113047206494, 49.641972700508504 ], [ 18.080512902438233, 49.642920892125176 ], [ 18.081764130069345, 49.6439530032942 ], [ 18.08285485761585, 49.64505924850976 ], [ 18.083774732176856, 49.64622913873513 ], [ 18.084515018885757, 49.647451580726681 ], [ 18.085068684112812, 49.648714982108153 ], [ 18.085430462617239, 49.650007361203713 ], [ 18.085596907994958, 49.651316460592433 ], [ 18.085566425924885, 49.652629863311759 ], [ 18.085339289877282, 49.653935110609495 ], [ 18.08530268250481, 49.654081247945335 ], [ 18.085215846601756, 49.654517154623854 ], [ 18.085134293702357, 49.655066900025972 ], [ 18.085091744505966, 49.655498254358577 ], [ 18.085064109860518, 49.656060649356256 ], [ 18.085064104981189, 49.65649045895772 ], [ 18.085091729032438, 49.657052880539759 ], [ 18.085134263275442, 49.657484182817818 ], [ 18.085215816092369, 49.658034006807767 ], [ 18.085302621717993, 49.6584698117085 ], [ 18.085434059867719, 49.658994564988603 ], [ 18.085568701033079, 49.659437784496994 ], [ 18.085743139934426, 49.659925323815081 ], [ 18.085931198304344, 49.660378658988499 ], [ 18.086138706162579, 49.660817408311374 ], [ 18.086388046684462, 49.661283156755111 ], [ 18.086615379091491, 49.661662445766162 ], [ 18.086936465228774, 49.662142179613056 ], [ 18.087166789112079, 49.662452740977884 ], [ 18.087572974929312, 49.66294678962489 ], [ 18.087785689593268, 49.663181487873693 ], [ 18.088293337055401, 49.663688148334167 ], [ 18.088464204628526, 49.663843015998644 ], [ 18.089092342956601, 49.664357426033732 ], [ 18.08919430014922, 49.664433043733183 ], [ 18.089963361941457, 49.664945729188887 ], [ 18.089968571745825, 49.664948851870534 ], [ 18.090839613040504, 49.665413262041547 ], [ 18.091756341258947, 49.665791945836567 ], [ 18.092903393644992, 49.666138876561988 ], [ 18.093194085675826, 49.666211691574738 ], [ 18.095044043397884, 49.666743598649745 ], [ 18.096805570828533, 49.667389740151471 ], [ 18.098461973415588, 49.668143993666988 ], [ 18.09999755064613, 49.668999212095883 ], [ 18.101397744713832, 49.669947291241712 ], [ 18.102649278462732, 49.670979246468974 ], [ 18.103740281302979, 49.672085297706182 ], [ 18.104660401903836, 49.673254961996072 ], [ 18.105400906590265, 49.674477152722361 ], [ 18.105954762500765, 49.675740284578332 ], [ 18.106316704705083, 49.677032383288832 ], [ 18.106483286628887, 49.678341199048361 ], [ 18.106452913288361, 49.679654322605565 ], [ 18.106225856998773, 49.680959302894387 ], [ 18.106188465543664, 49.681108570310528 ], [ 18.106101676553948, 49.681544240966261 ], [ 18.106020088046748, 49.682094226392536 ], [ 18.10597756272195, 49.68252533821471 ], [ 18.105949916071818, 49.683087977502844 ], [ 18.105949911194344, 49.683517542499487 ], [ 18.105977547244045, 49.684080208382127 ], [ 18.106020057617066, 49.684511268128567 ], [ 18.106101646039892, 49.685061332174207 ], [ 18.106188404746867, 49.685496901006964 ], [ 18.10631990078193, 49.686021885388868 ], [ 18.106454473906791, 49.68646488036272 ], [ 18.106628990275752, 49.686952636194476 ], [ 18.1068169631221, 49.687405764589741 ], [ 18.10702456315056, 49.687844708793833 ], [ 18.107273807056536, 49.688310276069622 ], [ 18.107501237958665, 49.688689729411863 ], [ 18.10781542708785, 49.689166540313842 ], [ 18.10804584449345, 49.689477222339171 ], [ 18.108451954396664, 49.689971169558333 ], [ 18.108664732293494, 49.690205933898568 ], [ 18.109172347991077, 49.690712553931803 ], [ 18.109343215005868, 49.690867418851667 ], [ 18.109971406018371, 49.691381863437016 ], [ 18.110073250771464, 49.691457396701693 ], [ 18.110842505577121, 49.691970202190973 ], [ 18.110847427535575, 49.691973152301436 ], [ 18.111718602494964, 49.692437625518906 ], [ 18.112635320197509, 49.692816297573827 ], [ 18.113587749694009, 49.69310435831779 ], [ 18.114777548965588, 49.693340279942099 ], [ 18.115076389524539, 49.693377059622399 ], [ 18.115460899403217, 49.693405338501833 ], [ 18.115675885644276, 49.693415900103282 ], [ 18.116067641188742, 49.693425509025218 ], [ 18.116459396726079, 49.693415900102885 ], [ 18.116674382966895, 49.693405338501378 ], [ 18.117058892852803, 49.693377059621099 ], [ 18.117357733384925, 49.693340279943328 ], [ 18.118547532642648, 49.693104358320625 ], [ 18.1188218346472, 49.693021397269831 ], [ 18.120718725019582, 49.692519896296012 ], [ 18.122682452319648, 49.692141891388644 ], [ 18.124693966878809, 49.691891049251971 ], [ 18.126733756606182, 49.691769803032983 ], [ 18.128782035822525, 49.691779328776526 ], [ 18.130818936715222, 49.691919534046413 ], [ 18.132824701579938, 49.692189058821377 ], [ 18.134779874006796, 49.692585288656929 ], [ 18.136665487178956, 49.693104379987467 ], [ 18.138463247478239, 49.693741297325879 ], [ 18.140155711634989, 49.694489862003238 ], [ 18.141726455719823, 49.695342811982066 ], [ 18.143160234349978, 49.696291872168011 ], [ 18.144443128573354, 49.697327834545376 ], [ 18.145562680999593, 49.698440647365388 ], [ 18.146508016865599, 49.699619512529758 ], [ 18.147269949855268, 49.700852990231546 ], [ 18.147841071636527, 49.702129109844478 ], [ 18.148215824232665, 49.703435485990724 ], [ 18.148390554507657, 49.70475943866596 ], [ 18.148363550216295, 49.706088116259394 ], [ 18.148135057246428, 49.707408620277768 ], [ 18.147953617867191, 49.708132969755738 ], [ 18.147866880805307, 49.708568402726421 ], [ 18.147785262669764, 49.709118627461955 ], [ 18.147742765971657, 49.709549494947481 ], [ 18.147715113323443, 49.710112377519195 ], [ 18.147715112985953, 49.710541695906919 ], [ 18.147742766927664, 49.711104604837367 ], [ 18.147785257784079, 49.711535419848488 ], [ 18.147866887466506, 49.712085722509315 ], [ 18.147953603444918, 49.712521052841566 ], [ 18.148085162667424, 49.713046266765922 ], [ 18.148219671788372, 49.713489034507759 ], [ 18.148394270481539, 49.71397700525511 ], [ 18.148582161683144, 49.714429923866192 ], [ 18.148789858219555, 49.71486906140391 ], [ 18.149039009210494, 49.715334444148546 ], [ 18.149266542377845, 49.715714060422066 ], [ 18.149587438095974, 49.716193499169243 ], [ 18.149817947115675, 49.716504304722122 ], [ 18.150223976473832, 49.716998153022459 ], [ 18.150232586601291, 49.717007652890182 ], [ 18.151165325043973, 49.718160820203529 ], [ 18.151922235051973, 49.719366929115218 ], [ 18.15249624972288, 49.720614739600208 ], [ 18.152882005261539, 49.721892622160354 ], [ 18.153075891456979, 49.72318866613525 ], [ 18.153076085863635, 49.724490790664873 ], [ 18.152882571349, 49.725786857272155 ], [ 18.152497136823285, 49.727064783017482 ], [ 18.151923361122762, 49.72831265316988 ], [ 18.151166580176895, 49.729518832344425 ], [ 18.150233837744771, 49.730672073065655 ], [ 18.150224037893818, 49.730682885472092 ], [ 18.149817905086433, 49.73117685876764 ], [ 18.14958747303297, 49.73148756030605 ], [ 18.149266522137879, 49.731967080408658 ], [ 18.149039023211404, 49.732346639319964 ], [ 18.148789854178471, 49.732812054365475 ], [ 18.148582160397968, 49.733251185862933 ], [ 18.148394277050677, 49.733704083711949 ], [ 18.148219660912414, 49.734192103036825 ], [ 18.148085174265869, 49.734634794311546 ], [ 18.147953588679744, 49.735160113351853 ], [ 18.147866898533593, 49.73559531028063 ], [ 18.147785244791759, 49.736145775054226 ], [ 18.147742771963156, 49.736576400033293 ], [ 18.147715107313743, 49.737139526894389 ], [ 18.147715106976122, 49.73756860068918 ], [ 18.147742772919511, 49.73813175391917 ], [ 18.147785239904124, 49.738562326403205 ], [ 18.147866905197564, 49.739112869134026 ], [ 18.147953574251169, 49.739547963380424 ], [ 18.148085191372633, 49.740073408450598 ], [ 18.148219632433825, 49.740515951604067 ], [ 18.148394308627612, 49.741004138951368 ], [ 18.148582114260613, 49.741456850683527 ], [ 18.148789903033752, 49.741896183239618 ], [ 18.149038957322773, 49.742361384662289 ], [ 18.149266589100357, 49.742741165457232 ], [ 18.149587387726978, 49.743220458337085 ], [ 18.149817987897389, 49.743531386792682 ], [ 18.150223937225832, 49.744025136801106 ], [ 18.150436839011387, 49.744260037831936 ], [ 18.150944382620626, 49.744766583639844 ], [ 18.151115247518632, 49.744921446641442 ], [ 18.151743535855033, 49.745435968196738 ], [ 18.151845155941412, 49.745511334837289 ], [ 18.15261478984565, 49.746024389804404 ], [ 18.152619136836826, 49.74602699529251 ], [ 18.153549343564983, 49.74652293744883 ], [ 18.153961154479642, 49.746717707724478 ], [ 18.153949014584118, 49.746728485386917 ], [ 18.154563073656924, 49.74701024549924 ], [ 18.156093467085945, 49.747868526371818 ], [ 18.157488021084227, 49.748819052821425 ], [ 18.158733546631563, 49.749852840692419 ], [ 18.159818261057669, 49.750960118291466 ], [ 18.160731899611481, 49.752130418616311 ], [ 18.161465812783941, 49.753352678171474 ], [ 18.162013048454195, 49.754615341443781 ], [ 18.162368418069633, 49.755906470054967 ], [ 18.162528546217107, 49.757213855563727 ], [ 18.162491903098246, 49.758525134854622 ], [ 18.162258819580106, 49.759827907024935 ], [ 18.161831484657419, 49.761109850665065 ], [ 18.161213925327836, 49.762358840423339 ], [ 18.160411969048845, 49.763563061751746 ], [ 18.15943318911086, 49.764711122743407 ], [ 18.15828683342496, 49.765792162001503 ], [ 18.156983737383225, 49.766795951513508 ], [ 18.155536221603693, 49.767712993552003 ], [ 18.153957975518761, 49.768534610679509 ], [ 18.153530649245667, 49.768735721075551 ], [ 18.152618866301474, 49.76922183929976 ], [ 18.15261501645514, 49.769224146807169 ], [ 18.151844976675584, 49.769737471250558 ], [ 18.151743682909505, 49.769812595779847 ], [ 18.151115138067603, 49.770327326278114 ], [ 18.150944469088838, 49.770482011539336 ], [ 18.150436780949864, 49.770988700407038 ], [ 18.150223978905846, 49.771223491172741 ], [ 18.149817966370705, 49.77171731675255 ], [ 18.149587397373981, 49.77202820293725 ], [ 18.149266592317055, 49.772507503937987 ], [ 18.149038945291377, 49.772887309937609 ], [ 18.148789921475455, 49.773352452692848 ], [ 18.148582089193841, 49.773791877026063 ], [ 18.148394334326213, 49.774244464250444 ], [ 18.148219601827478, 49.774732808780904 ], [ 18.148085217362606, 49.775175162869395 ], [ 18.147953544851671, 49.775700828932933 ], [ 18.147866925153256, 49.776135671427873 ], [ 18.147785217948879, 49.776686496616477 ], [ 18.147742780958758, 49.777116757489672 ], [ 18.147715098290842, 49.777680251126036 ], [ 18.147715097953018, 49.778108957693405 ], [ 18.147742781915678, 49.778672477714082 ], [ 18.147785213058295, 49.779102686061137 ], [ 18.147866931821305, 49.779653589254821 ], [ 18.147953530413719, 49.780088329002183 ], [ 18.148085234481378, 49.780614121181095 ], [ 18.148219573327761, 49.781056327041149 ], [ 18.148394365929008, 49.78154483972574 ], [ 18.148582043016305, 49.781997240675842 ], [ 18.148789970378775, 49.782436866254741 ], [ 18.149038879333666, 49.782901795169948 ], [ 18.149266659360176, 49.783281823303639 ], [ 18.14958731195825, 49.783760896798675 ], [ 18.149818049305512, 49.784072010216263 ], [ 18.150223878077234, 49.784565612163874 ], [ 18.150436872915098, 49.784800615862416 ], [ 18.150944362324736, 49.785307105867211 ], [ 18.151115225725658, 49.785461967512227 ], [ 18.151743587042127, 49.785976546781441 ], [ 18.151845038482971, 49.786051788345965 ], [ 18.152614957083504, 49.786565030663631 ], [ 18.152618872102938, 49.786567377237709 ], [ 18.153490506750284, 49.787032089433517 ], [ 18.154407183497341, 49.787410738690362 ], [ 18.155359603329334, 49.7876987913275 ], [ 18.156314262527353, 49.787888085064438 ], [ 18.158157143307822, 49.788315763915037 ], [ 18.159929906793892, 49.788853538155458 ], [ 18.161616903311227, 49.789496661063026 ], [ 18.163203238575669, 49.790239455854227 ], [ 18.164674905010042, 49.791075365690162 ], [ 18.166018905314342, 49.791997011442689 ], [ 18.167223367203434, 49.792996256717799 ], [ 18.168277648300954, 49.794064279566022 ], [ 18.169172430262346, 49.795191650252484 ], [ 18.169899801291056, 49.796368414405904 ], [ 18.169924883941682, 49.796415265006488 ], [ 18.170152713792824, 49.796795376267646 ], [ 18.170473317249126, 49.797274375938926 ], [ 18.170704100850074, 49.79758555172247 ], [ 18.171109888841727, 49.798079103593501 ], [ 18.171322915362289, 49.798314142248614 ], [ 18.171830385967066, 49.798820612915257 ], [ 18.172001249682904, 49.798975474845676 ], [ 18.172629634437637, 49.799490072624792 ], [ 18.172731030618227, 49.799565273205552 ], [ 18.173501043104444, 49.800078577297036 ], [ 18.173504815187215, 49.800080838198056 ], [ 18.174376514991469, 49.800545584257691 ], [ 18.175293185832547, 49.800924230232454 ], [ 18.176245604248152, 49.801212281698234 ], [ 18.17743700720564, 49.801448515840981 ], [ 18.177734500686391, 49.80148512913091 ], [ 18.178120663600179, 49.801513528934088 ], [ 18.17833224491822, 49.801523923262287 ], [ 18.178725733587068, 49.801533574635521 ], [ 18.179119222247497, 49.801523923261918 ], [ 18.179330803564948, 49.801513528933611 ], [ 18.179716966487511, 49.801485129129468 ], [ 18.180014459937439, 49.80144851584248 ], [ 18.18140257969505, 49.80117327485204 ], [ 18.181646820016574, 49.801112094917606 ], [ 18.183470543541304, 49.800716853738088 ], [ 18.185342779362024, 49.800432110316372 ], [ 18.187247587353905, 49.800260288842402 ], [ 18.189168750768257, 49.800202852099282 ], [ 18.191089913966611, 49.800260289041113 ], [ 18.192994721322385, 49.800432110640848 ], [ 18.194866956122258, 49.800716854045149 ], [ 18.196690678298896, 49.801112095000065 ], [ 18.19760210162482, 49.801340394715936 ], [ 18.19945452030294, 49.80187279049823 ], [ 18.201218299029364, 49.802519133870234 ], [ 18.202876755820029, 49.803273312918783 ], [ 18.204414202569893, 49.804128195735046 ], [ 18.205816093301301, 49.805075697725307 ], [ 18.207069161716223, 49.806106857928079 ], [ 18.20816154675412, 49.807211923621061 ], [ 18.209082904966706, 49.808380442425246 ], [ 18.209824508640843, 49.809601361041985 ], [ 18.210379328731978, 49.810863129693423 ], [ 18.210742101810418, 49.812153811286045 ], [ 18.210909380370389, 49.813461194267248 ], [ 18.210879566007218, 49.81477290811214 ], [ 18.210652925127466, 49.816076540349485 ], [ 18.210611593181259, 49.816241545482683 ], [ 18.210525044322448, 49.816676031578041 ], [ 18.210443283367223, 49.817227219125471 ], [ 18.21040088240515, 49.817657113972508 ], [ 18.21037318162475, 49.818220976297312 ], [ 18.210373181286737, 49.818649313732351 ], [ 18.210400883362642, 49.819213202456666 ], [ 18.210443278473804, 49.819643044746847 ], [ 18.21052505099474, 49.820194310347091 ], [ 18.210611578734021, 49.820628693629246 ], [ 18.210743370249912, 49.821154834921373 ], [ 18.210877606261523, 49.821596701448577 ], [ 18.211052516018768, 49.82208554156243 ], [ 18.211240063672243, 49.822537629590798 ], [ 18.211448130665669, 49.82297755039486 ], [ 18.21169689307769, 49.823442204545941 ], [ 18.211924822746106, 49.823822482342379 ], [ 18.212245327723672, 49.824301334074782 ], [ 18.212476204056998, 49.824612634893668 ], [ 18.212881910232255, 49.825106086299847 ], [ 18.213095000403921, 49.825341195183327 ], [ 18.213602433085544, 49.825847626860657 ], [ 18.213773297763233, 49.82600248966309 ], [ 18.214401729052025, 49.826517124180505 ], [ 18.214503015048582, 49.826592243043279 ], [ 18.215273214993193, 49.827105670471767 ], [ 18.215276701452542, 49.827107760176645 ], [ 18.216148531401373, 49.827572573871649 ], [ 18.217065190387384, 49.827951213262899 ], [ 18.218017605944496, 49.8282392623763 ], [ 18.218964373085903, 49.828426989646708 ], [ 18.220808664553623, 49.828854951815622 ], [ 18.222582736994941, 49.829393002506947 ], [ 18.224270928304868, 49.830036392288747 ], [ 18.225858332815758, 49.830779441700834 ], [ 18.227330932721809, 49.831615591286052 ], [ 18.228675721746406, 49.832537459383367 ], [ 18.229880819965569, 49.833536907176978 ], [ 18.230935578775448, 49.834605110432172 ], [ 18.231830675075877, 49.835732637290363 ], [ 18.232558193833736, 49.836909531440853 ], [ 18.232582897605759, 49.836955674249097 ], [ 18.232810877266793, 49.837336035453312 ], [ 18.233131332907217, 49.837814813070345 ], [ 18.233362255719097, 49.838126176558397 ], [ 18.233767920858618, 49.838619577577035 ], [ 18.233981042998373, 49.838854721731963 ], [ 18.234488456561685, 49.839361133758068 ], [ 18.234659321887261, 49.839515997147693 ], [ 18.235287776269768, 49.840030649892 ], [ 18.235389007343549, 49.840105728021271 ], [ 18.236159300861196, 49.84061921701344 ], [ 18.236162644633534, 49.84062122119493 ], [ 18.237034539569709, 49.841086068661404 ], [ 18.237951192608612, 49.84146470475185 ], [ 18.238903606720058, 49.841752752683156 ], [ 18.240095612985993, 49.841989104387999 ], [ 18.240392600176673, 49.842025655141974 ], [ 18.240779385091145, 49.842054100444116 ], [ 18.240989685032545, 49.842064431822351 ], [ 18.241383825988557, 49.842074099172542 ], [ 18.24177796693553, 49.84206443182196 ], [ 18.241988266876238, 49.842054100443633 ], [ 18.242375051800227, 49.842025655140439 ], [ 18.242672038958212, 49.841989104389626 ], [ 18.244061657657749, 49.841713568584012 ], [ 18.244293214340647, 49.841655565797673 ], [ 18.246119685752298, 49.841259736564197 ], [ 18.247994820240223, 49.840974565721694 ], [ 18.249902628489362, 49.840802484825581 ], [ 18.25182684327299, 49.840744961115604 ], [ 18.253751057827522, 49.84080248503593 ], [ 18.255658865401983, 49.840974566064908 ], [ 18.257533998807251, 49.841259736888489 ], [ 18.259360468789371, 49.841655565883144 ], [ 18.259592025940741, 49.841713568789324 ], [ 18.260981643355944, 49.84198910434209 ], [ 18.261278630975212, 49.842025655148838 ], [ 18.261665415425519, 49.84205410041681 ], [ 18.261875716306811, 49.842064431841273 ], [ 18.262269856789672, 49.842074099179868 ], [ 18.262663997263598, 49.842064431840839 ], [ 18.262874298144773, 49.842054100416277 ], [ 18.263261082603965, 49.842025655147332 ], [ 18.263558070189593, 49.841989104343831 ], [ 18.264947687618029, 49.841713568790311 ], [ 18.26517925438208, 49.841655563478831 ], [ 18.267005723554533, 49.841259734731068 ], [ 18.268880855743998, 49.840974564238515 ], [ 18.270788661654748, 49.840802483553674 ], [ 18.272712874079698, 49.840744959914552 ], [ 18.274637086275028, 49.840802483764662 ], [ 18.276544891509616, 49.840974564582822 ], [ 18.278420022614039, 49.84125973505656 ], [ 18.280246490353825, 49.841655563565155 ], [ 18.280478057583728, 49.841713568995857 ], [ 18.281867673726392, 49.841989104296339 ], [ 18.282164661773653, 49.842025655155716 ], [ 18.282551445758493, 49.842054100389461 ], [ 18.282761747582271, 49.842064431860237 ], [ 18.283155887590841, 49.842074099187215 ], [ 18.283550027590334, 49.842064431859853 ], [ 18.283760329413411, 49.842054100389035 ], [ 18.284147113407705, 49.84202565515421 ], [ 18.284444101422377, 49.841989104297895 ], [ 18.285636106754563, 49.841752752776721 ], [ 18.286922525277941, 49.841363685988064 ], [ 18.288866093490523, 49.840851246637811 ], [ 18.290879436512558, 49.840467724906809 ], [ 18.292942171286985, 49.840217003316816 ], [ 18.295033415963232, 49.840101619941585 ], [ 18.297132000801469, 49.840122742775577 ], [ 18.299216681955322, 49.840280157940605 ], [ 18.301266355994976, 49.840572271847293 ], [ 18.303260273025575, 49.840996127291255 ], [ 18.305178246269541, 49.841547433320855 ], [ 18.307000856015339, 49.842220608579929 ], [ 18.308709645889124, 49.843008837689595 ], [ 18.310287309480227, 49.843904140106005 ], [ 18.311717865444088, 49.844897450763277 ], [ 18.312986819318123, 49.84597871169332 ], [ 18.314081310414966, 49.847136973703428 ], [ 18.314990242303068, 49.848360507090199 ], [ 18.315704395545193, 49.849636920276936 ], [ 18.315878330438473, 49.850004674223541 ], [ 18.316126994008226, 49.850469143056635 ], [ 18.316355024753836, 49.85084958949043 ], [ 18.316675429819789, 49.851328291143481 ], [ 18.31690640050784, 49.85163971918525 ], [ 18.317312023042369, 49.852133067907722 ], [ 18.317525178909492, 49.852368249275166 ], [ 18.318032571393143, 49.85287463969243 ], [ 18.318203439550071, 49.853029505648344 ], [ 18.318831914609639, 49.853544174640184 ], [ 18.31893309342993, 49.853619214015616 ], [ 18.319703477591592, 49.854132762618299 ], [ 18.319706681876291, 49.854134683194019 ], [ 18.320578640192842, 49.854599563574538 ], [ 18.321495287277269, 49.854978196360548 ], [ 18.322447699934081, 49.855266243106399 ], [ 18.323639906220105, 49.855502633782351 ], [ 18.323936725742104, 49.855539163825817 ], [ 18.324323716910769, 49.855567624214473 ], [ 18.324533591883092, 49.855577934715342 ], [ 18.324927949192229, 49.855587607364789 ], [ 18.32532230649225, 49.855577934714944 ], [ 18.32553218146354, 49.855567624214061 ], [ 18.32591917264212, 49.85553916382429 ], [ 18.326215992130695, 49.855502633784077 ], [ 18.327606107240211, 49.855227000351242 ], [ 18.327833460349698, 49.855170050525587 ], [ 18.329660842234659, 49.854774026474644 ], [ 18.33153693741383, 49.854488714018508 ], [ 18.333445740189578, 49.854316547165553 ], [ 18.335370966522621, 49.854258994639601 ], [ 18.337296192620808, 49.85431654738106 ], [ 18.339204994704925, 49.854488714370099 ], [ 18.341081088774263, 49.85477402680673 ], [ 18.342908469193894, 49.855170050612735 ], [ 18.343135822784699, 49.855227000561428 ], [ 18.344275285080055, 49.855452935749689 ], [ 18.346120508224633, 49.855881084697934 ], [ 18.347895444762749, 49.856419316937263 ], [ 18.349584424381661, 49.857062881253668 ], [ 18.351172533901707, 49.857806096432157 ], [ 18.352645748771835, 49.85864240130541 ], [ 18.353991056801085, 49.859564412564467 ], [ 18.355196573038597, 49.86056398982462 ], [ 18.356251644789385, 49.861632307378095 ], [ 18.357146945837773, 49.862759932004941 ], [ 18.357874559041502, 49.863936906159914 ], [ 18.357899029104161, 49.863982612366499 ], [ 18.358127110325182, 49.864363143013549 ], [ 18.358447465504163, 49.864841769729928 ], [ 18.358678483294351, 49.865153261281613 ], [ 18.35908406409089, 49.865646558762499 ], [ 18.359297252712302, 49.8658817762689 ], [ 18.359804625204209, 49.86638814616299 ], [ 18.359975494973302, 49.866543013580177 ], [ 18.360603992071756, 49.867057699934371 ], [ 18.36070511711095, 49.867132699423081 ], [ 18.361475593624164, 49.867646308773921 ], [ 18.361478656506176, 49.867648144596089 ], [ 18.362350679140608, 49.868113058389866 ], [ 18.363267320252273, 49.86849168786339 ], [ 18.364219731445871, 49.868779733420574 ], [ 18.365412138809113, 49.869016163276314 ], [ 18.3657087897138, 49.869052672492451 ], [ 18.366095988219001, 49.869081148047158 ], [ 18.366305436013217, 49.869091437562126 ], [ 18.366700010793526, 49.869101115538228 ], [ 18.367094585564548, 49.869091437561679 ], [ 18.367304033358131, 49.869081148046682 ], [ 18.367691231873039, 49.869052672490838 ], [ 18.367987882743282, 49.869016163278076 ], [ 18.369378497089297, 49.86874043165902 ], [ 18.369601623548547, 49.868684540574321 ], [ 18.371429920988348, 49.868288320608841 ], [ 18.373306982126429, 49.86800286574622 ], [ 18.375216784822065, 49.867830612456864 ], [ 18.377143028161548, 49.867773030954218 ], [ 18.379069271261368, 49.867830612676599 ], [ 18.380979073251428, 49.868002866104675 ], [ 18.382856133257299, 49.868288320947222 ], [ 18.384684429202306, 49.868684540662663 ], [ 18.384907556154936, 49.868740431873348 ], [ 18.386298169160622, 49.869016163228586 ], [ 18.386594820511984, 49.869052672499713 ], [ 18.386982018531906, 49.869081148018722 ], [ 18.387191467308352, 49.869091437581936 ], [ 18.387586041594545, 49.869101115545945 ], [ 18.387980615871204, 49.869091437581503 ], [ 18.388190064647599, 49.869081148018211 ], [ 18.388577262676794, 49.8690526724981 ], [ 18.388873913993265, 49.869016163230405 ], [ 18.390066320861028, 49.868779733471442 ], [ 18.391018732055585, 49.8684916879158 ], [ 18.391935373173819, 49.868113058441459 ], [ 18.392807395386093, 49.867648144874565 ], [ 18.392810459133464, 49.867646308533722 ], [ 18.393490790310004, 49.867192792017889 ], [ 18.395017539298909, 49.866272028469638 ], [ 18.396678979837858, 49.865454499613499 ], [ 18.398458473524105, 49.864748389522816 ], [ 18.400338202599617, 49.864160766554662 ], [ 18.402299348126494, 49.86369751273849 ], [ 18.404322278076144, 49.863363265026223 ], [ 18.406386743464722, 49.863161368983839 ], [ 18.408472080590933, 49.863093845383936 ], [ 18.410557417374314, 49.863161370029133 ], [ 18.412621881753289, 49.863363267006235 ], [ 18.414644810082226, 49.863697515436954 ], [ 18.416605953467521, 49.864160769659705 ], [ 18.418485680001691, 49.864748392640976 ], [ 18.420265170893668, 49.865454502287818 ], [ 18.421926608551811, 49.866272030200996 ], [ 18.42345335475245, 49.867192792288549 ], [ 18.424133684500294, 49.867646307845547 ], [ 18.424136750576427, 49.867648145582173 ], [ 18.425008771620483, 49.868113058527982 ], [ 18.425925412741023, 49.868491688005108 ], [ 18.426877823931687, 49.868779733561354 ], [ 18.428070229860317, 49.869016163132827 ], [ 18.428366882108346, 49.869052672514329 ], [ 18.428754079155301, 49.869081147961786 ], [ 18.42896352990212, 49.869091437621798 ], [ 18.429358103196357, 49.869101115561485 ], [ 18.429752676481122, 49.869091437621371 ], [ 18.429962127227782, 49.869081147961289 ], [ 18.430349324284073, 49.869052672512716 ], [ 18.430645976496542, 49.869016163134688 ], [ 18.431838382408703, 49.86877973356502 ], [ 18.432790793597938, 49.868491688011048 ], [ 18.433707434725292, 49.868113058533005 ], [ 18.434579455874854, 49.867648145532712 ], [ 18.434582521753494, 49.86764630791447 ], [ 18.435352995597928, 49.867132700340974 ], [ 18.435454123005805, 49.867057699095803 ], [ 18.436082618018233, 49.866543014447892 ], [ 18.436253489620483, 49.866388145369783 ], [ 18.436760860513164, 49.865881777069589 ], [ 18.436974050526572, 49.865646558028288 ], [ 18.437379630120258, 49.865153262008114 ], [ 18.437610648948485, 49.864841769057989 ], [ 18.437931003238564, 49.864363143667326 ], [ 18.43815908521902, 49.863982611754757 ], [ 18.438183579575544, 49.863936860164983 ], [ 18.438911187988584, 49.862759893736339 ], [ 18.439806483162435, 49.861632276646255 ], [ 18.440861547930833, 49.860563966389805 ], [ 18.44206705605616, 49.859564396127574 ], [ 18.443412354827551, 49.858642391497924 ], [ 18.44488555928837, 49.857806092806619 ], [ 18.446473657256252, 49.857062883274601 ], [ 18.448162624206955, 49.856419323973576 ], [ 18.449937547009391, 49.855881096017448 ], [ 18.451782755424311, 49.85545295051547 ], [ 18.452724383041449, 49.855266243386559 ], [ 18.453676795690168, 49.854978196645 ], [ 18.454593442801059, 49.854599563849973 ], [ 18.455465398089434, 49.854134685085711 ], [ 18.455468608465488, 49.854132760858931 ], [ 18.456238987154244, 49.853619215903016 ], [ 18.45634017088258, 49.853544172887815 ], [ 18.456968641568853, 49.853029507475384 ], [ 18.457139513619467, 49.852874637991029 ], [ 18.457646902656705, 49.852368251011221 ], [ 18.457860061571576, 49.852133066282001 ], [ 18.458265681426404, 49.851639720816543 ], [ 18.458496654468949, 49.851328289601341 ], [ 18.458817057479084, 49.85084959101745 ], [ 18.45904509001635, 49.85046914159593 ], [ 18.459293752036842, 49.85000467565439 ], [ 18.459501914445276, 49.849564553113723 ], [ 18.459689373822041, 49.849112678487799 ], [ 18.459864363363543, 49.848623615393564 ], [ 18.459998529424144, 49.848181979675829 ], [ 18.460130380371048, 49.847655601123769 ], [ 18.460216859990176, 49.847221459924221 ], [ 18.460298669002487, 49.846669948321285 ], [ 18.46034103966343, 49.846240354419393 ], [ 18.460368754028128, 49.845676215553794 ], [ 18.460368753690144, 49.845248128528389 ], [ 18.460341040621461, 49.844684016070829 ], [ 18.460298664107981, 49.844254369594942 ], [ 18.46021686666549, 49.843702936071864 ], [ 18.460130365919415, 49.84326869202188 ], [ 18.460088198191503, 49.843100350310337 ], [ 18.459861641393115, 49.841797009066767 ], [ 18.45983193683017, 49.840485598444388 ], [ 18.459999349763223, 49.839178523026661 ], [ 18.460362281150271, 49.837888145427605 ], [ 18.460917283357261, 49.836626669384891 ], [ 18.46165909332456, 49.835406024392114 ], [ 18.46258068285454, 49.834237752956618 ], [ 18.463673325525622, 49.833132901547948 ], [ 18.464926679583517, 49.83210191626199 ], [ 18.466328886012391, 49.831154544182922 ], [ 18.467866680848815, 49.830299741369018 ], [ 18.469525520671187, 49.829545588326184 ], [ 18.471289720076065, 49.828899213761325 ], [ 18.473142599845019, 49.828366727330426 ], [ 18.474043565620558, 49.828141047119509 ], [ 18.475869093712333, 49.827745419832226 ], [ 18.477743233845672, 49.827460395736445 ], [ 18.479650013354828, 49.827288403894713 ], [ 18.481573182096206, 49.827230910038367 ], [ 18.483496350607403, 49.82728840410644 ], [ 18.485403129438723, 49.827460396081975 ], [ 18.487277268484309, 49.827745420159161 ], [ 18.489102795139818, 49.828141047206785 ], [ 18.489338703511116, 49.828200140057291 ], [ 18.49072780579986, 49.828475574270307 ], [ 18.491024967388793, 49.828512146563305 ], [ 18.491411538799486, 49.828540576245345 ], [ 18.491622278374773, 49.828550929221471 ], [ 18.492016195600836, 49.828560591091545 ], [ 18.492410112817915, 49.828550929221031 ], [ 18.492620852392829, 49.828540576244869 ], [ 18.493007423812664, 49.828512146561756 ], [ 18.493304585368577, 49.828475574271913 ], [ 18.494693687669017, 49.828200140058506 ], [ 18.494929605703, 49.828141044790172 ], [ 18.496755131544926, 49.827745417990904 ], [ 18.498629269368969, 49.827460394246657 ], [ 18.500536046528815, 49.827288402617143 ], [ 18.502459212900582, 49.827230908831865 ], [ 18.504382379041779, 49.827288402829289 ], [ 18.506289155522634, 49.827460394592883 ], [ 18.508163292257063, 49.827745418318457 ], [ 18.509988816660282, 49.828141044877775 ], [ 18.510224735158907, 49.828200140265047 ], [ 18.511613836166976, 49.828475574224122 ], [ 18.511910998186956, 49.828512146570169 ], [ 18.512297569129792, 49.828540576217819 ], [ 18.512508309651654, 49.828550929240393 ], [ 18.512902226401572, 49.828560591098849 ], [ 18.513296143142515, 49.828550929239995 ], [ 18.513506883664387, 49.828540576217279 ], [ 18.513893454616046, 49.828512146568571 ], [ 18.514190616601685, 49.828475574225891 ], [ 18.515382415229766, 49.828239263000967 ], [ 18.516334830769097, 49.827951213894792 ], [ 18.517251489803861, 49.827572574485444 ], [ 18.518123312790678, 49.827107764504127 ], [ 18.518126813241008, 49.827105666413409 ], [ 18.518897000550837, 49.826592247405713 ], [ 18.518998297941938, 49.826517120092511 ], [ 18.519626719014148, 49.826002493939598 ], [ 18.51979759284853, 49.825847622838715 ], [ 18.52030501736661, 49.825341199306763 ], [ 18.520518114814585, 49.825106082395997 ], [ 18.520923814538254, 49.824612638834573 ], [ 18.521154696588528, 49.824301330308487 ], [ 18.521475196529739, 49.823822486098521 ], [ 18.521703130625525, 49.823442200916865 ], [ 18.521951889174595, 49.8229775539792 ], [ 18.52215995952249, 49.822537626084355 ], [ 18.522347504295116, 49.822085544998281 ], [ 18.522522416501332, 49.821596698041709 ], [ 18.522656650469894, 49.821154838237888 ], [ 18.522788443652228, 49.820628690295017 ], [ 18.522874970083972, 49.820194313575577 ], [ 18.52295674357255, 49.819643041454228 ], [ 18.522999138045876, 49.819213205630533 ], [ 18.523026840439126, 49.818649310449295 ], [ 18.523026840101302, 49.818220979449578 ], [ 18.522999139003584, 49.817657110666303 ], [ 18.522956738680058, 49.817227222289134 ], [ 18.522874976756565, 49.81667602821566 ], [ 18.52278842920699, 49.816241548689632 ], [ 18.522747042553437, 49.816076325186216 ], [ 18.522520406128848, 49.814772718595336 ], [ 18.522490592408378, 49.813461030500378 ], [ 18.522657867811255, 49.812153673165788 ], [ 18.523020633962652, 49.810863016911675 ], [ 18.523575443403804, 49.80960127308645 ], [ 18.524317032769964, 49.808380378579869 ], [ 18.525238373100979, 49.807211882965284 ], [ 18.526330736789422, 49.806106839336678 ], [ 18.527583780516483, 49.805075699867515 ], [ 18.528985643377659, 49.804128217075124 ], [ 18.53052305926008, 49.803273351717543 ], [ 18.532181482403171, 49.802519188188306 ], [ 18.533945224953094, 49.801872858201882 ], [ 18.535797605212995, 49.801340473485467 ], [ 18.536070736209023, 49.801272058681484 ], [ 18.537220804462098, 49.800924230970011 ], [ 18.538137475357935, 49.800545584974508 ], [ 18.539009166966004, 49.800080843286629 ], [ 18.539012955516412, 49.800078572515254 ], [ 18.539782953120415, 49.799565278342911 ], [ 18.539884362731915, 49.799490067801429 ], [ 18.540512735434756, 49.798975479889982 ], [ 18.54068360996256, 49.798820608160725 ], [ 18.541191070918224, 49.798314147122156 ], [ 18.541404106048326, 49.798079098968763 ], [ 18.541809886397747, 49.797585556390743 ], [ 18.542040676777759, 49.79727437146785 ], [ 18.542361274255544, 49.796795380726685 ], [ 18.542589109368215, 49.796415260688576 ], [ 18.54283796492718, 49.795950431855211 ], [ 18.543045942788289, 49.795510699507346 ], [ 18.543233573329761, 49.795058411061547 ], [ 18.543408407877823, 49.794569781145171 ], [ 18.543542710028202, 49.794127696353073 ], [ 18.543674445219377, 49.793601779924003 ], [ 18.543761018643668, 49.793167166780549 ], [ 18.543842756474053, 49.792616135047162 ], [ 18.543885174849031, 49.792186056395913 ], [ 18.54391286522624, 49.791622405806841 ], [ 18.543912864888554, 49.791193829926456 ], [ 18.54388517580637, 49.790630205724973 ], [ 18.54384275158354, 49.790200074540977 ], [ 18.543761025313518, 49.789649120823555 ], [ 18.543674430780385, 49.789214404917026 ], [ 18.54354272715149, 49.788688614625165 ], [ 18.54340837937421, 49.788246381576442 ], [ 18.543233604942138, 49.787757919851693 ], [ 18.543045896600898, 49.787305445084478 ], [ 18.542838013848709, 49.786865914041698 ], [ 18.542589043390397, 49.786400871296713 ], [ 18.542361341331098, 49.786020973480397 ], [ 18.542040591325055, 49.785541755130104 ], [ 18.541809969385323, 49.785230797561162 ], [ 18.541404005159261, 49.784737031213844 ], [ 18.541191162963155, 49.784502196148068 ], [ 18.54068350310812, 49.783995536077377 ], [ 18.540512823202913, 49.783840840913683 ], [ 18.539884266742927, 49.783326101583938 ], [ 18.539783015064177, 49.783251008269019 ], [ 18.539012896000727, 49.782737631784329 ], [ 18.539009172909154, 49.782735400250736 ], [ 18.53807818668286, 49.782239044528318 ], [ 18.537666805513467, 49.782044473945902 ], [ 18.537678704086364, 49.782033926346919 ], [ 18.537058250186739, 49.781749239061718 ], [ 18.53552750790319, 49.780890766389795 ], [ 18.534132813517385, 49.779940071380189 ], [ 18.532887352189356, 49.778906147173736 ], [ 18.531802895168944, 49.777798773653124 ], [ 18.530889688648429, 49.776628424798481 ], [ 18.530156357142126, 49.775406169492776 ], [ 18.529609822296404, 49.774143566721428 ], [ 18.52925523788517, 49.772852556162157 ], [ 18.529095941588164, 49.771545345204764 ], [ 18.529133423989673, 49.770234293472498 ], [ 18.529367315069322, 49.768931795939118 ], [ 18.529795388290786, 49.767650165748172 ], [ 18.530413582227585, 49.766401517842212 ], [ 18.531216039499665, 49.765197654499708 ], [ 18.532195162632476, 49.764049953860379 ], [ 18.533341686292111, 49.762969262487566 ], [ 18.534644765198586, 49.761965792978835 ], [ 18.536092076873899, 49.761049027586864 ], [ 18.537669938245838, 49.760227628755153 ], [ 18.538097219306962, 49.760026526712629 ], [ 18.53900890272558, 49.759540461048921 ], [ 18.539013122249791, 49.759537931961624 ], [ 18.539782836145445, 49.759024824479688 ], [ 18.539884413456939, 49.758949489563413 ], [ 18.540512714068761, 49.758434958637046 ], [ 18.540683589274185, 49.758280086293873 ], [ 18.541191105175315, 49.757773568707606 ], [ 18.541404046582123, 49.757538623962191 ], [ 18.541809948085994, 49.757044932596621 ], [ 18.542040600761279, 49.756733933347384 ], [ 18.542361344729883, 49.756254722531104 ], [ 18.542589031191383, 49.755874850502778 ], [ 18.542614580152389, 49.75582712879099 ], [ 18.543341784891822, 49.754650524853631 ], [ 18.544236229997903, 49.753523339321831 ], [ 18.545290007061865, 49.752455524384345 ], [ 18.546493802671453, 49.75145650741328 ], [ 18.547836980881485, 49.750535107840065 ], [ 18.549307677277589, 49.74969945941109 ], [ 18.550892903797987, 49.748956938504293 ], [ 18.552578663386527, 49.748314099134426 ], [ 18.554350073466431, 49.747776615215045 ], [ 18.556191497149854, 49.747349230582735 ], [ 18.557154297541366, 49.747158320960146 ], [ 18.558503878357254, 49.746750143359414 ], [ 18.560442774156119, 49.746238966869981 ], [ 18.562451071471056, 49.745856546581848 ], [ 18.564508469063426, 49.745606748018673 ], [ 18.566594170589404, 49.745492096092399 ], [ 18.568687094324513, 49.745513749643266 ], [ 18.570766085737098, 49.74567148975602 ], [ 18.572810130788337, 49.745963721969119 ], [ 18.574798567828889, 49.746387492354948 ], [ 18.57671129597621, 49.746938517309893 ], [ 18.578528977889938, 49.747611226756952 ], [ 18.580233234917092, 49.748398820329434 ], [ 18.581806832651665, 49.749293335972759 ], [ 18.583233855045926, 49.750285730279771 ], [ 18.584499865321817, 49.751365969753635 ], [ 18.585592052057841, 49.752523132085066 ], [ 18.586499358972578, 49.753745516427855 ], [ 18.587212597083873, 49.755020761565625 ], [ 18.587396574849471, 49.755409749539567 ], [ 18.587645574999371, 49.75587484948958 ], [ 18.587873262679501, 49.756254723552345 ], [ 18.588194005296035, 49.756733932346386 ], [ 18.588424659466, 49.757044933612043 ], [ 18.588830559326599, 49.757538622976867 ], [ 18.589043502538239, 49.757773569714359 ], [ 18.589551016465876, 49.758280085329048 ], [ 18.589721893830212, 49.758434959629525 ], [ 18.590350192089815, 49.758949488627749 ], [ 18.590451771967178, 49.75902482544722 ], [ 18.591221483075348, 49.759537931069509 ], [ 18.591225705629082, 49.759540461972605 ], [ 18.592097199126695, 49.760005100661296 ], [ 18.593013887707311, 49.760383756489006 ], [ 18.593966310320958, 49.760671811451324 ], [ 18.595157101809079, 49.760907926407427 ], [ 18.595455109593939, 49.76094460322016 ], [ 18.595840642291748, 49.76097295691838 ], [ 18.596053521479551, 49.760983415006905 ], [ 18.596446349607294, 49.760993050200788 ], [ 18.596839177726679, 49.760983415006571 ], [ 18.597052056913455, 49.760972956917982 ], [ 18.597437589620441, 49.760944603218739 ], [ 18.597735597374768, 49.760907926408926 ], [ 18.599122194443439, 49.760632984954491 ], [ 18.599379300925303, 49.760568582151578 ], [ 18.601200235606782, 49.760173937955344 ], [ 18.603069531186598, 49.759889628365173 ], [ 18.604971296933009, 49.75971807017477 ], [ 18.606889366777214, 49.759660721691766 ], [ 18.608807436407542, 49.759718070372301 ], [ 18.610709201524113, 49.759889628687944 ], [ 18.612578496093075, 49.760173938261602 ], [ 18.614399429439565, 49.760568582236068 ], [ 18.614656536339286, 49.760632985146259 ], [ 18.616043132206592, 49.760907926364126 ], [ 18.616341140392016, 49.760944603226186 ], [ 18.616726672655304, 49.760972956892452 ], [ 18.61693955272284, 49.760983415024171 ], [ 18.617332380407888, 49.760993050207205 ], [ 18.617725208084394, 49.760983415023766 ], [ 18.617938088151856, 49.760972956891898 ], [ 18.618323620423432, 49.760944603224672 ], [ 18.618621628578012, 49.760907926365604 ], [ 18.619812419622026, 49.760671811496181 ], [ 18.620764842235435, 49.760383756535447 ], [ 18.621681530823963, 49.760005100706067 ], [ 18.622553023939307, 49.759540462222731 ], [ 18.622557247272287, 49.759537930852552 ], [ 18.623326957716365, 49.759024825671453 ], [ 18.623428538153465, 49.758949488437096 ], [ 18.624056835950139, 49.758434959816164 ], [ 18.624227713690654, 49.758280085175294 ], [ 18.624735227320141, 49.757773569856163 ], [ 18.624948170763105, 49.757538622864203 ], [ 18.625354070450928, 49.757044933707455 ], [ 18.625584724744254, 49.756733932276575 ], [ 18.625905467279374, 49.756254723602041 ], [ 18.626133155008276, 49.755874849459168 ], [ 18.626382155136096, 49.755409749548299 ], [ 18.626589995081432, 49.754970308799052 ], [ 18.626777753582509, 49.754517710984572 ], [ 18.6269524722276, 49.754029404995471 ], [ 18.627086876167052, 49.753586984312037 ], [ 18.62721852476265, 49.753061413591873 ], [ 18.627305168370686, 49.752626447342998 ], [ 18.627386852938177, 49.752075774679021 ], [ 18.627429307018218, 49.751645333279953 ], [ 18.627456979444464, 49.751082048091263 ], [ 18.627456979107009, 49.750653106371026 ], [ 18.627429307975024, 49.750089847554491 ], [ 18.627386848050708, 49.749659353653925 ], [ 18.627305175036525, 49.749108758957945 ], [ 18.627218510333194, 49.748673690011323 ], [ 18.627086893278527, 49.748148245342961 ], [ 18.6269524437452, 49.747705676509511 ], [ 18.62675602409006, 49.747156719740616 ], [ 18.626412371619118, 49.745948442775408 ], [ 18.626239858020941, 49.744724912811002 ], [ 18.626239902506438, 49.74349628588309 ], [ 18.626412491838263, 49.742272759593234 ], [ 18.626756180866995, 49.741064488467778 ], [ 18.626952452507386, 49.740515946571925 ], [ 18.627086890552501, 49.740073413345058 ], [ 18.62721851013761, 49.739547958441449 ], [ 18.627305177255455, 49.739112873911949 ], [ 18.627386843982702, 49.738562321517122 ], [ 18.627429310021402, 49.738131758623993 ], [ 18.627456976435539, 49.737568595814331 ], [ 18.62745697609817, 49.737139531569575 ], [ 18.627429310978044, 49.736576395127003 ], [ 18.627386839096175, 49.736145779742429 ], [ 18.627305183919873, 49.735595305299761 ], [ 18.62721849571129, 49.735160118094598 ], [ 18.627179460198704, 49.735004280823645 ], [ 18.626952584361263, 49.733699874209734 ], [ 18.62692244354519, 49.732387349675825 ], [ 18.627089307642098, 49.731079142555046 ], [ 18.627451580271554, 49.72978764631133 ], [ 18.628005814490418, 49.728525095150374 ], [ 18.628746746005259, 49.72730344817505 ], [ 18.62966734355205, 49.726134276179998 ], [ 18.63075887594692, 49.725028652154222 ], [ 18.632010995156108, 49.723997046524516 ], [ 18.633411834585221, 49.723049228126527 ], [ 18.634948121646865, 49.722194171834857 ], [ 18.636605303535255, 49.721439973720713 ], [ 18.638367685014813, 49.720793774534037 ], [ 18.640218576920891, 49.720261692227403 ], [ 18.640502543717648, 49.720190563246682 ], [ 18.641650788042124, 49.719843281789665 ], [ 18.642567494183591, 49.719464616189413 ], [ 18.643438789997802, 49.719000080280999 ], [ 18.643443445460857, 49.718997289901814 ], [ 18.644212870886236, 49.718484372289744 ], [ 18.644314620374026, 49.718408909678907 ], [ 18.644951048310542, 49.717899699382748 ], [ 18.645121930186075, 49.717744823261356 ], [ 18.645629504551515, 49.717238253295399 ], [ 18.645842358513157, 49.717003408753484 ], [ 18.646248384913246, 49.716509572283265 ], [ 18.646478906380988, 49.71619875545381 ], [ 18.646799800762832, 49.71571932778199 ], [ 18.647027345232576, 49.715339700427485 ], [ 18.647276496215934, 49.714874328078579 ], [ 18.647484203059694, 49.714435179574288 ], [ 18.647672095366573, 49.71398227076839 ], [ 18.647846703449805, 49.713494289082639 ], [ 18.647981214637234, 49.713051530651661 ], [ 18.648112782349223, 49.712526305734315 ], [ 18.648199501259498, 49.712090984312034 ], [ 18.648281138496333, 49.711540670528649 ], [ 18.648323633101128, 49.711109864117255 ], [ 18.648351293584184, 49.71054694386924 ], [ 18.648351297805036, 49.710117633854907 ], [ 18.648323650568496, 49.709554739716744 ], [ 18.64828115927137, 49.709123880454996 ], [ 18.64819954526557, 49.708573643862835 ], [ 18.648112814518385, 49.708138219033493 ], [ 18.647981289477489, 49.707613118907496 ], [ 18.64784674213228, 49.707170211231038 ], [ 18.647651273723806, 49.70662389601457 ], [ 18.647307361633796, 49.705414647145574 ], [ 18.647134723060805, 49.704190108695762 ], [ 18.647134780568656, 49.702960461559435 ], [ 18.647307520802251, 49.701735928360499 ], [ 18.647651495025947, 49.700526688466404 ], [ 18.647846827234076, 49.699980789198499 ], [ 18.647981372480821, 49.699537918380621 ], [ 18.648112911218711, 49.699012809129705 ], [ 18.648199653611961, 49.698577369567808 ], [ 18.648281273027713, 49.698027175916302 ], [ 18.648323779579592, 49.69759624814165 ], [ 18.648351434055783, 49.697033450142008 ], [ 18.648351438278116, 49.696604017730543 ], [ 18.648323797045869, 49.696041245835431 ], [ 18.648281293805592, 49.695610265220409 ], [ 18.648199697616224, 49.695060148743899 ], [ 18.648112943393272, 49.694624605796029 ], [ 18.647981447317118, 49.694099621307366 ], [ 18.647846865926351, 49.693656601279088 ], [ 18.647651713028502, 49.693111167891971 ], [ 18.64730771043763, 49.691901596629265 ], [ 18.647135026034334, 49.69067672334188 ], [ 18.647135083535353, 49.689446737205778 ], [ 18.647307869582097, 49.68822186918328 ], [ 18.647651934279565, 49.687012306922021 ], [ 18.647846951031653, 49.686467289257635 ], [ 18.647981530320781, 49.68602430610845 ], [ 18.648113040097758, 49.685499312471272 ], [ 18.648199805964026, 49.685063754819645 ], [ 18.64828140756585, 49.684513681251865 ], [ 18.648323926060225, 49.68408263216044 ], [ 18.648351574531812, 49.683519956363284 ], [ 18.648351578755612, 49.683090401600019 ], [ 18.648323943525426, 49.682527751902306 ], [ 18.648281428346586, 49.68209664998043 ], [ 18.648199849966502, 49.681546653571488 ], [ 18.648113072277802, 49.681110992555155 ], [ 18.647981605153245, 49.680586123651317 ], [ 18.647846989733637, 49.680142991326122 ], [ 18.647652152211776, 49.679598439392095 ], [ 18.647308059160991, 49.678388545877198 ], [ 18.647135328947758, 49.677163337890569 ], [ 18.647135386441931, 49.67593301289191 ], [ 18.647308218281466, 49.674707810184273 ], [ 18.647652373411795, 49.673497925697411 ], [ 18.647847074842439, 49.672953789260397 ], [ 18.64798168815723, 49.672510693834752 ], [ 18.648113168986427, 49.671985815759051 ], [ 18.648199958315743, 49.671550140067453 ], [ 18.648281542110777, 49.671000186535238 ], [ 18.648324072543002, 49.670569016173935 ], [ 18.64835171501225, 49.670006462533266 ], [ 18.648351719237517, 49.669576785463519 ], [ 18.648324090007101, 49.669014257917162 ], [ 18.648281562894358, 49.668583034735249 ], [ 18.648200002316432, 49.668033158345665 ], [ 18.648113201171931, 49.667597379310699 ], [ 18.647981762985832, 49.66707262593922 ], [ 18.647847113554157, 49.666629381372147 ], [ 18.64767269208707, 49.666141890913671 ], [ 18.6474846034168, 49.665688484181359 ], [ 18.647277139118433, 49.665249827146312 ], [ 18.647027738400539, 49.66478396728477 ], [ 18.646800482517321, 49.664404806166878 ], [ 18.646479300722945, 49.663924930057419 ], [ 18.64624909030929, 49.663614521919207 ], [ 18.64584277134265, 49.663120311657615 ], [ 18.645630206767876, 49.66288577922063 ], [ 18.645122391844062, 49.662378951657658 ], [ 18.644951704478839, 49.662224247492894 ], [ 18.644323374775073, 49.661709680471745 ], [ 18.644221613236326, 49.661634207975624 ], [ 18.643452355583154, 49.661121391412806 ], [ 18.643447332790334, 49.661118380827411 ], [ 18.642576190628862, 49.660653917167586 ], [ 18.641659456351128, 49.6602752310597 ], [ 18.640707022221019, 49.659987162360537 ], [ 18.639720693850279, 49.659791579347605 ], [ 18.637883276778549, 49.659364998036551 ], [ 18.636115656630096, 49.658828360340451 ], [ 18.634433437190886, 49.658186404125608 ], [ 18.632851466634584, 49.657444796905615 ], [ 18.63138370628311, 49.656610085703257 ], [ 18.630043107276286, 49.655689639140277 ], [ 18.628841496244576, 49.654691582272591 ], [ 18.627789470995289, 49.653624724749903 ], [ 18.626896307132313, 49.652498482940288 ], [ 18.626169876428364, 49.651322796711028 ], [ 18.626141759105671, 49.651270275371083 ], [ 18.625914552671382, 49.650891196754742 ], [ 18.625593322179359, 49.650411247481777 ], [ 18.625363157496917, 49.650100901005381 ], [ 18.624956798348862, 49.649606641392843 ], [ 18.62474426478293, 49.649372143168577 ], [ 18.624236431790216, 49.648865297000924 ], [ 18.62406574396438, 49.648710592418048 ], [ 18.623437438479726, 49.648196044547333 ], [ 18.623335620962919, 49.648120530534122 ], [ 18.622566457780493, 49.647607776139388 ], [ 18.622561291729216, 49.647604679687078 ], [ 18.62169021503848, 49.647140250060538 ], [ 18.620773475006619, 49.64676156073596 ], [ 18.619626741133384, 49.646414722799555 ], [ 18.619325918650294, 49.646339368064105 ], [ 18.617476769920152, 49.64580761540477 ], [ 18.61571607570621, 49.645161579578179 ], [ 18.614060537422716, 49.644407389950516 ], [ 18.612525856748302, 49.643552201726635 ], [ 18.611126586553745, 49.642604127934234 ], [ 18.609875992833278, 49.641572162317502 ], [ 18.608785928951924, 49.640466093878537 ], [ 18.607866723400399, 49.63929641388345 ], [ 18.607127082116072, 49.638074216222115 ], [ 18.606574006287428, 49.636811092072946 ], [ 18.606212726407467, 49.635519019876298 ], [ 18.606046653185441, 49.63421025166614 ], [ 18.606077345762916, 49.632897196839714 ], [ 18.606304497514849, 49.631592304470942 ], [ 18.60634136196051, 49.631445138611539 ], [ 18.606428221784544, 49.631009108259377 ], [ 18.606509752076796, 49.630459515373325 ], [ 18.60655231837514, 49.63002798065029 ], [ 18.606579942808278, 49.629465794025975 ], [ 18.606579947036348, 49.629035749482128 ], [ 18.606552335830155, 49.628473588936636 ], [ 18.606509772859933, 49.628042001423218 ], [ 18.606428265766777, 49.627492485631393 ], [ 18.606341394146018, 49.627056351999599 ], [ 18.606210042905385, 49.626531945750777 ], [ 18.606075291278156, 49.626088363936589 ], [ 18.605900986160989, 49.625601198663929 ], [ 18.605712769046086, 49.625147481378768 ], [ 18.605505443168752, 49.624709117015847 ], [ 18.605255897358759, 49.624242985086497 ], [ 18.605028789386413, 49.623864070745533 ], [ 18.604707462000874, 49.623383975894193 ], [ 18.604477388214654, 49.623073751977387 ], [ 18.604070949343477, 49.62257939444055 ], [ 18.603858477082252, 49.622344963855056 ], [ 18.603350608745014, 49.6218380812698 ], [ 18.603179919133019, 49.621683375066716 ], [ 18.602551663024119, 49.621168866265229 ], [ 18.602449732560139, 49.621093268482838 ], [ 18.60168075935481, 49.620580639116163 ], [ 18.601675305741828, 49.620577370303707 ], [ 18.600746732719283, 49.6200822831103 ], [ 18.600334001049927, 49.619887070976723 ], [ 18.600346618008711, 49.619875811394465 ], [ 18.599746412839995, 49.619600352155992 ], [ 18.598217968533145, 49.618742753042412 ], [ 18.596825078197071, 49.617792699911909 ], [ 18.595580924628237, 49.616759189836031 ], [ 18.594497279852924, 49.615652009660486 ], [ 18.593584393847141, 49.61448164319178 ], [ 18.592850897770404, 49.613259171799015 ], [ 18.59230372262012, 49.6119961693785 ], [ 18.591948034063059, 49.610704592680726 ], [ 18.591787184044605, 49.60939666804245 ], [ 18.591822679614598, 49.608084775600176 ], [ 18.592054169244111, 49.606781332083052 ], [ 18.592479446740718, 49.605498673295507 ], [ 18.59309447270287, 49.604248937402382 ], [ 18.593893413288772, 49.603043950118966 ], [ 18.594868695912602, 49.601895112890162 ], [ 18.596011081322729, 49.600813295112893 ], [ 18.597309751364531, 49.599808731416481 ], [ 18.598752411585338, 49.598890924968089 ], [ 18.600325407702307, 49.598068557710768 ], [ 18.600740404745427, 49.597872408524978 ], [ 18.601665895031857, 49.597378970752956 ], [ 18.601671842426491, 49.597375406019268 ], [ 18.602440415283798, 49.596863049487673 ], [ 18.60254267065725, 49.596787211686774 ], [ 18.603170675131956, 49.596272915093486 ], [ 18.603341560718032, 49.59611803334294 ], [ 18.603849289086163, 49.595611296876413 ], [ 18.604061862302633, 49.595376758368033 ], [ 18.604468242402429, 49.594882479176071 ], [ 18.604698349547999, 49.594572215490331 ], [ 18.605019674900365, 49.594092131208782 ], [ 18.605246770660603, 49.593713244707892 ], [ 18.60549635133772, 49.593247056229501 ], [ 18.605703637499982, 49.592808786358091 ], [ 18.605891909782954, 49.592354946372019 ], [ 18.60606616305936, 49.591867941003088 ], [ 18.606200975700101, 49.591424171655447 ], [ 18.606332276593466, 49.590899989042313 ], [ 18.606419202011299, 49.590463604962558 ], [ 18.606500672707909, 49.589914374101028 ], [ 18.606543270159364, 49.589482476108905 ], [ 18.606570870504125, 49.588920658177017 ], [ 18.606570870167644, 49.588490247429789 ], [ 18.606543271114525, 49.587928455808566 ], [ 18.60650066783295, 49.587496505438423 ], [ 18.606419208661723, 49.586947352353533 ], [ 18.6063322622031, 49.586510865838449 ], [ 18.606200992765409, 49.585986808933939 ], [ 18.606066134663365, 49.585542891863966 ], [ 18.605873501647423, 49.585004518163259 ], [ 18.605528763050547, 49.583792372174933 ], [ 18.605355699401269, 49.582564823701304 ], [ 18.605355743759109, 49.581332128260037 ], [ 18.60552888284569, 49.580104583617782 ], [ 18.605873657586134, 49.57889244376338 ], [ 18.606066143464286, 49.578354482248855 ], [ 18.606200990007167, 49.577910601025948 ], [ 18.606332262049282, 49.577386533593554 ], [ 18.606419210856163, 49.576950031837619 ], [ 18.606500663799071, 49.576400920661925 ], [ 18.606543273153317, 49.575968901740275 ], [ 18.606570867513327, 49.575407205630782 ], [ 18.606570867176902, 49.574976672910296 ], [ 18.606543274108276, 49.574415003106331 ], [ 18.606500658925082, 49.573982931817248 ], [ 18.606419217505181, 49.573433898401966 ], [ 18.60633224766206, 49.572997294232643 ], [ 18.606201007068506, 49.572473352480266 ], [ 18.606066115075343, 49.57202932357071 ], [ 18.605891960253235, 49.571542593538446 ], [ 18.605703567941077, 49.571088465117619 ], [ 18.605496422287366, 49.570650492537119 ], [ 18.605246679286509, 49.570184001206393 ], [ 18.605019764725867, 49.569805417250507 ], [ 18.604698239740035, 49.569325034569346 ], [ 18.604468344870781, 49.569015057339691 ], [ 18.604061742961573, 49.568520507758109 ], [ 18.603849391093853, 49.568286213684694 ], [ 18.603341448726546, 49.567779262543681 ], [ 18.603170754030447, 49.567624553973104 ], [ 18.602542593566032, 49.567110128022563 ], [ 18.602440436509493, 49.567034363233383 ], [ 18.601671840261893, 49.566521988970123 ], [ 18.601665811885763, 49.566518375703097 ], [ 18.600795127545116, 49.566054156537461 ], [ 18.599878352167092, 49.565675453332965 ], [ 18.598925908920712, 49.565387381888726 ], [ 18.597921256787181, 49.565188166187966 ], [ 18.596087115881467, 49.564762252307347 ], [ 18.594322535455557, 49.564226267853634 ], [ 18.592643090309274, 49.563584944277842 ], [ 18.591063602084791, 49.562843942732222 ], [ 18.589598008279975, 49.562009803995039 ], [ 18.58825923914544, 49.561089890623848 ], [ 18.587059103557088, 49.560092321852821 ], [ 18.586008184873041, 49.559025901813996 ], [ 18.58511574769263, 49.557900041721027 ], [ 18.584389656335926, 49.556724676707169 ], [ 18.584360622628342, 49.556670444539236 ], [ 18.584133757162654, 49.556291942493296 ], [ 18.583812183896164, 49.555811487273147 ], [ 18.583582334282006, 49.555501571062862 ], [ 18.58317569273532, 49.555006972793812 ], [ 18.582963371274488, 49.554772712269106 ], [ 18.582455411500099, 49.554265743186512 ], [ 18.582284715646775, 49.554111033567033 ], [ 18.581656580121088, 49.553596627359966 ], [ 18.581554366398656, 49.55352082054447 ], [ 18.580785865243328, 49.553008508869084 ], [ 18.580779693149012, 49.553004809460703 ], [ 18.579909074613418, 49.552540624513085 ], [ 18.578992293581223, 49.55216191813976 ], [ 18.578039849072905, 49.551873845580673 ], [ 18.577032583637063, 49.551674111095792 ], [ 18.575198909717717, 49.5512482910529 ], [ 18.573434762799845, 49.550712398457826 ], [ 18.571755713545453, 49.550071163857162 ], [ 18.57017657980693, 49.549330247505672 ], [ 18.568711295676522, 49.548496189300039 ], [ 18.567372788415909, 49.547576350940851 ], [ 18.56617286435748, 49.54657885083919 ], [ 18.565122104785512, 49.545512492346099 ], [ 18.56422977271539, 49.544386685945106 ], [ 18.563503731388536, 49.54321136609812 ], [ 18.563474565996575, 49.543156887916119 ], [ 18.563247749570625, 49.542778467687938 ], [ 18.562926128087383, 49.542297940024255 ], [ 18.56269632365494, 49.541988084734299 ], [ 18.562289642553942, 49.541493437878948 ], [ 18.562077351407034, 49.541259210800384 ], [ 18.561569374327874, 49.540752223878449 ], [ 18.561398677209407, 49.540597513112239 ], [ 18.560770566733151, 49.540083126739503 ], [ 18.560668296237029, 49.540007277817793 ], [ 18.559899890272959, 49.539495028796757 ], [ 18.559893574383079, 49.539491243200743 ], [ 18.559023021705599, 49.539027092499978 ], [ 18.558106235032376, 49.538648382963885 ], [ 18.557153789271776, 49.538360309293452 ], [ 18.555966216347635, 49.538124819191786 ], [ 18.555665523432555, 49.53808781010332 ], [ 18.555283306305707, 49.538059699271592 ], [ 18.555063593231147, 49.538048905465054 ], [ 18.554674245933366, 49.538039355166681 ], [ 18.554284898629462, 49.538048905464606 ], [ 18.5540651855551, 49.538059699270967 ], [ 18.553682968433979, 49.538087810101842 ], [ 18.553382275497004, 49.538124819192277 ], [ 18.552194702560843, 49.538360309294809 ], [ 18.551781313419376, 49.538485343007892 ], [ 18.549890464351119, 49.538985112452224 ], [ 18.547933218750583, 49.539361399408108 ], [ 18.545928569778393, 49.539610552149078 ], [ 18.543895971733544, 49.539730152682509 ], [ 18.541855150823231, 49.539719040271798 ], [ 18.539825913261847, 49.539577322729301 ], [ 18.537827952583616, 49.539306375368824 ], [ 18.535880658061657, 49.538908827627772 ], [ 18.534002926114937, 49.538388537491144 ], [ 18.532212976554046, 49.537750553966966 ], [ 18.530528175467701, 49.537001067983013 ], [ 18.528964866484145, 49.536147352184955 ], [ 18.527538212056896, 49.535197690227882 ], [ 18.526262046322628, 49.534161296252151 ], [ 18.525148740962422, 49.533048225333786 ], [ 18.524209085366373, 49.531869275784281 ], [ 18.523452182258708, 49.530635884255283 ], [ 18.522885359785469, 49.529360014672655 ], [ 18.52251410090356, 49.528054042082218 ], [ 18.522341990738298, 49.526730632540506 ], [ 18.522370682399472, 49.52540262021779 ], [ 18.522599881565139, 49.524082882908878 ], [ 18.522788333466387, 49.523331442281496 ], [ 18.522875123045836, 49.522895738838834 ], [ 18.522956504834927, 49.522347107343322 ], [ 18.52299916189321, 49.521914603760379 ], [ 18.523026732267564, 49.521353395889825 ], [ 18.523026731931385, 49.52092237432646 ], [ 18.522999162847405, 49.5203611927409 ], [ 18.522956499964778, 49.51992863683197 ], [ 18.522875129689247, 49.519380083032836 ], [ 18.522788066123884, 49.518943007320239 ], [ 18.522656941135661, 49.518419527089954 ], [ 18.52252191330615, 49.51797504992561 ], [ 18.522347913088609, 49.517488751983905 ], [ 18.522159350183056, 49.517034211106605 ], [ 18.521952388283943, 49.516596627042119 ], [ 18.521702452811461, 49.516129774800454 ], [ 18.521475734300019, 49.515751517932493 ], [ 18.521154016575188, 49.515270845668255 ], [ 18.52092430228571, 49.514961111921821 ], [ 18.52051754232637, 49.514466368198235 ], [ 18.520305311528968, 49.514232207704922 ], [ 18.519797300144571, 49.513725185408234 ], [ 18.519626600173275, 49.513570472056209 ], [ 18.518998540128663, 49.513056125625667 ], [ 18.518896155761393, 49.512980192251284 ], [ 18.518127940477086, 49.512468068739047 ], [ 18.518121336763784, 49.512464110628372 ], [ 18.517250915961043, 49.512000028507877 ], [ 18.516334118047389, 49.511621312665099 ], [ 18.515381669805478, 49.511333236780871 ], [ 18.514194491581826, 49.511097823606434 ], [ 18.513893466388588, 49.511060773472927 ], [ 18.513511655900238, 49.511032692391943 ], [ 18.513291105496879, 49.511021857450118 ], [ 18.51290218431409, 49.511012317588055 ], [ 18.512513263125417, 49.511021857449649 ], [ 18.512292712721933, 49.511032692391368 ], [ 18.511910902239372, 49.511060773471506 ], [ 18.51160987702584, 49.51109782360674 ], [ 18.510232215693062, 49.511371007562602 ], [ 18.509960109874292, 49.511439165474897 ], [ 18.509953087754052, 49.511427279284213 ], [ 18.509248781755911, 49.511612821537639 ], [ 18.507245298632082, 49.511993095834505 ], [ 18.505193195879897, 49.512240140223767 ], [ 18.503113319177082, 49.512351445112621 ], [ 18.501026797035497, 49.512325879783241 ], [ 18.498954825650035, 49.512163703907703 ], [ 18.496918453051343, 49.511866564905077 ], [ 18.494938364781348, 49.511437481168073 ], [ 18.494641986043057, 49.511362255903911 ], [ 18.49330846048208, 49.511097823571177 ], [ 18.49300743557205, 49.511060773472536 ], [ 18.492625624777482, 49.511032692369042 ], [ 18.49240507499379, 49.511021857457699 ], [ 18.492016153499286, 49.511012317587991 ], [ 18.491627231999114, 49.51102185745723 ], [ 18.491406682215242, 49.511032692368495 ], [ 18.491024871426315, 49.511060773471165 ], [ 18.490723846495705, 49.511097823571589 ], [ 18.489536667959047, 49.511333236806621 ], [ 18.488584219715658, 49.511621312691858 ], [ 18.487667421807249, 49.512000028533045 ], [ 18.486797000726806, 49.51246411080195 ], [ 18.486790397577984, 49.512468068574243 ], [ 18.486022181809091, 49.512980192407916 ], [ 18.485919797852091, 49.513056125478087 ], [ 18.485291737465328, 49.513570472186871 ], [ 18.48512103777443, 49.51372518528494 ], [ 18.484613026164347, 49.51423220780481 ], [ 18.484400795543586, 49.514466368103392 ], [ 18.483994035449534, 49.514961111988747 ], [ 18.483764321258089, 49.515270845603276 ], [ 18.4834426034652, 49.51575151796694 ], [ 18.483215884996692, 49.516129774763534 ], [ 18.482965949500567, 49.516596627046972 ], [ 18.482758987609518, 49.517034211094519 ], [ 18.482570424706527, 49.517488751963043 ], [ 18.482396424478253, 49.517975049934698 ], [ 18.482261396663382, 49.518419527048053 ], [ 18.482130271658264, 49.518943007345115 ], [ 18.482043208108603, 49.51938008297553 ], [ 18.481961837819103, 49.519928636867064 ], [ 18.481919174946015, 49.520361192674073 ], [ 18.481891605856429, 49.520922374365817 ], [ 18.481891605519888, 49.521353395819787 ], [ 18.481919175899044, 49.521914603797995 ], [ 18.481961832946801, 49.522347107276325 ], [ 18.482043214749563, 49.522895738868314 ], [ 18.482130257279294, 49.523332712168006 ], [ 18.482261413705004, 49.523856318036685 ], [ 18.482396396111032, 49.524300647599958 ], [ 18.482587618540762, 49.524835078046088 ], [ 18.482932755722171, 49.526048509261635 ], [ 18.48310607833584, 49.527277395311138 ], [ 18.483106122653428, 49.528511448944855 ], [ 18.482932875378857, 49.529740338899707 ], [ 18.482587774191401, 49.530953776389843 ], [ 18.482396404924597, 49.531488618102173 ], [ 18.482261410924746, 49.531932983625744 ], [ 18.482130257135235, 49.532456578836573 ], [ 18.482043216924673, 49.532893537039875 ], [ 18.481961828916472, 49.533442210381281 ], [ 18.481919177923892, 49.533874645482605 ], [ 18.481891602860166, 49.534435948781031 ], [ 18.48189160252355, 49.53486684847028 ], [ 18.48191917887711, 49.535428178060272 ], [ 18.481961824043211, 49.535860560822741 ], [ 18.482043223567061, 49.536409311880583 ], [ 18.482130242753069, 49.536846167730936 ], [ 18.482164383750582, 49.536982467351692 ], [ 18.482391822036377, 49.53828851517941 ], [ 18.482422836285608, 49.539602767895843 ], [ 18.482257116327727, 49.540912743375316 ], [ 18.481896220696363, 49.542205999146312 ], [ 18.481343562411269, 49.543470250595696 ], [ 18.480604377117785, 49.544693487708749 ], [ 18.47968567386522, 49.545864089234577 ], [ 18.478596168972626, 49.546970933188618 ], [ 18.477346203593548, 49.548003502637549 ], [ 18.475947645749255, 49.548951985756844 ], [ 18.474413777751625, 49.549807369203748 ], [ 18.472759170079243, 49.550561523911348 ], [ 18.470999542903822, 49.551207282483226 ], [ 18.46915161658514, 49.55173850744476 ], [ 18.468183685126341, 49.551980798567499 ], [ 18.468176463537418, 49.551968586900259 ], [ 18.467488811073952, 49.552149759802276 ], [ 18.465484218491, 49.552530410535716 ], [ 18.463430911008565, 49.5527778888138 ], [ 18.461349739565563, 49.552889681475797 ], [ 18.459261838757932, 49.552864653226933 ], [ 18.457188411697199, 49.552703058196315 ], [ 18.455150514164298, 49.552406537351516 ], [ 18.453168840277332, 49.551978101796394 ], [ 18.452149478159278, 49.551719928876587 ], [ 18.452155194176775, 49.551710376047865 ], [ 18.451754655595803, 49.551617101899168 ], [ 18.449958906998035, 49.55106779428575 ], [ 18.448252154845118, 49.550409271191207 ], [ 18.446650044708218, 49.549647570590132 ], [ 18.445167260755369, 49.548789676201061 ], [ 18.443817391039111, 49.547843453332526 ], [ 18.442612802928824, 49.546817576643733 ], [ 18.44156452983156, 49.545721450488884 ], [ 18.440682170237608, 49.544565122580757 ], [ 18.439973800010968, 49.543359191771025 ], [ 18.439445898719224, 49.542114710797826 ], [ 18.439103290666253, 49.54084308489692 ], [ 18.438949101152975, 49.539555967209523 ], [ 18.438984728350071, 49.538265151948366 ], [ 18.439209831021785, 49.536982466303449 ], [ 18.439243971576111, 49.536846168472884 ], [ 18.439330991065773, 49.536409311098289 ], [ 18.439412390363625, 49.535860561568242 ], [ 18.439455035680503, 49.535428177278845 ], [ 18.439482611959424, 49.534866849218055 ], [ 18.439482611623152, 49.534435948001608 ], [ 18.439455036634858, 49.533874646231006 ], [ 18.4394123854924, 49.533442209605148 ], [ 18.439330997710499, 49.532893537787679 ], [ 18.439243957198009, 49.532456578065236 ], [ 18.439112803788717, 49.531932984371736 ], [ 18.438977809330492, 49.531488617336485 ], [ 18.43880377116438, 49.531002213335697 ], [ 18.43861525008278, 49.530547773585617 ], [ 18.438408243201366, 49.530110094414155 ], [ 18.438158354749387, 49.529643330350652 ], [ 18.437931588477571, 49.529264993799444 ], [ 18.437609917520003, 49.528784391813289 ], [ 18.43738015968589, 49.528474599353785 ], [ 18.436973437443356, 49.52797990198156 ], [ 18.436761178388508, 49.527745710311066 ], [ 18.436253182021236, 49.527238703570426 ], [ 18.436082485853071, 49.527083993665414 ], [ 18.435454397961685, 49.526569625109083 ], [ 18.435352073439162, 49.526493736118596 ], [ 18.434583759617276, 49.525981547719958 ], [ 18.434577303321607, 49.525977677968008 ], [ 18.433706814826689, 49.525513560621462 ], [ 18.432790022536423, 49.525134847933089 ], [ 18.431645987645105, 49.524788824604769 ], [ 18.431335327832375, 49.524711007241528 ], [ 18.431341647839776, 49.524700315798036 ], [ 18.430864833260777, 49.524589268439684 ], [ 18.429069652874219, 49.524040013558754 ], [ 18.427363429971109, 49.523381498276287 ], [ 18.425761810530751, 49.522619762527562 ], [ 18.424279479161086, 49.521761792703735 ], [ 18.422930024337141, 49.520815457451924 ], [ 18.421725813787532, 49.519789435380659 ], [ 18.420677881173869, 49.518693135341309 ], [ 18.41979582510001, 49.517536610021288 ], [ 18.419087721371838, 49.516330463647606 ], [ 18.418560049302801, 49.515085754652574 ], [ 18.418217632728883, 49.513813894198456 ], [ 18.418063596258751, 49.512526541495909 ], [ 18.418099337143108, 49.511235496878456 ], [ 18.418324513002503, 49.50995259361585 ], [ 18.418357911702351, 49.509819257451127 ], [ 18.418444977924324, 49.509382164952441 ], [ 18.418526341746496, 49.508833654579952 ], [ 18.418569010848923, 49.508401028633358 ], [ 18.418596575167975, 49.507839944021718 ], [ 18.41859657483182, 49.507408799050836 ], [ 18.418569011802912, 49.506847740719145 ], [ 18.418526336877235, 49.506415062456824 ], [ 18.418444984566243, 49.505866629764675 ], [ 18.418357897330516, 49.505429434962103 ], [ 18.418226801546851, 49.504906071322921 ], [ 18.418091739389748, 49.50446148088151 ], [ 18.417917778260538, 49.503975292184272 ], [ 18.417729172197941, 49.503520646966408 ], [ 18.417522256822579, 49.503083161268059 ], [ 18.417272272566731, 49.502616217555342 ], [ 18.417045603820849, 49.502238043716105 ], [ 18.416723837064549, 49.501757297790867 ], [ 18.416494168871534, 49.501447626198157 ], [ 18.416087368335052, 49.500952832644117 ], [ 18.415875168999012, 49.500718706862997 ], [ 18.415367139025445, 49.50021166544542 ], [ 18.415196439235906, 49.500056952258063 ], [ 18.414568402612566, 49.499542624329472 ], [ 18.414465963322115, 49.499466650221279 ], [ 18.413697841128489, 49.498954587964711 ], [ 18.413691096028195, 49.49895054511002 ], [ 18.412820739925248, 49.498486496620792 ], [ 18.411903936418948, 49.498107777636967 ], [ 18.410951486947301, 49.497819700650076 ], [ 18.409764504671056, 49.497584325662103 ], [ 18.409463314596092, 49.497547255160832 ], [ 18.409081705989944, 49.497519188849779 ], [ 18.40886073985342, 49.497508333484305 ], [ 18.408472030245591, 49.497498798803996 ], [ 18.408083320632088, 49.497508333483829 ], [ 18.407862354495993, 49.497519188849154 ], [ 18.407480745894865, 49.497547255159361 ], [ 18.407179555799807, 49.497584325662444 ], [ 18.405992573512627, 49.497819700651192 ], [ 18.405040124041573, 49.49810777763831 ], [ 18.404123320536641, 49.498486496622057 ], [ 18.403252964494271, 49.498950545079325 ], [ 18.403246219281669, 49.498954588001311 ], [ 18.402478097216335, 49.499466650170632 ], [ 18.402375657781537, 49.499542624385967 ], [ 18.401747621315181, 49.500056952184146 ], [ 18.401576921356487, 49.500211665525001 ], [ 18.401068891559994, 49.500718706763834 ], [ 18.400856692039877, 49.50095283274829 ], [ 18.400449891690073, 49.501447626073158 ], [ 18.400220223309709, 49.501757297918729 ], [ 18.399898456737365, 49.502238043566884 ], [ 18.399671787811922, 49.502616217705935 ], [ 18.399642242238862, 49.502671406148323 ], [ 18.398916347979622, 49.503846595229788 ], [ 18.398024327347436, 49.504972245219697 ], [ 18.396974040326896, 49.506038423641641 ], [ 18.395774745163774, 49.507035722167281 ], [ 18.394437016908991, 49.507955339745479 ], [ 18.392972654260582, 49.508789160384993 ], [ 18.391394575521261, 49.509529824898955 ], [ 18.389716704587972, 49.510170795973025 ], [ 18.387953847981603, 49.510706415977744 ], [ 18.386121564006672, 49.511131957009759 ], [ 18.384916027498598, 49.511371008344064 ], [ 18.384643924985873, 49.511439165427845 ], [ 18.3846369022075, 49.511427278123065 ], [ 18.383932633723397, 49.511612810567662 ], [ 18.381929146913549, 49.511993086146809 ], [ 18.37987704039659, 49.512240131930412 ], [ 18.377797159779359, 49.512351438324679 ], [ 18.375710633502901, 49.512325874602702 ], [ 18.373638657693071, 49.512163700419627 ], [ 18.371602280314832, 49.511866563170052 ], [ 18.369622186849352, 49.511437481214593 ], [ 18.369325825702415, 49.511362260896618 ], [ 18.368164405777918, 49.511131957382183 ], [ 18.366332122331777, 49.510706416488716 ], [ 18.36456926596367, 49.510170796629133 ], [ 18.362891395005828, 49.509529825663101 ], [ 18.361313316018993, 49.508789161183017 ], [ 18.359848952949488, 49.507955340474098 ], [ 18.35851122415589, 49.507035722702909 ], [ 18.357311928395625, 49.506038423849859 ], [ 18.356261640779174, 49.504972244964407 ], [ 18.355369619609117, 49.503846594382402 ], [ 18.354643724921235, 49.50267140459588 ], [ 18.354614179802663, 49.50261621699795 ], [ 18.354387511715981, 49.502238044258547 ], [ 18.354065744214761, 49.501757297220365 ], [ 18.353836076861398, 49.501447626759763 ], [ 18.353429275383814, 49.500952832061088 ], [ 18.353217077101753, 49.500718707442793 ], [ 18.352709045953663, 49.500211664852976 ], [ 18.352538347472979, 49.500056952851935 ], [ 18.351910309398328, 49.499542623734733 ], [ 18.351807871716311, 49.499466650819429 ], [ 18.351039747749802, 49.498954587380979 ], [ 18.351033004602218, 49.498950545696744 ], [ 18.350162647525664, 49.498486496688443 ], [ 18.349245844024306, 49.49810777770675 ], [ 18.348293394551071, 49.497819700719432 ], [ 18.347106411411513, 49.497584325560069 ], [ 18.346805222147101, 49.497547255158509 ], [ 18.346423612663262, 49.497519188782967 ], [ 18.3462026483035, 49.497508333504705 ], [ 18.34581393780153, 49.497498798802461 ], [ 18.345425227294097, 49.497508333504307 ], [ 18.345204262934278, 49.49751918878237 ], [ 18.344822653455775, 49.49754725515708 ], [ 18.344521464171862, 49.497584325560375 ], [ 18.343144288367892, 49.497857414015904 ], [ 18.342871863361768, 49.497925651879029 ], [ 18.342864917853529, 49.497913888834837 ], [ 18.342156573929948, 49.498100488941617 ], [ 18.340153465518011, 49.498480638759553 ], [ 18.338101769349773, 49.498727541055807 ], [ 18.336022328934575, 49.498838687445421 ], [ 18.333936270339567, 49.498812948715383 ], [ 18.331864787043251, 49.49865058632578 ], [ 18.329828924095395, 49.498353249748092 ], [ 18.327849363802695, 49.497923959669237 ], [ 18.32755108827919, 49.49784819990694 ], [ 18.326220380326845, 49.497584325526184 ], [ 18.325919191330811, 49.497547255157613 ], [ 18.325537581557256, 49.497519188760762 ], [ 18.325316617784303, 49.497508333511384 ], [ 18.324927906986957, 49.497498798801885 ], [ 18.324539196183945, 49.497508333510915 ], [ 18.324318232411557, 49.497519188760137 ], [ 18.32393662264279, 49.497547255156171 ], [ 18.323635433627036, 49.497584325526461 ], [ 18.322448450191086, 49.497819700743193 ], [ 18.321496000716735, 49.498107777731335 ], [ 18.32057919721964, 49.498486496711756 ], [ 18.319708839880573, 49.498950545860311 ], [ 18.319702097268252, 49.49895458722375 ], [ 18.318933972841275, 49.499466650967463 ], [ 18.318831535549066, 49.499542623593733 ], [ 18.318203497149323, 49.500056952975292 ], [ 18.318032798934823, 49.500211664735261 ], [ 18.317524767572628, 49.500718707536763 ], [ 18.317312569458185, 49.500952831970302 ], [ 18.316905767852649, 49.501447626822518 ], [ 18.316676100592815, 49.501757297157141 ], [ 18.316354333026215, 49.502238044290813 ], [ 18.316127664980712, 49.502616216961734 ], [ 18.316098129434486, 49.502671386675104 ], [ 18.315372232998186, 49.503846579286801 ], [ 18.314480209687868, 49.504972232665558 ], [ 18.313429919509183, 49.506038414303994 ], [ 18.312230620733732, 49.507035715844147 ], [ 18.310892888442762, 49.507955336206912 ], [ 18.309428521369028, 49.50878915937507 ], [ 18.307850437853837, 49.50952982613795 ], [ 18.306172561836448, 49.510170799160136 ], [ 18.304409699883191, 49.510706420793703 ], [ 18.302577410346807, 49.511131963119922 ], [ 18.301371902080518, 49.511371008853509 ], [ 18.301099801727233, 49.511439165396105 ], [ 18.301092778519195, 49.511427277363957 ], [ 18.300388534540037, 49.511612803401214 ], [ 18.298385045321854, 49.511993079818154 ], [ 18.296332936345198, 49.51224012651263 ], [ 18.294253053170678, 49.512351433890153 ], [ 18.292166524193199, 49.512325871218103 ], [ 18.290094545493535, 49.51216369814054 ], [ 18.288058164993728, 49.511866562035998 ], [ 18.286078068135343, 49.511437481244307 ], [ 18.285781718478272, 49.511362264156979 ], [ 18.28444814954759, 49.511097823224418 ], [ 18.284147127408243, 49.511060773466639 ], [ 18.283765313615117, 49.511032692142685 ], [ 18.283544769902942, 49.511021857529578 ], [ 18.283155845352383, 49.511012317584729 ], [ 18.282766920796295, 49.511021857529116 ], [ 18.282546377084422, 49.511032692142052 ], [ 18.282164563296341, 49.511060773465189 ], [ 18.281863541137252, 49.511097823224716 ], [ 18.280676359649927, 49.51133323704552 ], [ 18.279723911399657, 49.511621312932661 ], [ 18.278807113510059, 49.51200002876584 ], [ 18.277936689100642, 49.512464112809447 ], [ 18.277930092627926, 49.512468066580254 ], [ 18.277161870796206, 49.512980194455722 ], [ 18.277059492338967, 49.513056123447008 ], [ 18.276431426990161, 49.513570474219492 ], [ 18.276260731776283, 49.513725183259808 ], [ 18.275752716146773, 49.514232209791231 ], [ 18.275540489133583, 49.514466366109524 ], [ 18.275133725817675, 49.514961113913593 ], [ 18.274904014501466, 49.515270843651244 ], [ 18.274582294157163, 49.515751519826843 ], [ 18.2743555779468, 49.516129772855891 ], [ 18.27410564046674, 49.516596628845029 ], [ 18.273898680309031, 49.517034209227617 ], [ 18.273710115908113, 49.51748875370685 ], [ 18.273536116959672, 49.517975048101619 ], [ 18.273401088071619, 49.518419528747394 ], [ 18.273269963945214, 49.518943005536478 ], [ 18.273182899703311, 49.519380084641611 ], [ 18.273101529927189, 49.519928635072183 ], [ 18.273058866714763, 49.520361194318795 ], [ 18.273031297794059, 49.520922372573395 ], [ 18.273031297457429, 49.521353397454796 ], [ 18.273058867667732, 49.521914601996073 ], [ 18.273101525054624, 49.522347108913628 ], [ 18.273182906344061, 49.522895737045047 ], [ 18.273269949565783, 49.523332713819151 ], [ 18.273303697121364, 49.523467442722264 ], [ 18.27353118634484, 49.524773730513161 ], [ 18.273562235263324, 49.526088229662015 ], [ 18.273396533263977, 49.527398451335124 ], [ 18.273035639250981, 49.528691946367729 ], [ 18.272482967419343, 49.529956423573125 ], [ 18.271743755372352, 49.531179866586164 ], [ 18.270825014864354, 49.53235064812911 ], [ 18.269735465617902, 49.533457640610294 ], [ 18.268485452827427, 49.53449032199994 ], [ 18.267086849119732, 49.535438875971018 ], [ 18.26555294189366, 49.536294285348305 ], [ 18.263898307103574, 49.537048417969174 ], [ 18.26213867068488, 49.537694104134992 ], [ 18.260290758941686, 49.538225204908365 ], [ 18.259979087032423, 49.538303199614781 ], [ 18.258837825144653, 49.538648383325473 ], [ 18.257921038501795, 49.539027092849373 ], [ 18.257050481003638, 49.539491246120541 ], [ 18.257044174790941, 49.539495025916274 ], [ 18.256211603244594, 49.540050049473237 ], [ 18.254697599337579, 49.540963498980616 ], [ 18.253051398551552, 49.541774371221628 ], [ 18.251289340785704, 49.542474614685297 ], [ 18.249428918695589, 49.543057276023937 ], [ 18.247488603811732, 49.543516569240062 ], [ 18.245487662833987, 49.54384793326787 ], [ 18.24344596594073, 49.544048077369908 ], [ 18.241383789034927, 49.544115013893432 ], [ 18.239321611912857, 49.544048078057614 ], [ 18.237279914382817, 49.543847934573037 ], [ 18.235278972383451, 49.543516571025371 ], [ 18.233338656150696, 49.543057278091553 ], [ 18.231478232461434, 49.542474616786357 ], [ 18.229716172939288, 49.54177437306771 ], [ 18.228069970344752, 49.540963500257853 ], [ 18.226555964689247, 49.540050049857193 ], [ 18.225723391900118, 49.539495025472661 ], [ 18.225717087161929, 49.539491246560708 ], [ 18.224846528923628, 49.539027092895324 ], [ 18.223929742283914, 49.538648383373264 ], [ 18.22297729650905, 49.538360309698653 ], [ 18.221789718649919, 49.538124818617419 ], [ 18.221489030368939, 49.538087810099022 ], [ 18.221106808224267, 49.538059698898415 ], [ 18.220887105307863, 49.538048905590919 ], [ 18.220497752898048, 49.53803935516698 ], [ 18.22010840048241, 49.538048905590479 ], [ 18.219888697566155, 49.538059698897762 ], [ 18.219506475426904, 49.538087810097579 ], [ 18.219205787125588, 49.538124818617725 ], [ 18.218018209254573, 49.538360309699826 ], [ 18.217065763479887, 49.538648383374905 ], [ 18.216148976842689, 49.539027092896497 ], [ 18.215278418666259, 49.539491246529259 ], [ 18.21527211381175, 49.539495025510931 ], [ 18.214503697857431, 49.540007281190206 ], [ 18.214401436393238, 49.540083123413453 ], [ 18.213773317797397, 49.540597516433778 ], [ 18.213602627973405, 49.540752220588779 ], [ 18.213094644374252, 49.541259214015852 ], [ 18.212882359052088, 49.541493434668006 ], [ 18.212475672773319, 49.541988087818815 ], [ 18.212245872937679, 49.54229793691097 ], [ 18.211924247395817, 49.542778470636094 ], [ 18.211697434543698, 49.543156884901904 ], [ 18.21144759208838, 49.543623562697327 ], [ 18.211239998193253, 49.544062482994043 ], [ 18.210529019528291, 49.545334703848916 ], [ 18.2096255859575, 49.546554133863999 ], [ 18.208538788157355, 49.547708484028568 ], [ 18.207279566921919, 49.548786120360091 ], [ 18.205860603257655, 49.549776181302171 ], [ 18.204296190818873, 49.550668687356705 ], [ 18.202602091961385, 49.551454641838085 ], [ 18.200795378862495, 49.552126121725387 ], [ 18.198894261311207, 49.552676357688121 ], [ 18.196917902912663, 49.553099802471706 ], [ 18.194886227572084, 49.553392186945466 ], [ 18.192819718226275, 49.553550563242126 ], [ 18.190739209872625, 49.553573334549291 ], [ 18.188665679005474, 49.553460271248213 ], [ 18.186620031608101, 49.5532125132357 ], [ 18.184622891863995, 49.552832558405726 ], [ 18.182694393742928, 49.552324237406864 ], [ 18.181205263923907, 49.551873846074287 ], [ 18.180017487439461, 49.551638316277653 ], [ 18.179716966435812, 49.551601328421754 ], [ 18.179334539659898, 49.551573202249578 ], [ 18.179115258086004, 49.551562429641308 ], [ 18.178725691263597, 49.551552873965939 ], [ 18.178336124435187, 49.551562429640839 ], [ 18.178116842861286, 49.551573202248939 ], [ 18.177734416091045, 49.551601328420269 ], [ 18.177433895067413, 49.551638316277909 ], [ 18.176246118569633, 49.551873846075665 ], [ 18.175293674045477, 49.552161918639875 ], [ 18.174376893055332, 49.552540624996155 ], [ 18.173506267850243, 49.553004813499854 ], [ 18.173500109140864, 49.55300850488559 ], [ 18.172731595862796, 49.553520824640891 ], [ 18.172629393104671, 49.553596623324736 ], [ 18.172001247717809, 49.554111037605665 ], [ 18.171830560729152, 49.554265739190825 ], [ 18.171322593026165, 49.55477271618436 ], [ 18.171110278653305, 49.55500696888889 ], [ 18.170703630801629, 49.555501574824426 ], [ 18.170473786789323, 49.55581148348179 ], [ 18.170152208573146, 49.556291946094611 ], [ 18.169925347469366, 49.556670440863357 ], [ 18.169675552463328, 49.557137029679929 ], [ 18.169468456128271, 49.557574897985177 ], [ 18.169280018259446, 49.55802913652763 ], [ 18.16910590456256, 49.558515751622686 ], [ 18.168970976543054, 49.558959899397216 ], [ 18.168839766537292, 49.559483719035761 ], [ 18.168752771938259, 49.559920447739835 ], [ 18.168671349284498, 49.560469354642485 ], [ 18.168628721529263, 49.560901553641273 ], [ 18.168601134777948, 49.561463094846196 ], [ 18.168601134441058, 49.561893756299185 ], [ 18.16862872248273, 49.562455323806425 ], [ 18.168671344408828, 49.562887470444871 ], [ 18.16875277858307, 49.563436455096742 ], [ 18.168839752148131, 49.563873081403457 ], [ 18.168970993595973, 49.564397026699751 ], [ 18.169105876173457, 49.564841026817724 ], [ 18.169298025084966, 49.56537804657841 ], [ 18.169642896739063, 49.566590531260694 ], [ 18.169816084885536, 49.567818433536793 ], [ 18.169816129251142, 49.569051490933489 ], [ 18.169643016536533, 49.570279397138471 ], [ 18.169298180958737, 49.57149188814347 ], [ 18.169105884999841, 49.572029319814952 ], [ 18.168970990809949, 49.57247335595212 ], [ 18.168839752009614, 49.572997290545089 ], [ 18.168752780756598, 49.573433901787986 ], [ 18.168671340379785, 49.573982928169727 ], [ 18.168628724507609, 49.574415006437413 ], [ 18.168601131780978, 49.574976669272594 ], [ 18.168601131444017, 49.575407208938536 ], [ 18.168628725461243, 49.575968898080994 ], [ 18.168671335503113, 49.576400923978035 ], [ 18.168752787402763, 49.576950028124912 ], [ 18.168839737617315, 49.577386536948694 ], [ 18.16897100786694, 49.577910597228183 ], [ 18.169105856603601, 49.578354485672541 ], [ 18.169280068665831, 49.578841375858055 ], [ 18.169468386613275, 49.579295326227509 ], [ 18.169675623323304, 49.579733491542974 ], [ 18.169925256165687, 49.580199777807799 ], [ 18.170152298274385, 49.580578574798224 ], [ 18.170473677088367, 49.581058739358248 ], [ 18.170703733101639, 49.58136893410142 ], [ 18.171110159465705, 49.58186327004001 ], [ 18.171322694812304, 49.582097766766424 ], [ 18.171830448945737, 49.582604529515763 ], [ 18.17200132633744, 49.582759403840058 ], [ 18.17294368943416, 49.583531136267496 ], [ 18.172941064098605, 49.583532491477044 ], [ 18.173848200014344, 49.584275702627387 ], [ 18.174949072870067, 49.585385305520006 ], [ 18.175877829916935, 49.586559570584122 ], [ 18.176625560015253, 49.587787246871194 ], [ 18.177185084787656, 49.589056570849323 ], [ 18.177551027863071, 49.590355379020686 ], [ 18.177719866921784, 49.591671224402319 ], [ 18.177689968023127, 49.59299149575827 ], [ 18.177461601864753, 49.594303538441963 ], [ 18.177036941795478, 49.595594775692987 ], [ 18.176420043576758, 49.596852829224758 ], [ 18.175616807064628, 49.598065637945801 ], [ 18.174634920157928, 49.5992215736741 ], [ 18.173483785530891, 49.600309552730586 ], [ 18.172174430836527, 49.601319142337395 ], [ 18.170719403228759, 49.602240660794529 ], [ 18.169132649205828, 49.603065270467816 ], [ 18.167429380922751, 49.60378506268993 ], [ 18.165625930254475, 49.604393133752609 ], [ 18.16373959201362, 49.604883651255335 ], [ 18.161788457834852, 49.605251910167098 ], [ 18.159791242331323, 49.605494378057934 ], [ 18.157767103206435, 49.605608729061586 ], [ 18.157449236082488, 49.605616525891286 ], [ 18.157231639512151, 49.605627215720467 ], [ 18.156848394471968, 49.605655401757893 ], [ 18.156548541844487, 49.605692307053062 ], [ 18.155167410034387, 49.605966173707131 ], [ 18.154897585987921, 49.606033760070503 ], [ 18.154890018424631, 49.606021000429202 ], [ 18.154214680109902, 49.606198953498769 ], [ 18.15220867442649, 49.606580103089406 ], [ 18.150153828339924, 49.606828167259778 ], [ 18.148070997308746, 49.606940628237979 ], [ 18.145981321530403, 49.606916344548651 ], [ 18.14390601085611, 49.606755562627718 ], [ 18.141866128989815, 49.606459914316588 ], [ 18.139882379188077, 49.60603240026164 ], [ 18.139598974150317, 49.605960838717955 ], [ 18.138436732642756, 49.605730377119649 ], [ 18.13660114925457, 49.605304172143676 ], [ 18.134835228508393, 49.604767900194808 ], [ 18.133154557967181, 49.604126295551396 ], [ 18.131573970970312, 49.603385022192043 ], [ 18.130107415535541, 49.602550623692252 ], [ 18.128767831155791, 49.601630465348926 ], [ 18.127567034583414, 49.600632669049176 ], [ 18.126515615611879, 49.59956604146366 ], [ 18.12562284377324, 49.598439996202515 ], [ 18.124896586770163, 49.597264470627202 ], [ 18.124868019224628, 49.597211109323219 ], [ 18.124641012670718, 49.596832371886151 ], [ 18.124319577248102, 49.596352123827145 ], [ 18.124089599755123, 49.596042035192596 ], [ 18.12368306828176, 49.59554757223502 ], [ 18.12347066550462, 49.595313221991979 ], [ 18.122962746904903, 49.594806295709517 ], [ 18.122792066849037, 49.594651600408248 ], [ 18.122163842815858, 49.594137123759296 ], [ 18.122061814319455, 49.594061454316879 ], [ 18.121293011031323, 49.593548943642588 ], [ 18.121287288757763, 49.593545513846266 ], [ 18.120416463542831, 49.593081221307607 ], [ 18.119499699573133, 49.592702524484103 ], [ 18.118547258849169, 49.592414455271211 ], [ 18.117358886276236, 49.592178809291589 ], [ 18.117058867064582, 49.592141883418378 ], [ 18.116675826129747, 49.592113712312845 ], [ 18.116457809209436, 49.592103001833017 ], [ 18.116067598803888, 49.592093430395138 ], [ 18.115677388392175, 49.592103001832569 ], [ 18.115459371472088, 49.592113712312212 ], [ 18.115076330543008, 49.592141883416858 ], [ 18.114776311309452, 49.592178809292001 ], [ 18.113587938723303, 49.592414455272753 ], [ 18.112635498000973, 49.592702524485709 ], [ 18.111718734032568, 49.593081221309312 ], [ 18.110847908884928, 49.593545513812579 ], [ 18.110842186486156, 49.593548943683949 ], [ 18.110073383341511, 49.594061454260732 ], [ 18.109971354684415, 49.594137123822456 ], [ 18.109343130825494, 49.594651600326742 ], [ 18.109172450581418, 49.594806295798712 ], [ 18.108664532179169, 49.595313221881945 ], [ 18.108452129197744, 49.59554757235064 ], [ 18.108045597930879, 49.596042035054765 ], [ 18.107815620230056, 49.596352123969886 ], [ 18.107494185012076, 49.596832371720737 ], [ 18.107267178258745, 49.597211109490821 ], [ 18.107238618632447, 49.597264455997781 ], [ 18.106512360277989, 49.598439983752286 ], [ 18.105619586788549, 49.599566031199927 ], [ 18.104568165827249, 49.600632660970867 ], [ 18.103367366884303, 49.601630459438312 ], [ 18.102027779712039, 49.602550619906616 ], [ 18.100561221025561, 49.603385020454475 ], [ 18.098980630287699, 49.604126295742432 ], [ 18.097299955496457, 49.6047679021448 ], [ 18.095534029984897, 49.605304175626131 ], [ 18.09369844132538, 49.605730381846463 ], [ 18.092509315774233, 49.605966174138096 ], [ 18.092239493544238, 49.606033760046209 ], [ 18.092231925621235, 49.606020999798353 ], [ 18.091556608130769, 49.606198947421817 ], [ 18.08955060061378, 49.606580097699499 ], [ 18.087495752655833, 49.606828162643033 ], [ 18.085412919670826, 49.606940624480366 ], [ 18.083323241811449, 49.606916341731157 ], [ 18.081247928885208, 49.60675556082149 ], [ 18.079208044554317, 49.606459913578156 ], [ 18.077224292036533, 49.606032400628472 ], [ 18.076940895959556, 49.605960841614475 ], [ 18.075586654492746, 49.605692306901311 ], [ 18.075286803117468, 49.605655401759378 ], [ 18.074903556738835, 49.605627215623208 ], [ 18.07468596286509, 49.605616525926308 ], [ 18.074295537169498, 49.605606949215584 ], [ 18.073905111467539, 49.605616525925839 ], [ 18.073687517593839, 49.605627215622604 ], [ 18.073304271221268, 49.605655401757879 ], [ 18.073004419823793, 49.605692306901744 ], [ 18.0718158478468, 49.605927991746164 ], [ 18.070863408407121, 49.6062160598362 ], [ 18.069946650143113, 49.606594753468549 ], [ 18.069075758027491, 49.607059080807844 ], [ 18.069070181767081, 49.607062423087307 ], [ 18.068301281420638, 49.607574997656585 ], [ 18.068199311285465, 49.607650623815445 ], [ 18.067571060857027, 49.608165121397747 ], [ 18.067400383218665, 49.608319814508 ], [ 18.066892480938396, 49.60882672393182 ], [ 18.066696135163067, 49.609043358103648 ], [ 18.066262346932408, 49.609574870876557 ], [ 18.066035254852459, 49.609885910766735 ], [ 18.065741203137566, 49.610328934347343 ], [ 18.065502626163418, 49.610726967933452 ], [ 18.065253016900499, 49.611193198079583 ], [ 18.065045732401913, 49.611631453494795 ], [ 18.064857458943639, 49.612085282074183 ], [ 18.064683185614999, 49.612572328135592 ], [ 18.06454838773076, 49.613016030376748 ], [ 18.064417056638298, 49.613540310703996 ], [ 18.064330150489077, 49.613976570793561 ], [ 18.064248650910709, 49.614525956766784 ], [ 18.064206065965429, 49.61495767426873 ], [ 18.064178449297522, 49.615519703419643 ], [ 18.064178444415017, 49.615949879341521 ], [ 18.064206050497017, 49.616511935061538 ], [ 18.064248620485721, 49.616943600541099 ], [ 18.06433011998341, 49.617493065054802 ], [ 18.06441699586226, 49.617929223433897 ], [ 18.064548347344736, 49.61845363070492 ], [ 18.064683090367605, 49.618897186348249 ], [ 18.064876488487123, 49.619437714181252 ] ] ] } }
]
}
