{
"type": "FeatureCollection",
"name": "google_zone_5km",
"crs": { "type": "name", "properties": { "name": "urn:ogc:def:crs:OGC:1.3:CRS84" } },
"features": [
{ "type": "Feature", "properties": { "source": "Google Distance Matrix", "origin": "Frýdek-Místek, Česká republika", "max_km": 5 }, "geometry": { "type": "Polygon", "coordinates": [ [ [ 18.315510280721988, 49.673496387138442 ], [ 18.315854416508976, 49.674706296680483 ], [ 18.316027225545252, 49.675931523198351 ], [ 18.316027256963643, 49.677161870581635 ], [ 18.315854497605773, 49.678387099357757 ], [ 18.315510372559949, 49.679597011908577 ], [ 18.315315544388032, 49.680141503707432 ], [ 18.315180917673853, 49.680584641088082 ], [ 18.315049440959147, 49.681109502687569 ], [ 18.314962652816412, 49.681545169041691 ], [ 18.314881063667684, 49.682095158711412 ], [ 18.3148385387539, 49.682526266276511 ], [ 18.314810891885561, 49.683088909778171 ], [ 18.314810887000128, 49.683518470533443 ], [ 18.314838523246721, 49.68408114062958 ], [ 18.314881033192783, 49.68451219612016 ], [ 18.314962622236276, 49.685062264410163 ], [ 18.315049380080168, 49.685497828942893 ], [ 18.315180877185899, 49.686022817629762 ], [ 18.315315448976484, 49.686465808231056 ], [ 18.315510432918657, 49.687010768245713 ], [ 18.31585447839263, 49.68822035594966 ], [ 18.316027241700159, 49.689445248175609 ], [ 18.316027273133212, 49.69067525709243 ], [ 18.315854559536653, 49.691900151565335 ], [ 18.315510524845678, 49.693109742257008 ], [ 18.315315381650347, 49.693655114469884 ], [ 18.315180788934466, 49.69409813966368 ], [ 18.315049283292947, 49.69462311674075 ], [ 18.314962518597536, 49.695058665133082 ], [ 18.314880911652892, 49.695608774765141 ], [ 18.314838398670101, 49.696039761128475 ], [ 18.314810745802539, 49.696602526723012 ], [ 18.314810740918436, 49.697031965230501 ], [ 18.314838383162183, 49.69759475742466 ], [ 18.31488088117888, 49.69802569170291 ], [ 18.314962488018388, 49.698575879970818 ], [ 18.315049222413112, 49.699011326519226 ], [ 18.315180748450612, 49.699536430711881 ], [ 18.315315286234465, 49.699979309089649 ], [ 18.31548984288985, 49.7004671775343 ], [ 18.315670430928112, 49.700916458572621 ], [ 18.315878083142593, 49.701355502399444 ], [ 18.316127280424567, 49.701820971957517 ], [ 18.316354766636191, 49.702200509889963 ], [ 18.316675708240545, 49.702680017597316 ], [ 18.316906174687809, 49.702990765747792 ], [ 18.317312240690132, 49.703484659094357 ], [ 18.317525053772464, 49.703719462255918 ], [ 18.318032646744754, 49.704226059038938 ], [ 18.318203518485749, 49.704380928242436 ], [ 18.318831727982545, 49.704895387282697 ], [ 18.318933523081661, 49.704970883721487 ], [ 18.319702865441425, 49.705483746767733 ], [ 18.319707651670608, 49.705486615525182 ], [ 18.320578888297746, 49.705951120750491 ], [ 18.321495600216881, 49.706329789577978 ], [ 18.322448028349037, 49.706617849170513 ], [ 18.323638023822308, 49.706853809018682 ], [ 18.323936699847817, 49.706890568374369 ], [ 18.324321411990766, 49.706918862048688 ], [ 18.324535981506042, 49.706929403177696 ], [ 18.324927949199559, 49.706939017296058 ], [ 18.325319916885601, 49.706929403177348 ], [ 18.325534486399636, 49.706918862048305 ], [ 18.32591919855119, 49.706890568373019 ], [ 18.326217874549524, 49.706853809019933 ], [ 18.327602493462333, 49.706579256634932 ], [ 18.327870023637342, 49.706512242780001 ], [ 18.327878256676964, 49.706526066353085 ], [ 18.328518929929732, 49.706357201121435 ], [ 18.330527547561424, 49.705975070287074 ], [ 18.332585201816507, 49.705725798607702 ], [ 18.334671059683036, 49.705611909798279 ], [ 18.336764003312993, 49.705634556873818 ], [ 18.338842843308921, 49.705793510504947 ], [ 18.34088653272558, 49.706087161336271 ], [ 18.342874379646503, 49.706512536242577 ], [ 18.343143944405792, 49.706580150713975 ], [ 18.344304646698074, 49.706810304538344 ], [ 18.346144680123654, 49.7072374103847 ], [ 18.347914800216628, 49.707774623103347 ], [ 18.34959938241154, 49.708417201467441 ], [ 18.351183555433341, 49.709159474145267 ], [ 18.352653332396667, 49.709994889651689 ], [ 18.353995734179556, 49.710916074061309 ], [ 18.355198903987304, 49.711914895978353 ], [ 18.356252212097189, 49.712982538195014 ], [ 18.357146349858066, 49.714109575411491 ], [ 18.357873412110365, 49.715286057335774 ], [ 18.357899315808083, 49.715334441747444 ], [ 18.358126851889168, 49.715714062882164 ], [ 18.358447744312322, 49.716193496706353 ], [ 18.358678257049803, 49.716504307272068 ], [ 18.359084282236829, 49.716998150499037 ], [ 18.359297127044965, 49.717232988664712 ], [ 18.359804701153081, 49.717739566051044 ], [ 18.359975573307192, 49.717894435629034 ], [ 18.360603806084633, 49.718408913051846 ], [ 18.360705546190619, 49.718484368704907 ], [ 18.361474982019249, 49.718997293250538 ], [ 18.361479625963415, 49.719000076725543 ], [ 18.362350927510629, 49.719464615692189 ], [ 18.363267633612629, 49.719843281277797 ], [ 18.364220060379633, 49.720131339718094 ], [ 18.365410255176812, 49.720367338407989 ], [ 18.365708763781804, 49.720404077083572 ], [ 18.36609368137611, 49.720432385787099 ], [ 18.366307827700059, 49.720442906126046 ], [ 18.366700010800873, 49.720452525520635 ], [ 18.367092193893971, 49.720442906125683 ], [ 18.367306340217276, 49.720432385786687 ], [ 18.367691257819722, 49.7204040770822 ], [ 18.367989766396466, 49.720367338409361 ], [ 18.369374880909298, 49.72009268854459 ], [ 18.369642085238628, 49.720025756310832 ], [ 18.369650395909474, 49.720039702423037 ], [ 18.370286853325606, 49.719871941964492 ], [ 18.372295756340542, 49.719489693345608 ], [ 18.37435372567834, 49.719240273701736 ], [ 18.376439929085809, 49.719126207766969 ], [ 18.378533249220446, 49.719148650129874 ], [ 18.380612496891636, 49.719307373575909 ], [ 18.382656625019415, 49.719600771383341 ], [ 18.384644941172009, 49.720025873550497 ], [ 18.384912926422206, 49.720093036572713 ], [ 18.386296285603599, 49.720367338367602 ], [ 18.38659479458045, 49.720404077088908 ], [ 18.386979711771524, 49.72043238576277 ], [ 18.387193858912131, 49.72044290614182 ], [ 18.387586041601818, 49.720452525526326 ], [ 18.387978224283636, 49.720442906141479 ], [ 18.388192371423635, 49.720432385762358 ], [ 18.388577288622919, 49.720404077087515 ], [ 18.388875797571266, 49.720367338368916 ], [ 18.390065991955833, 49.72013133975954 ], [ 18.391018418723469, 49.719843281320486 ], [ 18.391935124831615, 49.719464615733742 ], [ 18.392806426025153, 49.71900007695708 ], [ 18.392811070692758, 49.71899729304841 ], [ 18.393580505903646, 49.718484368913217 ], [ 18.39368224652987, 49.718408912874544 ], [ 18.394310478877458, 49.717894435802066 ], [ 18.394481351381263, 49.717739565907664 ], [ 18.394988925211834, 49.717232988796454 ], [ 18.39520177023515, 49.716998150394083 ], [ 18.395607795261657, 49.71650430736041 ], [ 18.395838308114218, 49.716193496640571 ], [ 18.396159200460943, 49.715714062928562 ], [ 18.396386736587907, 49.715334441718483 ], [ 18.396412653540089, 49.715286032544071 ], [ 18.397139713337459, 49.714109554576417 ], [ 18.398033848094233, 49.712982521265261 ], [ 18.399087152613291, 49.71191488288126 ], [ 18.400290318204934, 49.710916064693897 ], [ 18.401632715110445, 49.709994883871055 ], [ 18.403102486505276, 49.709159471759143 ], [ 18.404686653247428, 49.708417202225142 ], [ 18.406371228444819, 49.707774626687701 ], [ 18.408141340832088, 49.707237416405775 ], [ 18.409981365872707, 49.70681031252866 ], [ 18.410951993122893, 49.706617849322775 ], [ 18.411904421249996, 49.706329789733147 ], [ 18.412828729072992, 49.705955308994689 ], [ 18.413699971741011, 49.705490807089106 ], [ 18.413704761334373, 49.705487936355034 ], [ 18.414474108601546, 49.704975077122846 ], [ 18.414575907476021, 49.704899578936562 ], [ 18.415204122067941, 49.704385123021687 ], [ 18.415374998073791, 49.70423025221293 ], [ 18.415882596196148, 49.70372365794298 ], [ 18.416095414049966, 49.703488853227555 ], [ 18.416501485172386, 49.702994961861066 ], [ 18.416731956867224, 49.702684212124652 ], [ 18.417052903513639, 49.702204705937369 ], [ 18.41728039538436, 49.701825166314585 ], [ 18.41752959760608, 49.701359697883831 ], [ 18.41773725580186, 49.700920652204623 ], [ 18.417925193070815, 49.700467634679043 ], [ 18.418099760532609, 49.699979766479565 ], [ 18.41823430730874, 49.69953689058682 ], [ 18.418365844782077, 49.699011786328775 ], [ 18.418452588157976, 49.698576341778896 ], [ 18.41853420683038, 49.69802615304981 ], [ 18.41857671385926, 49.697595220339565 ], [ 18.418604368083173, 49.697032427227398 ], [ 18.418604372296645, 49.696602989897976 ], [ 18.418576731293555, 49.696040222891227 ], [ 18.418534227558528, 49.695609237340896 ], [ 18.418452632089934, 49.695059125788795 ], [ 18.418365876866336, 49.694623577853875 ], [ 18.418234382033162, 49.694098598360554 ], [ 18.418099799094893, 49.693655573259989 ], [ 18.417904659473802, 49.693110177001635 ], [ 18.417560652932327, 49.691900591898801 ], [ 18.417387966543583, 49.690675704616893 ], [ 18.417388024031158, 49.68944570444912 ], [ 18.417560812026981, 49.688220822474442 ], [ 18.417904880610529, 49.687011246455093 ], [ 18.41809988406883, 49.686466265898531 ], [ 18.41823446486103, 49.686023277761088 ], [ 18.418365973394984, 49.685498289030896 ], [ 18.418452740226932, 49.685062726476353 ], [ 18.418534341097981, 49.684512657746133 ], [ 18.418576860061023, 49.684081603803563 ], [ 18.418604508284474, 49.683518932809683 ], [ 18.418604512499424, 49.683089373212404 ], [ 18.418576877494232, 49.68252672831867 ], [ 18.418534361828968, 49.682095621545905 ], [ 18.418452784157086, 49.681545629976448 ], [ 18.418366005484696, 49.681109964058237 ], [ 18.418234539581601, 49.680585100063773 ], [ 18.418099922640756, 49.680141962752813 ], [ 18.41790509816817, 49.679597447311743 ], [ 18.417561001233668, 49.678387540192176 ], [ 18.41738826906851, 49.677162318449277 ], [ 18.417388326549155, 49.675931979658159 ], [ 18.417561160304125, 49.674706763236408 ], [ 18.417905319253595, 49.673496865226667 ], [ 18.418100007618243, 49.672952765260938 ], [ 18.418234622409777, 49.672509664933749 ], [ 18.418366102017426, 49.671984791679201 ], [ 18.418452892295548, 49.671549111169519 ], [ 18.41853447537234, 49.670999162390366 ], [ 18.418577006264957, 49.670567987261833 ], [ 18.418604648490202, 49.670005438340461 ], [ 18.418604652706623, 49.669575756520437 ], [ 18.418577023697086, 49.669013233694152 ], [ 18.418534496106176, 49.668582005745286 ], [ 18.418452936223911, 49.668032134110689 ], [ 18.41836613411261, 49.667596350258677 ], [ 18.41823469712644, 49.667071601710695 ], [ 18.418100046199957, 49.666628352244828 ], [ 18.417925626487687, 49.666140866709839 ], [ 18.417737535732794, 49.665687454966886 ], [ 18.417530073818092, 49.665248802983314 ], [ 18.417280670339988, 49.664782937976113 ], [ 18.417053417570003, 49.664403782059253 ], [ 18.416732232224099, 49.663923900650744 ], [ 18.416502025784329, 49.663613497874792 ], [ 18.416095702329329, 49.663119282159286 ], [ 18.415883142751689, 49.662884755238068 ], [ 18.415375322224293, 49.662377922086336 ], [ 18.415204641073885, 49.662223223555465 ], [ 18.414576304443877, 49.661708650865215 ], [ 18.414474550555852, 49.661633184043708 ], [ 18.413705284430428, 49.661120361835643 ], [ 18.413700270942954, 49.661117356827752 ], [ 18.412829124113234, 49.660652890681874 ], [ 18.411912389835596, 49.660274204577199 ], [ 18.410959955664705, 49.659986135869687 ], [ 18.409770592662127, 49.659750291083945 ], [ 18.409471404344078, 49.659713466465838 ], [ 18.409087343115761, 49.659685218982418 ], [ 18.408871425119433, 49.659674610647173 ], [ 18.40848014498831, 49.659665011261382 ], [ 18.408088864646547, 49.659674607152496 ], [ 18.40787294642514, 49.659685213559399 ], [ 18.407488884605332, 49.659713457612071 ], [ 18.407189695481783, 49.659750279560591 ], [ 18.405806588544756, 49.660024527943719 ], [ 18.405538056670977, 49.660091789257322 ], [ 18.405530179915061, 49.660078537629559 ], [ 18.404871407675127, 49.660252146641859 ], [ 18.402864086883213, 49.660633772795286 ], [ 18.400807803904648, 49.660882411075285 ], [ 18.398723416516205, 49.660995539364457 ], [ 18.39663206828255, 49.660972010085914 ], [ 18.39455497356326, 49.660812061873564 ], [ 18.392513201792415, 49.660517317147047 ], [ 18.390527463245739, 49.660090765617255 ], [ 18.390250961498626, 49.660021160078259 ], [ 18.389087647411987, 49.659790482911106 ], [ 18.387250208753407, 49.659363896589838 ], [ 18.385482567859089, 49.65882725258745 ], [ 18.383800328700023, 49.658185288830758 ], [ 18.382218339624089, 49.657443672905288 ], [ 18.380750562114972, 49.656608951915935 ], [ 18.379409947460463, 49.655688494576395 ], [ 18.37820832242371, 49.654690426042521 ], [ 18.377156284928521, 49.653623556071516 ], [ 18.376263110678174, 49.652497301144898 ], [ 18.375536671527087, 49.651321601248419 ], [ 18.375508592900516, 49.651269152191318 ], [ 18.375281389789091, 49.650890079126548 ], [ 18.374960155506262, 49.650410124197684 ], [ 18.374729995064868, 49.650099783444041 ], [ 18.374323631125687, 49.6496055180098 ], [ 18.374111102893188, 49.6493710256726 ], [ 18.373603263918991, 49.648864173539415 ], [ 18.373432582725766, 49.648709474969294 ], [ 18.372804269849098, 49.648194921048294 ], [ 18.372702460496164, 49.64811941309042 ], [ 18.371933288273148, 49.64760665267174 ], [ 18.371928132150238, 49.647603562170353 ], [ 18.371057050478317, 49.647139129891144 ], [ 18.370140310444306, 49.64676044056921 ], [ 18.369187874947478, 49.646472370721142 ], [ 18.367998710538341, 49.646236564636148 ], [ 18.367699355282234, 49.646199719396051 ], [ 18.367315498731525, 49.646171486886736 ], [ 18.367099159175151, 49.646160857839405 ], [ 18.366708093602998, 49.646151263708887 ], [ 18.366317027820514, 49.646160854345823 ], [ 18.366100688039069, 49.64617148146062 ], [ 18.36571683089689, 49.646199710540259 ], [ 18.365417474834462, 49.646236553108785 ], [ 18.364228305416166, 49.646472348573063 ], [ 18.363275863816153, 49.646760409914812 ], [ 18.362359115761187, 49.647139091048821 ], [ 18.361488024325663, 49.647603515508358 ], [ 18.36148286799477, 49.647606606049138 ], [ 18.360713685070714, 49.648119359488433 ], [ 18.360611873934918, 49.648194866673073 ], [ 18.359983550355295, 49.648709414818512 ], [ 18.359812865670492, 49.648864112058831 ], [ 18.359305016181565, 49.649370959431877 ], [ 18.359092482749254, 49.649605450127595 ], [ 18.358686108572378, 49.650099711646646 ], [ 18.358455941320706, 49.650410050663268 ], [ 18.358134697100425, 49.650890002376734 ], [ 18.357907485732277, 49.651269073790353 ], [ 18.357879414912606, 49.651321505933957 ], [ 18.357152949329461, 49.652497201802547 ], [ 18.356259749356667, 49.653623451220845 ], [ 18.355207687014662, 49.654690314264059 ], [ 18.354006038159071, 49.655688374514924 ], [ 18.352665400853979, 49.6566088222826 ], [ 18.351197601992723, 49.657443532478396 ], [ 18.349615592985295, 49.658185136456545 ], [ 18.347933335431886, 49.658827087180143 ], [ 18.346165677793241, 49.65936371713223 ], [ 18.344328224151322, 49.659790288455753 ], [ 18.343148294618359, 49.66002424873939 ], [ 18.342879764784882, 49.660091509542852 ], [ 18.34287188762449, 49.660078257234659 ], [ 18.342213138997845, 49.660251860073352 ], [ 18.340205816262639, 49.660633486997668 ], [ 18.338149531300658, 49.660882126161397 ], [ 18.336065141834204, 49.660995255447077 ], [ 18.333973791373456, 49.660971727272077 ], [ 18.331896694224699, 49.660811780258484 ], [ 18.329854919771137, 49.660517036808656 ], [ 18.327869178241198, 49.660090486610642 ], [ 18.327592686107657, 49.660020883795369 ], [ 18.326226202034398, 49.659749918011656 ], [ 18.325927015097264, 49.659713093564157 ], [ 18.325542952366963, 49.65968484597132 ], [ 18.325327037402776, 49.659674237785666 ], [ 18.324935755741404, 49.659664638363431 ], [ 18.324544473869551, 49.659674234293419 ], [ 18.324328558680588, 49.659684840552103 ], [ 18.323944495359061, 49.659713084716621 ], [ 18.32364530761706, 49.659749906496465 ], [ 18.322455938117095, 49.659985740962924 ], [ 18.321503497833348, 49.66027380117437 ], [ 18.320586755537249, 49.660652479097813 ], [ 18.319715597282773, 49.661116938316994 ], [ 18.319710586905497, 49.661119941377805 ], [ 18.318941307063092, 49.661632758623483 ], [ 18.318839554119386, 49.661708222651377 ], [ 18.318211204322445, 49.662222791590786 ], [ 18.318040521895725, 49.662377486786148 ], [ 18.317532688861505, 49.662884317173265 ], [ 18.317320125864352, 49.663118840490732 ], [ 18.316913790579363, 49.663613054235661 ], [ 18.316683578744033, 49.663923453368689 ], [ 18.316362382202882, 49.664403333449535 ], [ 18.316135122284717, 49.664782485866787 ], [ 18.315885708173411, 49.665248350076268 ], [ 18.315678237613064, 49.665686998844407 ], [ 18.315490136701811, 49.666140410237752 ], [ 18.315315707119108, 49.666627892943751 ], [ 18.315181046423355, 49.6670711424564 ], [ 18.315049598622377, 49.667595888630402 ], [ 18.314962787042209, 49.668031672896689 ], [ 18.314881215682295, 49.668581542652028 ], [ 18.314838678842111, 49.6690127713726 ], [ 18.314811037970752, 49.669575292826906 ], [ 18.314811033083981, 49.670004975784622 ], [ 18.314838663335653, 49.67056752382863 ], [ 18.314881185206517, 49.670998700485299 ], [ 18.31496275646111, 49.671548648845175 ], [ 18.31504953774423, 49.671984331312622 ], [ 18.315181005931283, 49.672509204545939 ], [ 18.31531561171191, 49.672952307315953 ], [ 18.315510280721988, 49.673496387138442 ] ] ] } }
]
}
