{"type": "FeatureCollection", "bbox": [17.984468, 49.531112, 18.682727, 49.850429], "features": [{"type": "Feature", "properties": {"group_index": 0, "value": 1200.0, "center": [18.339305032181233, 49.675605948284336]}, "geometry": {"coordinates": [[[17.98827, 49.593921], [17.989281, 49.594175], [17.990189, 49.594414], [18.023365, 49.601187], [18.100706, 49.595607], [18.107272, 49.593849], [18.180203, 49.598367], [18.195028, 49.598857], [18.199016, 49.598888], [18.248742, 49.600197], [18.312977, 49.540543], [18.314865, 49.537478], [18.329089, 49.531196], [18.329274, 49.531158], [18.329673, 49.531112], [18.330131, 49.531127], [18.395332, 49.534061], [18.395403, 49.534113], [18.395759, 49.536534], [18.395962, 49.539709], [18.404234, 49.577185], [18.480479, 49.61052], [18.485239, 49.60968], [18.485461, 49.609738], [18.573441, 49.65224], [18.652301, 49.652552], [18.657523, 49.651527], [18.676659, 49.646731], [18.680751, 49.645468], [18.681654, 49.645187], [18.682727, 49.648623], [18.641531, 49.705423], [18.628155, 49.747023], [18.626888, 49.750767], [18.612328, 49.764995], [18.609113, 49.764336], [18.603432, 49.762592], [18.60142, 49.761961], [18.599191, 49.761092], [18.598414, 49.760771], [18.571414, 49.751196], [18.514647, 49.729227], [18.440711, 49.754048], [18.440706, 49.75405], [18.42947, 49.757538], [18.392503, 49.765424], [18.333831, 49.805989], [18.30026, 49.834117], [18.271848, 49.850037], [18.269375, 49.850429], [18.268965, 49.850415], [18.262944, 49.847584], [18.1889, 49.780813], [18.187317, 49.77758], [18.123394, 49.698108], [18.080621, 49.684993], [18.077846, 49.682701], [18.021813, 49.616903], [18.001926, 49.607388], [17.984468, 49.596753], [17.985261, 49.593241], [17.98827, 49.593921]]], "type": "Polygon"}}], "metadata": {"attribution": "openrouteservice.org | OpenStreetMap contributors", "service": "isochrones", "timestamp": 1779139459768, "query": {"profile": "driving-car", "profileName": "driving-car", "locations": [[18.3389397, 49.6754886]], "range": [1200.0], "range_type": "time", "smoothing": 25.0}, "engine": {"version": "9.9.0", "build_date": "2026-04-20T10:23:42Z", "graph_date": "2026-05-03T11:59:56Z", "osm_date": "2026-04-26T23:59:57Z"}}}