{
"type": "FeatureCollection",
"name": "osm_isochrones",
"crs": { "type": "name", "properties": { "name": "urn:ogc:def:crs:OGC:1.3:CRS84" } },
"features": [
{ "type": "Feature", "properties": { "minutes": 5 }, "geometry": { "type": "Polygon", "coordinates": [ [ [ 18.2805025, 49.7420383 ], [ 18.2801199, 49.7434582 ], [ 18.2812382, 49.7428569 ], [ 18.2835146, 49.7361785 ], [ 18.2844244, 49.7351347 ], [ 18.2874048, 49.7328609 ], [ 18.2861705, 49.7288943 ], [ 18.2930315, 49.7064949 ], [ 18.2998181, 49.704358 ], [ 18.3023726, 49.7062012 ], [ 18.3027629, 49.7090766 ], [ 18.3034501, 49.710549 ], [ 18.3038027, 49.7107895 ], [ 18.3050772, 49.7098998 ], [ 18.3061961, 49.7064759 ], [ 18.3088767, 49.7039776 ], [ 18.3120641, 49.7015464 ], [ 18.3158933, 49.6988171 ], [ 18.3191832, 49.7010016 ], [ 18.3196101, 49.7005614 ], [ 18.3201474, 49.6989833 ], [ 18.321272, 49.6951436 ], [ 18.3221999, 49.6941803 ], [ 18.323098, 49.693399 ], [ 18.3274613, 49.6942208 ], [ 18.3275784, 49.6983559 ], [ 18.3287422, 49.6965463 ], [ 18.3307452, 49.6937242 ], [ 18.3328333, 49.69185 ], [ 18.335968, 49.6903884 ], [ 18.3366485, 49.6947264 ], [ 18.3377278, 49.6986895 ], [ 18.341032, 49.7004666 ], [ 18.3382349, 49.7043972 ], [ 18.3336635, 49.7027243 ], [ 18.3300085, 49.706809 ], [ 18.3290898, 49.7066066 ], [ 18.3276404, 49.7079625 ], [ 18.3267962, 49.7104505 ], [ 18.3260123, 49.7120931 ], [ 18.3257533, 49.7125076 ], [ 18.3254022, 49.7130138 ], [ 18.3287015, 49.7112328 ], [ 18.3326432, 49.7096376 ], [ 18.3325831, 49.7066673 ], [ 18.3364116, 49.7052617 ], [ 18.3392252, 49.7043231 ], [ 18.3420207, 49.7042028 ], [ 18.3448281, 49.7032254 ], [ 18.3459256, 49.7075347 ], [ 18.3484116, 49.7052903 ], [ 18.350771, 49.7022302 ], [ 18.35166, 49.701896 ], [ 18.3518223, 49.7018352 ], [ 18.3519291, 49.701795 ], [ 18.356035, 49.6999804 ], [ 18.3566093, 49.7064416 ], [ 18.358333, 49.7004989 ], [ 18.3594437, 49.6998646 ], [ 18.3627757, 49.6992823 ], [ 18.3678534, 49.7101156 ], [ 18.3690108, 49.7100038 ], [ 18.370342, 49.6975071 ], [ 18.3722688, 49.6937922 ], [ 18.3755307, 49.6909725 ], [ 18.3777384, 49.6936208 ], [ 18.3799854, 49.6898319 ], [ 18.3816003, 49.6899 ], [ 18.3840945, 49.6934842 ], [ 18.3840752, 49.6893008 ], [ 18.3840086, 49.6874383 ], [ 18.3840018, 49.6870433 ], [ 18.3866348, 49.6844418 ], [ 18.3885865, 49.6852151 ], [ 18.4066384, 49.6786334 ], [ 18.4190956, 49.6759725 ], [ 18.4218875, 49.6754184 ], [ 18.424993, 49.6788997 ], [ 18.4282967, 49.67737 ], [ 18.4292432, 49.6734824 ], [ 18.4297181, 49.671391 ], [ 18.4358609, 49.6723536 ], [ 18.4307234, 49.669654 ], [ 18.4262908, 49.6695275 ], [ 18.4253074, 49.6688005 ], [ 18.4237383, 49.6659819 ], [ 18.4218705, 49.6689508 ], [ 18.4182802, 49.6714644 ], [ 18.4175366, 49.6711422 ], [ 18.4152741, 49.6737216 ], [ 18.3955343, 49.6747395 ], [ 18.3878194, 49.6823034 ], [ 18.3877603, 49.6818053 ], [ 18.387674, 49.6793621 ], [ 18.3864733, 49.6754878 ], [ 18.3865374, 49.6736895 ], [ 18.3863531, 49.6755048 ], [ 18.3843967, 49.6783763 ], [ 18.3814712, 49.6787773 ], [ 18.3791949, 49.6762482 ], [ 18.3806151, 49.6740097 ], [ 18.3811631, 49.6731023 ], [ 18.3802473, 49.6734037 ], [ 18.3801684, 49.6734775 ], [ 18.3793223, 49.6742456 ], [ 18.3761099, 49.6708879 ], [ 18.3767096, 49.668338 ], [ 18.3752306, 49.6707743 ], [ 18.3757615, 49.674406 ], [ 18.3725416, 49.6751658 ], [ 18.369546, 49.6719147 ], [ 18.3693052, 49.6687203 ], [ 18.3717446, 49.6671626 ], [ 18.3714851, 49.6662072 ], [ 18.3707904, 49.6660967 ], [ 18.3725753, 49.6594721 ], [ 18.3682723, 49.663802 ], [ 18.3659508, 49.6651518 ], [ 18.3655236, 49.6664454 ], [ 18.3641216, 49.6697081 ], [ 18.3623405, 49.670479 ], [ 18.3604761, 49.6704559 ], [ 18.3600488, 49.6657222 ], [ 18.3601071, 49.6639904 ], [ 18.3573701, 49.6629203 ], [ 18.3580616, 49.6585528 ], [ 18.3585096, 49.65831 ], [ 18.363103, 49.6579627 ], [ 18.362317, 49.6549367 ], [ 18.3635479, 49.6513993 ], [ 18.3660621, 49.6481888 ], [ 18.3688013, 49.6468443 ], [ 18.3723058, 49.6482446 ], [ 18.372291, 49.6477276 ], [ 18.3722439, 49.6459118 ], [ 18.3722426, 49.6458471 ], [ 18.3717185, 49.6435345 ], [ 18.3714183, 49.6425254 ], [ 18.3703959, 49.641622 ], [ 18.3695219, 49.6408893 ], [ 18.3677429, 49.6421183 ], [ 18.3646906, 49.6397637 ], [ 18.3634253, 49.6394555 ], [ 18.362898, 49.6402066 ], [ 18.3595671, 49.6414006 ], [ 18.3572221, 49.6385556 ], [ 18.3571954, 49.6373643 ], [ 18.3569279, 49.6362381 ], [ 18.3593126, 49.6304137 ], [ 18.359442, 49.63041 ], [ 18.3601527, 49.6304326 ], [ 18.360153, 49.6302767 ], [ 18.3578111, 49.6301282 ], [ 18.3565289, 49.6316635 ], [ 18.354371, 49.6346247 ], [ 18.3542998, 49.63789 ], [ 18.3544759, 49.6378552 ], [ 18.3561643, 49.6434672 ], [ 18.3554042, 49.6439024 ], [ 18.357531, 49.6444178 ], [ 18.3593296, 49.6466255 ], [ 18.3598759, 49.648121 ], [ 18.358603, 49.6523967 ], [ 18.3563245, 49.6513212 ], [ 18.3534936, 49.6505177 ], [ 18.3507399, 49.650403 ], [ 18.3488155, 49.6471436 ], [ 18.3505137, 49.6508367 ], [ 18.3507975, 49.6516744 ], [ 18.3511275, 49.6524564 ], [ 18.3508552, 49.6564127 ], [ 18.3478529, 49.6571835 ], [ 18.3463092, 49.6594897 ], [ 18.3437122, 49.6626845 ], [ 18.3420287, 49.6644689 ], [ 18.3377521, 49.6636879 ], [ 18.3367634, 49.6629671 ], [ 18.3339708, 49.6638997 ], [ 18.3330346, 49.6647017 ], [ 18.3295235, 49.6649673 ], [ 18.3298983, 49.6603119 ], [ 18.3270472, 49.6568278 ], [ 18.3269355, 49.6566356 ], [ 18.3265829, 49.656732 ], [ 18.3247382, 49.6594098 ], [ 18.3205913, 49.6590383 ], [ 18.317897, 49.6610275 ], [ 18.3206861, 49.6633116 ], [ 18.3220191, 49.6646 ], [ 18.3228128, 49.6684787 ], [ 18.3207193, 49.6697115 ], [ 18.317792, 49.6690055 ], [ 18.3154277, 49.6671623 ], [ 18.3119978, 49.6676311 ], [ 18.3104907, 49.6649239 ], [ 18.3109628, 49.6572901 ], [ 18.3160081, 49.6497922 ], [ 18.3162875, 49.6497069 ], [ 18.3228953, 49.6442464 ], [ 18.3249489, 49.6462827 ], [ 18.3255824, 49.6461677 ], [ 18.3269548, 49.645212 ], [ 18.3272272, 49.6446743 ], [ 18.3273603, 49.6433662 ], [ 18.3269262, 49.6428677 ], [ 18.3241999, 49.6406862 ], [ 18.3222486, 49.6399388 ], [ 18.3198589, 49.6399599 ], [ 18.3191735, 49.6407982 ], [ 18.3218359, 49.6425805 ], [ 18.3160328, 49.6495945 ], [ 18.3105155, 49.6514766 ], [ 18.3083629, 49.6530834 ], [ 18.3086309, 49.6538977 ], [ 18.3092886, 49.6561213 ], [ 18.3030554, 49.6619213 ], [ 18.3029876, 49.6618053 ], [ 18.3028074, 49.6618844 ], [ 18.2998711, 49.6637079 ], [ 18.295369, 49.6642636 ], [ 18.2905643, 49.6646639 ], [ 18.2905742, 49.6633122 ], [ 18.2897476, 49.6603547 ], [ 18.2884005, 49.6602443 ], [ 18.2839889, 49.6593677 ], [ 18.2789279, 49.6591509 ], [ 18.2791189, 49.6589391 ], [ 18.2782106, 49.6591526 ], [ 18.265027, 49.6603273 ], [ 18.2672273, 49.6611113 ], [ 18.2681408, 49.6612848 ], [ 18.27689, 49.6605637 ], [ 18.2748687, 49.6626662 ], [ 18.2752993, 49.6627376 ], [ 18.2776205, 49.6607069 ], [ 18.2874374, 49.6626878 ], [ 18.2885901, 49.6643347 ], [ 18.2913809, 49.6670973 ], [ 18.2981427, 49.6681971 ], [ 18.299767, 49.6651281 ], [ 18.3049778, 49.6702756 ], [ 18.3066078, 49.6727523 ], [ 18.3082069, 49.6728253 ], [ 18.3103005, 49.6717171 ], [ 18.3133247, 49.6720993 ], [ 18.3161069, 49.6721081 ], [ 18.320199, 49.6711717 ], [ 18.3234916, 49.672098 ], [ 18.3247262, 49.6734405 ], [ 18.3254305, 49.6768899 ], [ 18.324628, 49.6812826 ], [ 18.3203258, 49.6827893 ], [ 18.3190732, 49.6812568 ], [ 18.317747, 49.6816877 ], [ 18.3133854, 49.6791171 ], [ 18.3171912, 49.6822491 ], [ 18.317803, 49.6868879 ], [ 18.3152988, 49.6902598 ], [ 18.3125974, 49.6909544 ], [ 18.3126344, 49.6924015 ], [ 18.3141367, 49.6954959 ], [ 18.3063598, 49.6921382 ], [ 18.3048256, 49.6897977 ], [ 18.301615, 49.6908143 ], [ 18.2995705, 49.6915111 ], [ 18.2969448, 49.691365 ], [ 18.2955086, 49.6887167 ], [ 18.2918578, 49.6891344 ], [ 18.2917156, 49.6849033 ], [ 18.2915286, 49.6843314 ], [ 18.2882344, 49.6870753 ], [ 18.2858644, 49.6867528 ], [ 18.2833649, 49.6847268 ], [ 18.2822916, 49.685662 ], [ 18.2787367, 49.6871209 ], [ 18.2761553, 49.6869317 ], [ 18.2749738, 49.6869359 ], [ 18.2748335, 49.6869393 ], [ 18.2762221, 49.688153 ], [ 18.272739, 49.6987805 ], [ 18.2783831, 49.6979587 ], [ 18.2831821, 49.6973607 ], [ 18.2809502, 49.6888999 ], [ 18.2822978, 49.6890512 ], [ 18.285858, 49.6905994 ], [ 18.2900292, 49.6919495 ], [ 18.2912704, 49.6925311 ], [ 18.2926304, 49.6914699 ], [ 18.2967222, 49.6919173 ], [ 18.2991141, 49.6917282 ], [ 18.2994711, 49.6917883 ], [ 18.299922, 49.6918642 ], [ 18.3024798, 49.6915429 ], [ 18.3047901, 49.6924248 ], [ 18.305747, 49.6922809 ], [ 18.3060709, 49.7014255 ], [ 18.305693, 49.7024566 ], [ 18.2992213, 49.7039816 ], [ 18.2977972, 49.7033185 ], [ 18.2953688, 49.7009862 ], [ 18.2932797, 49.6996592 ], [ 18.2920666, 49.7005758 ], [ 18.2901254, 49.7046917 ], [ 18.2851017, 49.7287085 ], [ 18.2817251, 49.7314446 ], [ 18.2819469, 49.7328811 ], [ 18.2822899, 49.736035 ], [ 18.2805025, 49.7420383 ] ] ] } },
{ "type": "Feature", "properties": { "minutes": 10 }, "geometry": { "type": "Polygon", "coordinates": [ [ [ 18.2643643, 49.8052093 ], [ 18.2679075, 49.811123 ], [ 18.2762001, 49.8153229 ], [ 18.2832026, 49.810299 ], [ 18.2914986, 49.8063147 ], [ 18.2952059, 49.803758 ], [ 18.294194, 49.8031735 ], [ 18.2892543, 49.788933 ], [ 18.2920412, 49.785223 ], [ 18.3022698, 49.7800156 ], [ 18.3142176, 49.7754522 ], [ 18.3153215, 49.7725228 ], [ 18.3167479, 49.7692422 ], [ 18.3168875, 49.7641965 ], [ 18.3166239, 49.7633549 ], [ 18.3203321, 49.7485067 ], [ 18.3316601, 49.7525384 ], [ 18.3408978, 49.7407003 ], [ 18.3514153, 49.7310975 ], [ 18.356834, 49.7330264 ], [ 18.3605068, 49.7357777 ], [ 18.3676347, 49.7384747 ], [ 18.3755689, 49.749384 ], [ 18.3792298, 49.7538549 ], [ 18.3804779, 49.7539952 ], [ 18.3816554, 49.7537908 ], [ 18.3898991, 49.7464209 ], [ 18.396003, 49.7444747 ], [ 18.3898007, 49.7397902 ], [ 18.3972688, 49.7252561 ], [ 18.4019301, 49.7202028 ], [ 18.4071393, 49.7187715 ], [ 18.4135715, 49.7359164 ], [ 18.4108685, 49.7179562 ], [ 18.4153765, 49.7173008 ], [ 18.4203051, 49.7168908 ], [ 18.4286024, 49.7197384 ], [ 18.4399202, 49.7126082 ], [ 18.4478553, 49.7157785 ], [ 18.4493645, 49.7163149 ], [ 18.4596604, 49.7097404 ], [ 18.4635102, 49.7011049 ], [ 18.4677899, 49.6965991 ], [ 18.4811956, 49.6978643 ], [ 18.4930548, 49.69561 ], [ 18.4990815, 49.6928324 ], [ 18.5062846, 49.6930888 ], [ 18.5149303, 49.7016335 ], [ 18.5200463, 49.7039947 ], [ 18.5338203, 49.7051427 ], [ 18.5397515, 49.6921796 ], [ 18.5514933, 49.6864188 ], [ 18.5648954, 49.6815883 ], [ 18.5992692, 49.725745 ], [ 18.5680125, 49.6793406 ], [ 18.566924, 49.6795956 ], [ 18.5637845, 49.6803219 ], [ 18.5497619, 49.6775141 ], [ 18.5463518, 49.6749512 ], [ 18.5408717, 49.6756092 ], [ 18.5303569, 49.6683566 ], [ 18.5206479, 49.6725917 ], [ 18.5073352, 49.6815429 ], [ 18.4997844, 49.6830229 ], [ 18.4941389, 49.6836485 ], [ 18.4881578, 49.6708286 ], [ 18.4840726, 49.6677399 ], [ 18.4795732, 49.6674678 ], [ 18.4742838, 49.678754 ], [ 18.462507, 49.6715267 ], [ 18.4623393, 49.6710007 ], [ 18.4600076, 49.6668781 ], [ 18.4623442, 49.6532152 ], [ 18.4699175, 49.6449076 ], [ 18.4576357, 49.6336994 ], [ 18.4575748, 49.6327457 ], [ 18.4568281, 49.6333252 ], [ 18.4485901, 49.6392951 ], [ 18.4469665, 49.6400004 ], [ 18.436804, 49.6460664 ], [ 18.4272883, 49.644638 ], [ 18.4149699, 49.6477594 ], [ 18.4072467, 49.6494799 ], [ 18.3949351, 49.6385409 ], [ 18.4030715, 49.6239841 ], [ 18.4078176, 49.6230635 ], [ 18.4096355, 49.6192335 ], [ 18.40601, 49.6194305 ], [ 18.3982725, 49.6181612 ], [ 18.3877081, 49.6107297 ], [ 18.3871198, 49.6100239 ], [ 18.3848864, 49.6125313 ], [ 18.3837157, 49.614344 ], [ 18.367696, 49.6142527 ], [ 18.3671451, 49.6105849 ], [ 18.3671408, 49.6102905 ], [ 18.3650653, 49.5959477 ], [ 18.3653203, 49.5934767 ], [ 18.3671336, 49.5839476 ], [ 18.3674685, 49.5828032 ], [ 18.3618367, 49.5725995 ], [ 18.365859, 49.5611297 ], [ 18.3709418, 49.5576783 ], [ 18.3705365, 49.556987 ], [ 18.3517731, 49.561155 ], [ 18.3484922, 49.5597424 ], [ 18.3483621, 49.5648932 ], [ 18.3502924, 49.5685181 ], [ 18.3436968, 49.5811291 ], [ 18.3403657, 49.5818086 ], [ 18.3317139, 49.5783602 ], [ 18.3310301, 49.5783782 ], [ 18.3317735, 49.5856044 ], [ 18.3359027, 49.5950027 ], [ 18.3282369, 49.6050315 ], [ 18.3212005, 49.6112844 ], [ 18.3155377, 49.6184282 ], [ 18.3027599, 49.6274066 ], [ 18.2906732, 49.6195512 ], [ 18.2776833, 49.619404 ], [ 18.2701466, 49.616265 ], [ 18.2690605, 49.6167219 ], [ 18.2684238, 49.6179419 ], [ 18.273266, 49.6193249 ], [ 18.2788791, 49.6214788 ], [ 18.2870716, 49.6326676 ], [ 18.2910277, 49.6481175 ], [ 18.2772848, 49.6475231 ], [ 18.2756799, 49.6475726 ], [ 18.265027, 49.6603273 ], [ 18.2517206, 49.6563717 ], [ 18.2435289, 49.6457117 ], [ 18.2387299, 49.6460687 ], [ 18.2227762, 49.6413361 ], [ 18.2300151, 49.6279968 ], [ 18.2333137, 49.625621 ], [ 18.2229323, 49.6232563 ], [ 18.2109596, 49.6227375 ], [ 18.2105355, 49.626502 ], [ 18.2131729, 49.6327551 ], [ 18.2130361, 49.6355024 ], [ 18.1917753, 49.6382767 ], [ 18.1918607, 49.6355494 ], [ 18.1816794, 49.6285384 ], [ 18.1771841, 49.6286632 ], [ 18.1774531, 49.6291806 ], [ 18.1777175, 49.6292567 ], [ 18.1865799, 49.6401839 ], [ 18.1664887, 49.6425881 ], [ 18.1610094, 49.6402708 ], [ 18.1570885, 49.6387829 ], [ 18.1435058, 49.6323585 ], [ 18.1354204, 49.6259863 ], [ 18.1351031, 49.6262395 ], [ 18.1259591, 49.6386739 ], [ 18.1179839, 49.6355316 ], [ 18.1023188, 49.6362972 ], [ 18.1162643, 49.639523 ], [ 18.124897, 49.6452851 ], [ 18.1382368, 49.6525536 ], [ 18.1438954, 49.6581867 ], [ 18.1578919, 49.6497271 ], [ 18.1664913, 49.6427162 ], [ 18.1844208, 49.646146 ], [ 18.1841187, 49.6468025 ], [ 18.1931082, 49.6432145 ], [ 18.2141972, 49.640554 ], [ 18.2132466, 49.6463166 ], [ 18.212126, 49.6491915 ], [ 18.212649, 49.6527955 ], [ 18.214335, 49.6584159 ], [ 18.2157809, 49.6617904 ], [ 18.2203824, 49.6769958 ], [ 18.221352, 49.6787308 ], [ 18.2231599, 49.6944884 ], [ 18.2212913, 49.7009091 ], [ 18.2214173, 49.702696 ], [ 18.2274113, 49.7055666 ], [ 18.2321897, 49.7086803 ], [ 18.2352007, 49.7242108 ], [ 18.2305268, 49.7275132 ], [ 18.2295782, 49.7279474 ], [ 18.2246483, 49.7331931 ], [ 18.2284054, 49.7334945 ], [ 18.230535, 49.7341252 ], [ 18.2353597, 49.73676 ], [ 18.2363956, 49.7377023 ], [ 18.2383322, 49.7387835 ], [ 18.2469888, 49.7461851 ], [ 18.2383829, 49.7564072 ], [ 18.2343051, 49.7581226 ], [ 18.2287248, 49.7623245 ], [ 18.230972, 49.7637997 ], [ 18.2446514, 49.7732262 ], [ 18.2502923, 49.7811662 ], [ 18.2509559, 49.790089 ], [ 18.2515162, 49.7922177 ], [ 18.2524409, 49.7925543 ], [ 18.2607185, 49.7975779 ], [ 18.2643643, 49.8052093 ] ] ] } },
{ "type": "Feature", "properties": { "minutes": 15 }, "geometry": { "type": "Polygon", "coordinates": [ [ [ 18.1789663, 49.8165989 ], [ 18.1662075, 49.8190468 ], [ 18.1822613, 49.8174282 ], [ 18.1855672, 49.8179957 ], [ 18.1990667, 49.8121864 ], [ 18.2085746, 49.814782 ], [ 18.2131441, 49.8230012 ], [ 18.2184205, 49.8310071 ], [ 18.2242488, 49.8339105 ], [ 18.2349399, 49.8321426 ], [ 18.240451, 49.8382233 ], [ 18.2459965, 49.8525907 ], [ 18.255298, 49.860683 ], [ 18.2555426, 49.8608557 ], [ 18.2582247, 49.8625568 ], [ 18.2730637, 49.8606483 ], [ 18.2883631, 49.8598615 ], [ 18.2928467, 49.8626103 ], [ 18.2936768, 49.8625302 ], [ 18.3052647, 49.8524236 ], [ 18.3160662, 49.8480799 ], [ 18.3195604, 49.8428009 ], [ 18.3267207, 49.8307853 ], [ 18.3335255, 49.8285586 ], [ 18.334513, 49.8285028 ], [ 18.3355096, 49.8284456 ], [ 18.3446156, 49.8285961 ], [ 18.3461491, 49.8271677 ], [ 18.3536799, 49.8182955 ], [ 18.3618064, 49.8224737 ], [ 18.3642426, 49.8235746 ], [ 18.3714547, 49.8252648 ], [ 18.3736545, 49.8167201 ], [ 18.3717239, 49.8153472 ], [ 18.369633, 49.8151554 ], [ 18.3655805, 49.8145992 ], [ 18.3582154, 49.8021973 ], [ 18.3709199, 49.7943189 ], [ 18.3776733, 49.7930843 ], [ 18.3824579, 49.7924855 ], [ 18.3882266, 49.7883307 ], [ 18.4010901, 49.7902091 ], [ 18.4020207, 49.7904144 ], [ 18.4023304, 49.7900443 ], [ 18.4091726, 49.7769752 ], [ 18.4204322, 49.7754103 ], [ 18.4300683, 49.7687827 ], [ 18.43614, 49.7687471 ], [ 18.4405769, 49.7668277 ], [ 18.444896, 49.762892 ], [ 18.4516525, 49.7573158 ], [ 18.4606455, 49.7510512 ], [ 18.4636668, 49.7465938 ], [ 18.4646761, 49.7454583 ], [ 18.4673041, 49.7417723 ], [ 18.4755106, 49.7316288 ], [ 18.4813428, 49.731737 ], [ 18.494661, 49.7400803 ], [ 18.4953944, 49.7411222 ], [ 18.4963373, 49.741001 ], [ 18.5056247, 49.7322796 ], [ 18.5115744, 49.7343269 ], [ 18.5234129, 49.7389991 ], [ 18.5240228, 49.7394567 ], [ 18.5265819, 49.7379923 ], [ 18.5342503, 49.7344398 ], [ 18.5412793, 49.731499 ], [ 18.5535909, 49.7355765 ], [ 18.5654402, 49.7466486 ], [ 18.5592258, 49.7554746 ], [ 18.5578795, 49.756109 ], [ 18.55529, 49.7570644 ], [ 18.5543303, 49.7574124 ], [ 18.558748, 49.7575757 ], [ 18.5644289, 49.7570293 ], [ 18.5690027, 49.7528417 ], [ 18.5820787, 49.7563766 ], [ 18.5866302, 49.7648935 ], [ 18.5873323, 49.7662297 ], [ 18.5897985, 49.7679339 ], [ 18.5971506, 49.7801581 ], [ 18.6013642, 49.777343 ], [ 18.6074157, 49.7687909 ], [ 18.6079601, 49.7679127 ], [ 18.6122119, 49.7617713 ], [ 18.6252928, 49.7644192 ], [ 18.626507, 49.7653712 ], [ 18.6346113, 49.7671118 ], [ 18.6412384, 49.7661241 ], [ 18.6403684, 49.7514723 ], [ 18.6426496, 49.7486768 ], [ 18.6420567, 49.7465898 ], [ 18.6397386, 49.7412368 ], [ 18.6357322, 49.7328683 ], [ 18.6329942, 49.7320051 ], [ 18.6265019, 49.7179143 ], [ 18.6359897, 49.7074077 ], [ 18.6442967, 49.7066533 ], [ 18.648148, 49.7054991 ], [ 18.6533743, 49.7021798 ], [ 18.6518773, 49.6992266 ], [ 18.6474353, 49.699446 ], [ 18.6445193, 49.700047 ], [ 18.6318724, 49.6983463 ], [ 18.6317112, 49.6845947 ], [ 18.6366148, 49.6706884 ], [ 18.6513579, 49.6620736 ], [ 18.651984, 49.6626445 ], [ 18.6591776, 49.6694406 ], [ 18.6601159, 49.6690335 ], [ 18.6633769, 49.6620373 ], [ 18.6639313, 49.6588814 ], [ 18.6543185, 49.6531693 ], [ 18.6519286, 49.654489 ], [ 18.6498469, 49.6591401 ], [ 18.6373244, 49.6649417 ], [ 18.6334348, 49.6640546 ], [ 18.632368, 49.6657457 ], [ 18.629788, 49.6683705 ], [ 18.6243459, 49.6700974 ], [ 18.6146888, 49.6614786 ], [ 18.5989774, 49.665516 ], [ 18.5942158, 49.6613344 ], [ 18.5855049, 49.6538235 ], [ 18.5748969, 49.6454828 ], [ 18.5712639, 49.6411992 ], [ 18.5711962, 49.6414252 ], [ 18.5711395, 49.6416145 ], [ 18.5719826, 49.6450432 ], [ 18.5680126, 49.6536376 ], [ 18.5561362, 49.6534541 ], [ 18.5463008, 49.6605204 ], [ 18.539005, 49.6491365 ], [ 18.5373112, 49.6413968 ], [ 18.5298452, 49.6440683 ], [ 18.5208118, 49.648347 ], [ 18.5109892, 49.6461854 ], [ 18.5084997, 49.6494234 ], [ 18.5004173, 49.6556212 ], [ 18.4883076, 49.6488688 ], [ 18.4861132, 49.63495 ], [ 18.4734056, 49.6325898 ], [ 18.475022, 49.6211372 ], [ 18.4758611, 49.6199723 ], [ 18.4838447, 49.6145444 ], [ 18.4892325, 49.6100238 ], [ 18.491047, 49.6091179 ], [ 18.4925265, 49.6085759 ], [ 18.5043001, 49.6058136 ], [ 18.503765, 49.6047063 ], [ 18.4888223, 49.6045455 ], [ 18.4862911, 49.6011536 ], [ 18.4787947, 49.6013057 ], [ 18.4760953, 49.5883102 ], [ 18.4729877, 49.5852971 ], [ 18.4734075, 49.5969693 ], [ 18.4646715, 49.6045217 ], [ 18.4552409, 49.6061066 ], [ 18.4544144, 49.608583 ], [ 18.4543759, 49.6090735 ], [ 18.4643108, 49.6201803 ], [ 18.4573447, 49.6251099 ], [ 18.45657, 49.6253106 ], [ 18.4555627, 49.6256754 ], [ 18.4521778, 49.626353 ], [ 18.4375362, 49.6279891 ], [ 18.4327723, 49.6204836 ], [ 18.432375, 49.6042992 ], [ 18.4263579, 49.592241 ], [ 18.42548, 49.5888752 ], [ 18.4158879, 49.5938919 ], [ 18.4100027, 49.5925887 ], [ 18.4053239, 49.5808345 ], [ 18.4120506, 49.5739511 ], [ 18.4230118, 49.5653108 ], [ 18.4153837, 49.5677129 ], [ 18.4019695, 49.565966 ], [ 18.4005895, 49.5660713 ], [ 18.3974911, 49.5662327 ], [ 18.3899611, 49.5641224 ], [ 18.3879762, 49.5482288 ], [ 18.3937693, 49.5407118 ], [ 18.4088473, 49.5475559 ], [ 18.3961621, 49.5333357 ], [ 18.3983372, 49.5308587 ], [ 18.4020463, 49.526697 ], [ 18.3922091, 49.5326724 ], [ 18.3848647, 49.530575 ], [ 18.3823665, 49.5291457 ], [ 18.3783462, 49.5258972 ], [ 18.3751313, 49.5391486 ], [ 18.3598122, 49.5420375 ], [ 18.3549649, 49.5407579 ], [ 18.343477, 49.5295126 ], [ 18.3346635, 49.5213928 ], [ 18.3335399, 49.5203228 ], [ 18.3242126, 49.525431 ], [ 18.3188372, 49.5303839 ], [ 18.3063899, 49.5334154 ], [ 18.3048797, 49.5332979 ], [ 18.3010309, 49.5325848 ], [ 18.2950865, 49.5355547 ], [ 18.2886782, 49.5403974 ], [ 18.2889408, 49.540646 ], [ 18.3038691, 49.5453282 ], [ 18.3145962, 49.5548534 ], [ 18.3252644, 49.5554189 ], [ 18.3277348, 49.5650558 ], [ 18.3254943, 49.569099 ], [ 18.3224219, 49.577065 ], [ 18.3242973, 49.5801481 ], [ 18.3317735, 49.5856044 ], [ 18.3359027, 49.5950027 ], [ 18.3282369, 49.6050315 ], [ 18.3212005, 49.6112844 ], [ 18.3155377, 49.6184282 ], [ 18.3027599, 49.6274066 ], [ 18.2906732, 49.6195512 ], [ 18.3009769, 49.5999375 ], [ 18.3022208, 49.5997588 ], [ 18.3034995, 49.597403 ], [ 18.3028998, 49.5948286 ], [ 18.30216, 49.593872 ], [ 18.3012758, 49.5937566 ], [ 18.2942239, 49.5976005 ], [ 18.2899098, 49.6000117 ], [ 18.2832462, 49.6092591 ], [ 18.2701466, 49.616265 ], [ 18.2645509, 49.6103371 ], [ 18.2618084, 49.5988538 ], [ 18.2624631, 49.5932503 ], [ 18.2628301, 49.5890085 ], [ 18.263532, 49.5806092 ], [ 18.2639488, 49.5762859 ], [ 18.2551069, 49.5801245 ], [ 18.2481013, 49.5897389 ], [ 18.2352863, 49.5926252 ], [ 18.2264729, 49.599256 ], [ 18.2107642, 49.6017305 ], [ 18.209805, 49.5921325 ], [ 18.2035027, 49.5975832 ], [ 18.1927483, 49.5905895 ], [ 18.1907882, 49.5890022 ], [ 18.1901702, 49.5888717 ], [ 18.1755409, 49.5955792 ], [ 18.1740367, 49.5970972 ], [ 18.1685651, 49.6021863 ], [ 18.1541165, 49.6058184 ], [ 18.1469102, 49.5934624 ], [ 18.1384116, 49.5885479 ], [ 18.1367685, 49.5875965 ], [ 18.1355474, 49.5891401 ], [ 18.1284089, 49.6033993 ], [ 18.119998, 49.6108962 ], [ 18.1194183, 49.6109374 ], [ 18.1046587, 49.607252 ], [ 18.1124516, 49.5953732 ], [ 18.1133138, 49.5933538 ], [ 18.1141871, 49.5918303 ], [ 18.1141897, 49.5911176 ], [ 18.1141375, 49.5908033 ], [ 18.1119499, 49.5906303 ], [ 18.1016058, 49.5943009 ], [ 18.0938387, 49.5951546 ], [ 18.0812914, 49.5983145 ], [ 18.073836, 49.5997298 ], [ 18.0761256, 49.6020534 ], [ 18.0802004, 49.6041623 ], [ 18.0926515, 49.6111992 ], [ 18.0954612, 49.617276 ], [ 18.1010903, 49.6177163 ], [ 18.107669, 49.6248185 ], [ 18.098894, 49.6355096 ], [ 18.0884303, 49.6324237 ], [ 18.0877906, 49.6321157 ], [ 18.0820653, 49.6283427 ], [ 18.0756629, 49.6234923 ], [ 18.0735827, 49.621481 ], [ 18.0678173, 49.619384 ], [ 18.065219, 49.6178602 ], [ 18.0640519, 49.6171774 ], [ 18.0631626, 49.6166562 ], [ 18.0531981, 49.6095438 ], [ 18.0357001, 49.6012064 ], [ 18.0349749, 49.6000122 ], [ 18.0216772, 49.597263 ], [ 18.0181226, 49.5960145 ], [ 18.0112208, 49.5979408 ], [ 18.0021641, 49.6026458 ], [ 17.9979753, 49.6079195 ], [ 18.0004335, 49.6087639 ], [ 18.0031655, 49.6085043 ], [ 18.0043349, 49.6083477 ], [ 18.0088624, 49.6059442 ], [ 18.0226689, 49.6065024 ], [ 18.0279199, 49.6075446 ], [ 18.0289189, 49.6076861 ], [ 18.0307934, 49.6075062 ], [ 18.0327954, 49.6037116 ], [ 18.051482, 49.6098932 ], [ 18.0608873, 49.6189996 ], [ 18.0652563, 49.624017 ], [ 18.0713631, 49.632522 ], [ 18.0756118, 49.6342677 ], [ 18.0791416, 49.633618 ], [ 18.0876661, 49.6461093 ], [ 18.0854696, 49.6513228 ], [ 18.0850813, 49.6525242 ], [ 18.0834162, 49.6582215 ], [ 18.08199, 49.6643981 ], [ 18.0796888, 49.6804417 ], [ 18.0696291, 49.6904578 ], [ 18.0695146, 49.6914505 ], [ 18.0714586, 49.6914501 ], [ 18.0796167, 49.6833389 ], [ 18.0919823, 49.6775205 ], [ 18.0926405, 49.6774602 ], [ 18.107704, 49.6826722 ], [ 18.1145358, 49.6904546 ], [ 18.1205275, 49.6942537 ], [ 18.1214791, 49.6949272 ], [ 18.1240346, 49.6943646 ], [ 18.1285054, 49.6928012 ], [ 18.1408164, 49.6942033 ], [ 18.1443028, 49.6984246 ], [ 18.1456945, 49.7019667 ], [ 18.1478896, 49.7075598 ], [ 18.1507501, 49.7099248 ], [ 18.1577038, 49.713258 ], [ 18.1584617, 49.713757 ], [ 18.1725261, 49.7213318 ], [ 18.1686016, 49.7341858 ], [ 18.1691472, 49.7346247 ], [ 18.1833995, 49.7346375 ], [ 18.1931728, 49.7472192 ], [ 18.1934923, 49.7481723 ], [ 18.1956814, 49.7516973 ], [ 18.1978481, 49.7534988 ], [ 18.2013864, 49.7578038 ], [ 18.2036034, 49.7652852 ], [ 18.2046457, 49.7678614 ], [ 18.1867311, 49.7790703 ], [ 18.1829788, 49.7779219 ], [ 18.1810599, 49.7774116 ], [ 18.1759454, 49.7790289 ], [ 18.1736275, 49.7795552 ], [ 18.1787704, 49.7801791 ], [ 18.1829964, 49.7808408 ], [ 18.1867821, 49.7792459 ], [ 18.2080389, 49.7747332 ], [ 18.2101227, 49.7838983 ], [ 18.2148852, 49.788225 ], [ 18.2172086, 49.7967698 ], [ 18.2125827, 49.8059932 ], [ 18.2019206, 49.8054774 ], [ 18.1986722, 49.8048629 ], [ 18.198085, 49.8048177 ], [ 18.1950957, 49.806616 ], [ 18.1840917, 49.81461 ], [ 18.1789663, 49.8165989 ] ] ] } },
{ "type": "Feature", "properties": { "minutes": 20 }, "geometry": { "type": "Polygon", "coordinates": [ [ [ 18.0968459, 49.875893 ], [ 18.0939306, 49.8758975 ], [ 18.0955256, 49.8766932 ], [ 18.0968344, 49.8771651 ], [ 18.1192526, 49.8599526 ], [ 18.1283007, 49.8570941 ], [ 18.1286172, 49.8569068 ], [ 18.1360104, 49.8526191 ], [ 18.1481045, 49.8561779 ], [ 18.1519685, 49.8585381 ], [ 18.1527709, 49.8589056 ], [ 18.1536243, 49.8568777 ], [ 18.1614773, 49.8492331 ], [ 18.1700692, 49.8509944 ], [ 18.1778441, 49.8572106 ], [ 18.1812971, 49.8563729 ], [ 18.1923904, 49.8530616 ], [ 18.1943888, 49.8456587 ], [ 18.2103979, 49.8487381 ], [ 18.2109873, 49.8542062 ], [ 18.2113315, 49.8553157 ], [ 18.2192128, 49.8609049 ], [ 18.2211167, 49.8631755 ], [ 18.2260762, 49.8627995 ], [ 18.230039, 49.8632091 ], [ 18.2339922, 49.8633745 ], [ 18.2400647, 49.8781486 ], [ 18.2285937, 49.8826541 ], [ 18.2272077, 49.8823891 ], [ 18.2241062, 49.8836098 ], [ 18.2203499, 49.8910391 ], [ 18.2055825, 49.8930931 ], [ 18.2054038, 49.8930899 ], [ 18.2036602, 49.8938942 ], [ 18.2044322, 49.8952252 ], [ 18.219732, 49.8956672 ], [ 18.2335251, 49.8971061 ], [ 18.2359463, 49.9001972 ], [ 18.2404773, 49.898584 ], [ 18.2418654, 49.8979409 ], [ 18.2427981, 49.8968243 ], [ 18.2537189, 49.887056 ], [ 18.2593789, 49.8830613 ], [ 18.2687067, 49.8791444 ], [ 18.2763227, 49.8793278 ], [ 18.2877088, 49.8860359 ], [ 18.2968073, 49.8906534 ], [ 18.3016867, 49.8960227 ], [ 18.3058764, 49.8955907 ], [ 18.3064585, 49.8950939 ], [ 18.3188015, 49.8850354 ], [ 18.3273259, 49.8929557 ], [ 18.3289043, 49.9002448 ], [ 18.340659, 49.8978464 ], [ 18.3346544, 49.8945061 ], [ 18.3292721, 49.8856299 ], [ 18.324624, 49.8849618 ], [ 18.3233644, 49.8845172 ], [ 18.3178456, 49.8795204 ], [ 18.3258493, 49.8650647 ], [ 18.3299449, 49.8661151 ], [ 18.3367138, 49.8658369 ], [ 18.3515893, 49.8669228 ], [ 18.3535123, 49.8650091 ], [ 18.3627148, 49.8536831 ], [ 18.3716651, 49.860579 ], [ 18.3717156, 49.8567317 ], [ 18.3828829, 49.846943 ], [ 18.3950975, 49.8441727 ], [ 18.4072397, 49.8459979 ], [ 18.4113574, 49.8471062 ], [ 18.4156292, 49.8486289 ], [ 18.4279506, 49.8434384 ], [ 18.4283801, 49.8428142 ], [ 18.4200716, 49.8348701 ], [ 18.4194788, 49.8345256 ], [ 18.4188052, 49.8341233 ], [ 18.4149133, 49.828461 ], [ 18.4227558, 49.81755 ], [ 18.4363466, 49.8139503 ], [ 18.4391266, 49.810533 ], [ 18.4511972, 49.8055837 ], [ 18.4583741, 49.8029578 ], [ 18.4639356, 49.8002537 ], [ 18.4713585, 49.7964664 ], [ 18.4744507, 49.7899909 ], [ 18.4857808, 49.7791861 ], [ 18.4978434, 49.7754425 ], [ 18.5025466, 49.7757158 ], [ 18.5041953, 49.7760097 ], [ 18.5048035, 49.7761205 ], [ 18.5138806, 49.7790554 ], [ 18.5220857, 49.7860702 ], [ 18.5247358, 49.7881496 ], [ 18.5266621, 49.7886115 ], [ 18.5343365, 49.7865248 ], [ 18.5376654, 49.7822946 ], [ 18.5532867, 49.7804008 ], [ 18.5656652, 49.7815294 ], [ 18.5689621, 49.7936859 ], [ 18.5612361, 49.8047822 ], [ 18.5566189, 49.8384125 ], [ 18.557485, 49.8380547 ], [ 18.5661813, 49.8326104 ], [ 18.562321, 49.8054261 ], [ 18.5694524, 49.8064978 ], [ 18.582449, 49.8030136 ], [ 18.5918499, 49.799823 ], [ 18.6058158, 49.7944858 ], [ 18.6191797, 49.7959836 ], [ 18.6278811, 49.8014064 ], [ 18.6349517, 49.8072675 ], [ 18.6487666, 49.8047616 ], [ 18.6522455, 49.8074799 ], [ 18.6493346, 49.799919 ], [ 18.6474795, 49.7946581 ], [ 18.6567154, 49.7835927 ], [ 18.664708, 49.7834429 ], [ 18.6680063, 49.7818344 ], [ 18.671359, 49.7797204 ], [ 18.6784871, 49.7671313 ], [ 18.6828799, 49.7647059 ], [ 18.6853172, 49.7638345 ], [ 18.6848592, 49.7557489 ], [ 18.6820219, 49.7453745 ], [ 18.6817725, 49.7443067 ], [ 18.6756955, 49.7380008 ], [ 18.6729678, 49.736396 ], [ 18.6650907, 49.736685 ], [ 18.6632536, 49.7364205 ], [ 18.6550059, 49.728686 ], [ 18.6683533, 49.7194455 ], [ 18.6706318, 49.7193477 ], [ 18.6812824, 49.7200114 ], [ 18.683301, 49.7202758 ], [ 18.6805981, 49.718731 ], [ 18.6808987, 49.7037261 ], [ 18.6860436, 49.7025016 ], [ 18.6856826, 49.6871518 ], [ 18.6861914, 49.6779575 ], [ 18.6862449, 49.6645337 ], [ 18.6859114, 49.6596657 ], [ 18.6851034, 49.6433297 ], [ 18.6840896, 49.6349509 ], [ 18.681082, 49.6311019 ], [ 18.6681694, 49.6312017 ], [ 18.6640203, 49.6317786 ], [ 18.6505738, 49.6241293 ], [ 18.6477309, 49.6236864 ], [ 18.6498253, 49.6392894 ], [ 18.6409234, 49.6402916 ], [ 18.6367228, 49.6376042 ], [ 18.6265404, 49.6405852 ], [ 18.6165783, 49.6358259 ], [ 18.6147862, 49.6413502 ], [ 18.6094516, 49.6447706 ], [ 18.5996121, 49.6330383 ], [ 18.5938534, 49.6445077 ], [ 18.5869054, 49.6511415 ], [ 18.5748969, 49.6454828 ], [ 18.5812681, 49.6309643 ], [ 18.5821248, 49.6189155 ], [ 18.5864841, 49.6130858 ], [ 18.5915842, 49.6080127 ], [ 18.5874403, 49.6100696 ], [ 18.578959, 49.6197946 ], [ 18.5720949, 49.6206249 ], [ 18.5695436, 49.6309458 ], [ 18.5687895, 49.6379019 ], [ 18.5682927, 49.642086 ], [ 18.5680126, 49.6536376 ], [ 18.5561362, 49.6534541 ], [ 18.5463008, 49.6605204 ], [ 18.539005, 49.6491365 ], [ 18.5373112, 49.6413968 ], [ 18.5494562, 49.630148 ], [ 18.5573244, 49.6053861 ], [ 18.5417985, 49.5963847 ], [ 18.5340084, 49.5846556 ], [ 18.5282564, 49.5908249 ], [ 18.5229633, 49.5948593 ], [ 18.515496, 49.6010448 ], [ 18.503765, 49.6047063 ], [ 18.4888223, 49.6045455 ], [ 18.4862911, 49.6011536 ], [ 18.4760953, 49.5883102 ], [ 18.4902441, 49.5843064 ], [ 18.4769599, 49.5743889 ], [ 18.5015094, 49.5382205 ], [ 18.5006777, 49.5361209 ], [ 18.4992462, 49.535205 ], [ 18.498698, 49.5357796 ], [ 18.475055, 49.5738693 ], [ 18.4656792, 49.573914 ], [ 18.4651454, 49.5744745 ], [ 18.4608388, 49.5872514 ], [ 18.4734075, 49.5969693 ], [ 18.4646715, 49.6045217 ], [ 18.4552409, 49.6061066 ], [ 18.4435235, 49.6061926 ], [ 18.4432515, 49.6061055 ], [ 18.4376575, 49.6031239 ], [ 18.4263579, 49.592241 ], [ 18.42548, 49.5888752 ], [ 18.4158879, 49.5938919 ], [ 18.4100027, 49.5925887 ], [ 18.4053239, 49.5808345 ], [ 18.4120506, 49.5739511 ], [ 18.4251539, 49.5664089 ], [ 18.4230118, 49.5653108 ], [ 18.4154229, 49.5639647 ], [ 18.4019695, 49.565966 ], [ 18.4005895, 49.5660713 ], [ 18.3974911, 49.5662327 ], [ 18.3899611, 49.5641224 ], [ 18.3879762, 49.5482288 ], [ 18.4088473, 49.5475559 ], [ 18.3937693, 49.5407118 ], [ 18.3961621, 49.5333357 ], [ 18.3983372, 49.5308587 ], [ 18.4020463, 49.526697 ], [ 18.4169864, 49.5132864 ], [ 18.4261398, 49.4710946 ], [ 18.4294339, 49.4709985 ], [ 18.4337827, 49.4700806 ], [ 18.438108, 49.465448 ], [ 18.4531481, 49.4612453 ], [ 18.4539959, 49.4607941 ], [ 18.4619013, 49.4575075 ], [ 18.463925, 49.455857 ], [ 18.461539, 49.4569251 ], [ 18.4529141, 49.4609298 ], [ 18.4371694, 49.4646577 ], [ 18.4219882, 49.4594802 ], [ 18.4193527, 49.4590267 ], [ 18.4189491, 49.4659766 ], [ 18.4185963, 49.4692085 ], [ 18.3783462, 49.5258972 ], [ 18.3653057, 49.5258312 ], [ 18.3514179, 49.5196905 ], [ 18.3417037, 49.510458 ], [ 18.3407042, 49.5096709 ], [ 18.3465216, 49.4682921 ], [ 18.3393191, 49.5099968 ], [ 18.3380532, 49.5119337 ], [ 18.3363236, 49.5149197 ], [ 18.3287305, 49.5219464 ], [ 18.3204146, 49.5225132 ], [ 18.3097085, 49.5196809 ], [ 18.3058442, 49.5207013 ], [ 18.3000561, 49.5210023 ], [ 18.2852438, 49.513965 ], [ 18.2747671, 49.519465 ], [ 18.2617437, 49.5244665 ], [ 18.2518009, 49.5212003 ], [ 18.2510133, 49.5208445 ], [ 18.2373678, 49.5218081 ], [ 18.2364124, 49.5232074 ], [ 18.2368601, 49.5236682 ], [ 18.2399012, 49.5293721 ], [ 18.2367472, 49.5431863 ], [ 18.2272988, 49.5435612 ], [ 18.2147399, 49.5427984 ], [ 18.2114696, 49.5422383 ], [ 18.2060464, 49.5407099 ], [ 18.1947321, 49.5438068 ], [ 18.1867455, 49.5465334 ], [ 18.1785822, 49.5521507 ], [ 18.1648336, 49.5498059 ], [ 18.1601045, 49.5490348 ], [ 18.1592852, 49.5496473 ], [ 18.156666, 49.5634583 ], [ 18.1427259, 49.5633326 ], [ 18.130204, 49.5737762 ], [ 18.1168962, 49.5660489 ], [ 18.1070868, 49.5587936 ], [ 18.104473, 49.55615 ], [ 18.10086, 49.554765 ], [ 18.1001493, 49.5557262 ], [ 18.1009835, 49.5618044 ], [ 18.1077543, 49.5668696 ], [ 18.0971756, 49.5783028 ], [ 18.0900219, 49.5843494 ], [ 18.0786636, 49.5963511 ], [ 18.0743169, 49.5928899 ], [ 18.0690742, 49.5945111 ], [ 18.0661257, 49.5981615 ], [ 18.0657766, 49.6001645 ], [ 18.0531981, 49.6095438 ], [ 18.0406453, 49.5837551 ], [ 18.0479938, 49.5748977 ], [ 18.0436025, 49.5649677 ], [ 18.0283167, 49.56172 ], [ 18.0262595, 49.5523098 ], [ 18.0258246, 49.5521832 ], [ 18.0225212, 49.5580614 ], [ 18.020747, 49.5709517 ], [ 18.0187522, 49.5746266 ], [ 18.0111487, 49.5828543 ], [ 18.0032851, 49.5819477 ], [ 18.0022846, 49.5821211 ], [ 18.0012422, 49.5830585 ], [ 17.9926026, 49.5914587 ], [ 17.9927782, 49.5926484 ], [ 17.9965742, 49.6020608 ], [ 17.9933034, 49.6112053 ], [ 17.9916203, 49.6224075 ], [ 17.9918787, 49.6258704 ], [ 17.9929687, 49.6363483 ], [ 17.9953039, 49.6304198 ], [ 17.9982319, 49.6176023 ], [ 18.0084908, 49.6086249 ], [ 18.0226689, 49.6065024 ], [ 18.0279199, 49.6075446 ], [ 18.0289189, 49.6076861 ], [ 18.0307934, 49.6075062 ], [ 18.0327954, 49.6037116 ], [ 18.0357001, 49.6012064 ], [ 18.051482, 49.6098932 ], [ 18.0608873, 49.6189996 ], [ 18.0647439, 49.6232702 ], [ 18.0652563, 49.624017 ], [ 18.0713631, 49.632522 ], [ 18.0756118, 49.6342677 ], [ 18.0791416, 49.633618 ], [ 18.0876661, 49.6461093 ], [ 18.0854696, 49.6513228 ], [ 18.0850813, 49.6525242 ], [ 18.0834162, 49.6582215 ], [ 18.0831921, 49.6602317 ], [ 18.08199, 49.6643981 ], [ 18.082975, 49.672986 ], [ 18.0796888, 49.6804417 ], [ 18.0696291, 49.6904578 ], [ 18.0659667, 49.6927505 ], [ 18.0455683, 49.6766696 ], [ 18.05526, 49.6736789 ], [ 18.0556591, 49.6663491 ], [ 18.0557091, 49.665898 ], [ 18.0561409, 49.6592404 ], [ 18.0515582, 49.6472419 ], [ 18.0509697, 49.6458669 ], [ 18.0496275, 49.6473385 ], [ 18.0465193, 49.6501313 ], [ 18.0294673, 49.651206 ], [ 18.0261569, 49.65056 ], [ 18.0228594, 49.6506668 ], [ 18.0229238, 49.6511417 ], [ 18.0230601, 49.6521271 ], [ 18.0240034, 49.6524088 ], [ 18.0291041, 49.6529218 ], [ 18.045706, 49.6545557 ], [ 18.0492616, 49.668998 ], [ 18.042295, 49.6749799 ], [ 18.0419774, 49.6799818 ], [ 18.0406981, 49.6878381 ], [ 18.0431371, 49.7035538 ], [ 18.0303159, 49.7134763 ], [ 18.0299662, 49.714879 ], [ 18.0274812, 49.7236734 ], [ 18.0275923, 49.7241671 ], [ 18.0309798, 49.7234548 ], [ 18.047444, 49.7223404 ], [ 18.0564316, 49.7183571 ], [ 18.0576702, 49.7148716 ], [ 18.0710311, 49.7079609 ], [ 18.0705402, 49.706006 ], [ 18.0733133, 49.6907168 ], [ 18.0796167, 49.6833389 ], [ 18.0919823, 49.6775205 ], [ 18.0926405, 49.6774602 ], [ 18.107704, 49.6826722 ], [ 18.0981229, 49.6944873 ], [ 18.0978763, 49.6944959 ], [ 18.0966669, 49.6957235 ], [ 18.0947349, 49.697406 ], [ 18.0914635, 49.7052382 ], [ 18.0959586, 49.7040441 ], [ 18.0975723, 49.702563 ], [ 18.0993787, 49.6997572 ], [ 18.1021803, 49.6945157 ], [ 18.1145358, 49.6904546 ], [ 18.1205275, 49.6942537 ], [ 18.1214791, 49.6949272 ], [ 18.1240346, 49.6943646 ], [ 18.1285054, 49.6928012 ], [ 18.1408164, 49.6942033 ], [ 18.1446744, 49.7079114 ], [ 18.1325568, 49.7181806 ], [ 18.129331, 49.7171518 ], [ 18.137214, 49.7260689 ], [ 18.1364104, 49.7423519 ], [ 18.1318449, 49.745836 ], [ 18.1315975, 49.7495413 ], [ 18.132315, 49.7518878 ], [ 18.133015, 49.7520724 ], [ 18.1396978, 49.7504356 ], [ 18.1490627, 49.7498212 ], [ 18.1603397, 49.7498596 ], [ 18.1664809, 49.7367632 ], [ 18.1691472, 49.7346247 ], [ 18.1833995, 49.7346375 ], [ 18.1931728, 49.7472192 ], [ 18.1934923, 49.7481723 ], [ 18.1956814, 49.7516973 ], [ 18.1964159, 49.7522217 ], [ 18.1978481, 49.7534988 ], [ 18.2013864, 49.7578038 ], [ 18.2036034, 49.7652852 ], [ 18.2046457, 49.7678614 ], [ 18.2080389, 49.7747332 ], [ 18.2101227, 49.7838983 ], [ 18.2148852, 49.788225 ], [ 18.2172086, 49.7967698 ], [ 18.2125827, 49.8059932 ], [ 18.20248, 49.8056513 ], [ 18.1970327, 49.7970455 ], [ 18.1965386, 49.7970845 ], [ 18.1859923, 49.7925053 ], [ 18.1867821, 49.7792459 ], [ 18.1867311, 49.7790703 ], [ 18.1803392, 49.7723222 ], [ 18.1683247, 49.7722772 ], [ 18.1665154, 49.7736656 ], [ 18.1537333, 49.7821127 ], [ 18.1529557, 49.7821687 ], [ 18.15176, 49.78225 ], [ 18.1383609, 49.772749 ], [ 18.1254261, 49.7805173 ], [ 18.1248169, 49.7807072 ], [ 18.1247444, 49.7807298 ], [ 18.0969961, 49.755662 ], [ 18.0956885, 49.754636 ], [ 18.0917439, 49.7538155 ], [ 18.095786, 49.7576744 ], [ 18.1211538, 49.7824968 ], [ 18.1176862, 49.7863357 ], [ 18.116484, 49.7928642 ], [ 18.1236684, 49.7920226 ], [ 18.1247307, 49.7921444 ], [ 18.1252216, 49.7921483 ], [ 18.1393828, 49.7997074 ], [ 18.1466975, 49.80206 ], [ 18.1519641, 49.8097392 ], [ 18.1433631, 49.8221004 ], [ 18.1407213, 49.8221887 ], [ 18.1336011, 49.8213125 ], [ 18.1316571, 49.8213403 ], [ 18.1222766, 49.8160753 ], [ 18.1207614, 49.8165495 ], [ 18.1176521, 49.8170644 ], [ 18.1163135, 49.8175883 ], [ 18.1121413, 49.8282165 ], [ 18.1121005, 49.8291214 ], [ 18.1126208, 49.8327848 ], [ 18.1127898, 49.8329187 ], [ 18.1211563, 49.83422 ], [ 18.1229781, 49.8475691 ], [ 18.1213545, 49.8499196 ], [ 18.1184024, 49.8600751 ], [ 18.0968459, 49.875893 ] ] ] } }
]
}
